<?xml version="1.0" encoding="UTF-8"?>
<gpx xmlns="http://www.topografix.com/GPX/1/1" version="1.1" creator="AlpineQuest 2.4.0c" xmlns:xsi="http://www.w3.org/2001/XMLSchema-instance" xsi:schemaLocation="http://www.topografix.com/GPX/1/1 http://www.topografix.com/GPX/1/1/gpx.xsd">
<metadata>
<desc>AlpineQuest Track 01.11.25 10:49:45</desc>
<link href="https://www.alpinequest.net" />
<time>2025-12-28T16:07:46Z</time>
</metadata>
<trk>
<name>Summerau-Ottenschlag-Linz</name>
<type>bicycle</type>
<extensions>
	<line xmlns="http://www.topografix.com/GPX/gpx_style/0/2">
		<color>800080</color>
	</line>
</extensions>
<trkseg>
<trkpt lat="48.5571523" lon="14.4492097">
<ele>666.119</ele>
<time>2025-11-01T09:49:44Z</time>
<hdop>10.71</hdop>
</trkpt>
<trkpt lat="48.5569015" lon="14.4487042">
<ele>663.119</ele>
<time>2025-11-01T09:50:13Z</time>
<hdop>2.55</hdop>
</trkpt>
<trkpt lat="48.5562814" lon="14.4468396">
<ele>661.118</ele>
<time>2025-11-01T09:50:41Z</time>
<hdop>2.04</hdop>
</trkpt>
<trkpt lat="48.5573485" lon="14.4457066">
<ele>661.116</ele>
<time>2025-11-01T09:51:09Z</time>
<hdop>8.67</hdop>
</trkpt>
<trkpt lat="48.5570688" lon="14.4444795">
<ele>664.116</ele>
<time>2025-11-01T09:51:37Z</time>
<hdop>3.06</hdop>
</trkpt>
<trkpt lat="48.5565857" lon="14.4428553">
<ele>662.115</ele>
<time>2025-11-01T09:52:05Z</time>
<hdop>1.53</hdop>
</trkpt>
<trkpt lat="48.5560367" lon="14.4411375">
<ele>661.114</ele>
<time>2025-11-01T09:52:32Z</time>
<hdop>1.53</hdop>
</trkpt>
<trkpt lat="48.5555493" lon="14.4397504">
<ele>663.113</ele>
<time>2025-11-01T09:52:59Z</time>
<hdop>1.53</hdop>
</trkpt>
<trkpt lat="48.5545365" lon="14.4383312">
<ele>660.112</ele>
<time>2025-11-01T09:53:27Z</time>
<hdop>2.04</hdop>
</trkpt>
<trkpt lat="48.5531538" lon="14.436496">
<ele>652.111</ele>
<time>2025-11-01T09:53:55Z</time>
<hdop>1.53</hdop>
</trkpt>
<trkpt lat="48.5523279" lon="14.4347461">
<ele>654.11</ele>
<time>2025-11-01T09:54:23Z</time>
<hdop>1.53</hdop>
</trkpt>
<trkpt lat="48.5517748" lon="14.4349077">
<ele>655.111</ele>
<time>2025-11-01T09:54:51Z</time>
<hdop>3.06</hdop>
</trkpt>
<trkpt lat="48.55127" lon="14.4345491">
<ele>658.11</ele>
<time>2025-11-01T09:55:19Z</time>
<hdop>2.55</hdop>
</trkpt>
<trkpt lat="48.550799" lon="14.4338409">
<ele>662.11</ele>
<time>2025-11-01T09:55:47Z</time>
<hdop>3.06</hdop>
</trkpt>
<trkpt lat="48.5504218" lon="14.4333811">
<ele>669.11</ele>
<time>2025-11-01T09:56:15Z</time>
<hdop>2.55</hdop>
</trkpt>
<trkpt lat="48.5500643" lon="14.4329608">
<ele>674.11</ele>
<time>2025-11-01T09:56:43Z</time>
<hdop>2.55</hdop>
</trkpt>
<trkpt lat="48.5498356" lon="14.4324926">
<ele>678.109</ele>
<time>2025-11-01T09:57:11Z</time>
<hdop>2.55</hdop>
</trkpt>
<trkpt lat="48.5495645" lon="14.4320591">
<ele>681.109</ele>
<time>2025-11-01T09:57:39Z</time>
<hdop>2.55</hdop>
</trkpt>
<trkpt lat="48.5492094" lon="14.431536">
<ele>685.109</ele>
<time>2025-11-01T09:58:07Z</time>
<hdop>3.06</hdop>
</trkpt>
<trkpt lat="48.5487943" lon="14.4310564">
<ele>687.109</ele>
<time>2025-11-01T09:58:35Z</time>
<hdop>2.55</hdop>
</trkpt>
<trkpt lat="48.5482058" lon="14.4302996">
<ele>688.108</ele>
<time>2025-11-01T09:59:03Z</time>
<hdop>2.04</hdop>
</trkpt>
<trkpt lat="48.5476784" lon="14.4293461">
<ele>690.108</ele>
<time>2025-11-01T09:59:31Z</time>
<hdop>2.55</hdop>
</trkpt>
<trkpt lat="48.5472979" lon="14.4288251">
<ele>694.108</ele>
<time>2025-11-01T09:59:59Z</time>
<hdop>3.06</hdop>
</trkpt>
<trkpt lat="48.5469848" lon="14.4283681">
<ele>699.107</ele>
<time>2025-11-01T10:00:27Z</time>
<hdop>2.55</hdop>
</trkpt>
<trkpt lat="48.5467776" lon="14.4279305">
<ele>702.107</ele>
<time>2025-11-01T10:00:55Z</time>
<hdop>2.04</hdop>
</trkpt>
<trkpt lat="48.5466761" lon="14.4274164">
<ele>705.107</ele>
<time>2025-11-01T10:01:23Z</time>
<hdop>2.55</hdop>
</trkpt>
<trkpt lat="48.5466404" lon="14.4272337">
<ele>707.107</ele>
<time>2025-11-01T10:01:51Z</time>
<hdop>0.51</hdop>
</trkpt>
<trkpt lat="48.5466404" lon="14.4272337">
<ele>707.107</ele>
<time>2025-11-01T10:02:19Z</time>
<hdop>0.51</hdop>
</trkpt>
<trkpt lat="48.5466405" lon="14.4272337">
<ele>707.107</ele>
<time>2025-11-01T10:02:47Z</time>
<hdop>0.51</hdop>
</trkpt>
<trkpt lat="48.5466405" lon="14.4272337">
<ele>707.107</ele>
<time>2025-11-01T10:03:15Z</time>
<hdop>0.51</hdop>
</trkpt>
<trkpt lat="48.5466406" lon="14.4272335">
<ele>707.107</ele>
<time>2025-11-01T10:03:43Z</time>
<hdop>0.51</hdop>
</trkpt>
<trkpt lat="48.5466406" lon="14.4272334">
<ele>707.107</ele>
<time>2025-11-01T10:04:11Z</time>
<hdop>0.51</hdop>
</trkpt>
<trkpt lat="48.5466414" lon="14.4272324">
<ele>707.107</ele>
<time>2025-11-01T10:04:39Z</time>
<hdop>1.02</hdop>
</trkpt>
<trkpt lat="48.5465724" lon="14.4266926">
<ele>713.106</ele>
<time>2025-11-01T10:05:07Z</time>
<hdop>2.55</hdop>
</trkpt>
<trkpt lat="48.546494" lon="14.4261901">
<ele>719.106</ele>
<time>2025-11-01T10:05:35Z</time>
<hdop>3.57</hdop>
</trkpt>
<trkpt lat="48.546116" lon="14.4262661">
<ele>722.106</ele>
<time>2025-11-01T10:06:03Z</time>
<hdop>3.06</hdop>
</trkpt>
<trkpt lat="48.5457285" lon="14.4259269">
<ele>724.106</ele>
<time>2025-11-01T10:06:31Z</time>
<hdop>4.59</hdop>
</trkpt>
<trkpt lat="48.5458373" lon="14.4251233">
<ele>724.106</ele>
<time>2025-11-01T10:06:59Z</time>
<hdop>5.1</hdop>
</trkpt>
<trkpt lat="48.5456651" lon="14.4250758">
<ele>723.106</ele>
<time>2025-11-01T10:07:27Z</time>
<hdop>3.57</hdop>
</trkpt>
<trkpt lat="48.5455359" lon="14.42447">
<ele>725.105</ele>
<time>2025-11-01T10:07:55Z</time>
<hdop>4.59</hdop>
</trkpt>
<trkpt lat="48.5454796" lon="14.4243302">
<ele>725.105</ele>
<time>2025-11-01T10:08:23Z</time>
<hdop>4.59</hdop>
</trkpt>
<trkpt lat="48.5452603" lon="14.4237355">
<ele>729.105</ele>
<time>2025-11-01T10:08:51Z</time>
<hdop>7.65</hdop>
</trkpt>
<trkpt lat="48.5450813" lon="14.4230366">
<ele>730.104</ele>
<time>2025-11-01T10:09:19Z</time>
<hdop>6.12</hdop>
</trkpt>
<trkpt lat="48.5446326" lon="14.4230668">
<ele>736.104</ele>
<time>2025-11-01T10:09:47Z</time>
<hdop>7.65</hdop>
</trkpt>
<trkpt lat="48.5441895" lon="14.4231758">
<ele>740.105</ele>
<time>2025-11-01T10:10:15Z</time>
<hdop>6.12</hdop>
</trkpt>
<trkpt lat="48.5434307" lon="14.4232792">
<ele>741.105</ele>
<time>2025-11-01T10:10:43Z</time>
<hdop>6.12</hdop>
</trkpt>
<trkpt lat="48.5435855" lon="14.4232461">
<ele>739.105</ele>
<time>2025-11-01T10:11:11Z</time>
<hdop>4.59</hdop>
</trkpt>
<trkpt lat="48.5440535" lon="14.4231455">
<ele>739.105</ele>
<time>2025-11-01T10:11:39Z</time>
<hdop>7.65</hdop>
</trkpt>
<trkpt lat="48.5443851" lon="14.4227435">
<ele>738.104</ele>
<time>2025-11-01T10:12:07Z</time>
<hdop>8.16</hdop>
</trkpt>
<trkpt lat="48.5442987" lon="14.4220825">
<ele>742.104</ele>
<time>2025-11-01T10:12:35Z</time>
<hdop>5.1</hdop>
</trkpt>
<trkpt lat="48.5442541" lon="14.4219836">
<ele>742.104</ele>
<time>2025-11-01T10:13:03Z</time>
<hdop>4.59</hdop>
</trkpt>
<trkpt lat="48.544256" lon="14.4219805">
<ele>742.104</ele>
<time>2025-11-01T10:13:31Z</time>
<hdop>4.59</hdop>
</trkpt>
<trkpt lat="48.5442562" lon="14.421976">
<ele>742.104</ele>
<time>2025-11-01T10:13:59Z</time>
<hdop>4.59</hdop>
</trkpt>
<trkpt lat="48.5442562" lon="14.421976">
<ele>743.104</ele>
<time>2025-11-01T10:14:27Z</time>
<hdop>3.57</hdop>
</trkpt>
<trkpt lat="48.5442562" lon="14.421976">
<ele>743.104</ele>
<time>2025-11-01T10:14:55Z</time>
<hdop>4.59</hdop>
</trkpt>
<trkpt lat="48.5442562" lon="14.421976">
<ele>743.104</ele>
<time>2025-11-01T10:15:23Z</time>
<hdop>4.08</hdop>
</trkpt>
<trkpt lat="48.5442562" lon="14.421976">
<ele>740.104</ele>
<time>2025-11-01T10:15:51Z</time>
<hdop>4.59</hdop>
</trkpt>
<trkpt lat="48.5442541" lon="14.4219213">
<ele>741.104</ele>
<time>2025-11-01T10:16:19Z</time>
<hdop>4.08</hdop>
</trkpt>
<trkpt lat="48.5442523" lon="14.421921">
<ele>742.104</ele>
<time>2025-11-01T10:16:47Z</time>
<hdop>4.08</hdop>
</trkpt>
<trkpt lat="48.5442379" lon="14.4218807">
<ele>743.104</ele>
<time>2025-11-01T10:17:15Z</time>
<hdop>4.08</hdop>
</trkpt>
<trkpt lat="48.5442133" lon="14.4218544">
<ele>745.104</ele>
<time>2025-11-01T10:17:43Z</time>
<hdop>5.61</hdop>
</trkpt>
<trkpt lat="48.5441167" lon="14.4216428">
<ele>744.104</ele>
<time>2025-11-01T10:18:11Z</time>
<hdop>4.08</hdop>
</trkpt>
<trkpt lat="48.5442063" lon="14.4207002">
<ele>743.103</ele>
<time>2025-11-01T10:18:39Z</time>
<hdop>4.59</hdop>
</trkpt>
<trkpt lat="48.5441852" lon="14.4193123">
<ele>739.102</ele>
<time>2025-11-01T10:19:07Z</time>
<hdop>5.1</hdop>
</trkpt>
<trkpt lat="48.5438788" lon="14.419624">
<ele>736.102</ele>
<time>2025-11-01T10:19:35Z</time>
<hdop>7.14</hdop>
</trkpt>
<trkpt lat="48.5431971" lon="14.4197277">
<ele>742.103</ele>
<time>2025-11-01T10:20:03Z</time>
<hdop>7.14</hdop>
</trkpt>
<trkpt lat="48.5427055" lon="14.4195938">
<ele>743.103</ele>
<time>2025-11-01T10:20:31Z</time>
<hdop>7.65</hdop>
</trkpt>
<trkpt lat="48.5423388" lon="14.4194997">
<ele>741.103</ele>
<time>2025-11-01T10:20:59Z</time>
<hdop>6.12</hdop>
</trkpt>
<trkpt lat="48.5419724" lon="14.4188588">
<ele>743.102</ele>
<time>2025-11-01T10:21:27Z</time>
<hdop>5.1</hdop>
</trkpt>
<trkpt lat="48.5411547" lon="14.4180506">
<ele>739.102</ele>
<time>2025-11-01T10:21:55Z</time>
<hdop>6.63</hdop>
</trkpt>
<trkpt lat="48.5401815" lon="14.4171496">
<ele>736.102</ele>
<time>2025-11-01T10:22:23Z</time>
<hdop>7.14</hdop>
</trkpt>
<trkpt lat="48.5391116" lon="14.4167419">
<ele>727.102</ele>
<time>2025-11-01T10:22:51Z</time>
<hdop>5.1</hdop>
</trkpt>
<trkpt lat="48.538477" lon="14.415464">
<ele>724.101</ele>
<time>2025-11-01T10:23:19Z</time>
<hdop>5.1</hdop>
</trkpt>
<trkpt lat="48.5382716" lon="14.4148881">
<ele>714.101</ele>
<time>2025-11-01T10:23:47Z</time>
<hdop>3.57</hdop>
</trkpt>
<trkpt lat="48.5380587" lon="14.4150865">
<ele>711.101</ele>
<time>2025-11-01T10:24:15Z</time>
<hdop>2.04</hdop>
</trkpt>
<trkpt lat="48.538341" lon="14.4147941">
<ele>715.101</ele>
<time>2025-11-01T10:24:43Z</time>
<hdop>4.59</hdop>
</trkpt>
<trkpt lat="48.5381818" lon="14.414095">
<ele>720.1</ele>
<time>2025-11-01T10:25:11Z</time>
<hdop>6.63</hdop>
</trkpt>
<trkpt lat="48.5384328" lon="14.4134938">
<ele>718.1</ele>
<time>2025-11-01T10:25:39Z</time>
<hdop>5.1</hdop>
</trkpt>
<trkpt lat="48.5389397" lon="14.4129458">
<ele>716.099</ele>
<time>2025-11-01T10:26:07Z</time>
<hdop>5.1</hdop>
</trkpt>
<trkpt lat="48.5398238" lon="14.4121409">
<ele>721.098</ele>
<time>2025-11-01T10:26:35Z</time>
<hdop>6.12</hdop>
</trkpt>
<trkpt lat="48.5406431" lon="14.4111921">
<ele>713.097</ele>
<time>2025-11-01T10:27:03Z</time>
<hdop>5.1</hdop>
</trkpt>
<trkpt lat="48.540101" lon="14.4107269">
<ele>717.097</ele>
<time>2025-11-01T10:27:31Z</time>
<hdop>6.12</hdop>
</trkpt>
<trkpt lat="48.5397731" lon="14.4101795">
<ele>721.097</ele>
<time>2025-11-01T10:27:59Z</time>
<hdop>5.61</hdop>
</trkpt>
<trkpt lat="48.5395802" lon="14.4094934">
<ele>722.096</ele>
<time>2025-11-01T10:28:27Z</time>
<hdop>5.61</hdop>
</trkpt>
<trkpt lat="48.5393144" lon="14.4090662">
<ele>722.096</ele>
<time>2025-11-01T10:28:55Z</time>
<hdop>3.06</hdop>
</trkpt>
<trkpt lat="48.5389458" lon="14.4089299">
<ele>726.096</ele>
<time>2025-11-01T10:29:23Z</time>
<hdop>2.04</hdop>
</trkpt>
<trkpt lat="48.5385801" lon="14.4087234">
<ele>727.096</ele>
<time>2025-11-01T10:29:51Z</time>
<hdop>2.55</hdop>
</trkpt>
<trkpt lat="48.5382053" lon="14.4086147">
<ele>731.096</ele>
<time>2025-11-01T10:30:19Z</time>
<hdop>2.55</hdop>
</trkpt>
<trkpt lat="48.5377256" lon="14.4086755">
<ele>733.096</ele>
<time>2025-11-01T10:30:47Z</time>
<hdop>4.08</hdop>
</trkpt>
<trkpt lat="48.5370825" lon="14.4076939">
<ele>725.096</ele>
<time>2025-11-01T10:31:15Z</time>
<hdop>3.57</hdop>
</trkpt>
<trkpt lat="48.5358154" lon="14.4060836">
<ele>692.095</ele>
<time>2025-11-01T10:31:43Z</time>
<hdop>1.53</hdop>
</trkpt>
<trkpt lat="48.5350361" lon="14.4056088">
<ele>693.095</ele>
<time>2025-11-01T10:32:11Z</time>
<hdop>2.04</hdop>
</trkpt>
<trkpt lat="48.5345022" lon="14.4052467">
<ele>695.095</ele>
<time>2025-11-01T10:32:39Z</time>
<hdop>2.04</hdop>
</trkpt>
<trkpt lat="48.5332817" lon="14.404103">
<ele>687.095</ele>
<time>2025-11-01T10:33:07Z</time>
<hdop>2.04</hdop>
</trkpt>
<trkpt lat="48.5325147" lon="14.4033524">
<ele>687.094</ele>
<time>2025-11-01T10:33:35Z</time>
<hdop>1.53</hdop>
</trkpt>
<trkpt lat="48.5321785" lon="14.4026586">
<ele>690.094</ele>
<time>2025-11-01T10:34:03Z</time>
<hdop>2.55</hdop>
</trkpt>
<trkpt lat="48.5319597" lon="14.4019991">
<ele>693.094</ele>
<time>2025-11-01T10:34:31Z</time>
<hdop>2.55</hdop>
</trkpt>
<trkpt lat="48.5315996" lon="14.4016695">
<ele>695.093</ele>
<time>2025-11-01T10:34:59Z</time>
<hdop>2.04</hdop>
</trkpt>
<trkpt lat="48.5311812" lon="14.4012984">
<ele>699.093</ele>
<time>2025-11-01T10:35:27Z</time>
<hdop>2.55</hdop>
</trkpt>
<trkpt lat="48.5306416" lon="14.4007919">
<ele>700.093</ele>
<time>2025-11-01T10:35:55Z</time>
<hdop>2.04</hdop>
</trkpt>
<trkpt lat="48.5297791" lon="14.4003673">
<ele>700.093</ele>
<time>2025-11-01T10:36:23Z</time>
<hdop>1.53</hdop>
</trkpt>
<trkpt lat="48.5290651" lon="14.4014411">
<ele>701.094</ele>
<time>2025-11-01T10:36:51Z</time>
<hdop>1.53</hdop>
</trkpt>
<trkpt lat="48.5284069" lon="14.4024872">
<ele>702.095</ele>
<time>2025-11-01T10:37:19Z</time>
<hdop>1.53</hdop>
</trkpt>
<trkpt lat="48.5276779" lon="14.4019071">
<ele>703.095</ele>
<time>2025-11-01T10:37:47Z</time>
<hdop>2.55</hdop>
</trkpt>
<trkpt lat="48.5266422" lon="14.401293">
<ele>702.095</ele>
<time>2025-11-01T10:38:15Z</time>
<hdop>2.04</hdop>
</trkpt>
<trkpt lat="48.5257201" lon="14.4005442">
<ele>702.094</ele>
<time>2025-11-01T10:38:43Z</time>
<hdop>4.59</hdop>
</trkpt>
<trkpt lat="48.5248788" lon="14.3995583">
<ele>705.094</ele>
<time>2025-11-01T10:39:11Z</time>
<hdop>3.57</hdop>
</trkpt>
<trkpt lat="48.5238591" lon="14.399028">
<ele>702.094</ele>
<time>2025-11-01T10:39:39Z</time>
<hdop>2.55</hdop>
</trkpt>
<trkpt lat="48.5229531" lon="14.3991943">
<ele>705.094</ele>
<time>2025-11-01T10:40:07Z</time>
<hdop>1.53</hdop>
</trkpt>
<trkpt lat="48.5222024" lon="14.399063">
<ele>707.094</ele>
<time>2025-11-01T10:40:35Z</time>
<hdop>2.04</hdop>
</trkpt>
<trkpt lat="48.5217346" lon="14.3986608">
<ele>710.094</ele>
<time>2025-11-01T10:41:03Z</time>
<hdop>2.04</hdop>
</trkpt>
<trkpt lat="48.5211675" lon="14.3985713">
<ele>714.094</ele>
<time>2025-11-01T10:41:31Z</time>
<hdop>2.55</hdop>
</trkpt>
<trkpt lat="48.5203113" lon="14.3984812">
<ele>713.095</ele>
<time>2025-11-01T10:41:59Z</time>
<hdop>2.04</hdop>
</trkpt>
<trkpt lat="48.5197637" lon="14.3986059">
<ele>712.095</ele>
<time>2025-11-01T10:42:27Z</time>
<hdop>3.06</hdop>
</trkpt>
<trkpt lat="48.5192296" lon="14.3976211">
<ele>712.094</ele>
<time>2025-11-01T10:42:55Z</time>
<hdop>1.53</hdop>
</trkpt>
<trkpt lat="48.5187496" lon="14.3962111">
<ele>710.094</ele>
<time>2025-11-01T10:43:23Z</time>
<hdop>2.55</hdop>
</trkpt>
<trkpt lat="48.5181778" lon="14.3949234">
<ele>713.093</ele>
<time>2025-11-01T10:43:51Z</time>
<hdop>3.06</hdop>
</trkpt>
<trkpt lat="48.517719" lon="14.3935896">
<ele>715.092</ele>
<time>2025-11-01T10:44:19Z</time>
<hdop>7.14</hdop>
</trkpt>
<trkpt lat="48.5171967" lon="14.3923387">
<ele>712.091</ele>
<time>2025-11-01T10:44:47Z</time>
<hdop>3.06</hdop>
</trkpt>
<trkpt lat="48.5163317" lon="14.3914462">
<ele>703.091</ele>
<time>2025-11-01T10:45:15Z</time>
<hdop>2.04</hdop>
</trkpt>
<trkpt lat="48.5153152" lon="14.3915518">
<ele>701.091</ele>
<time>2025-11-01T10:45:43Z</time>
<hdop>2.04</hdop>
</trkpt>
<trkpt lat="48.5147811" lon="14.3900678">
<ele>701.09</ele>
<time>2025-11-01T10:46:11Z</time>
<hdop>1.53</hdop>
</trkpt>
<trkpt lat="48.5140876" lon="14.3896127">
<ele>704.09</ele>
<time>2025-11-01T10:46:39Z</time>
<hdop>3.06</hdop>
</trkpt>
<trkpt lat="48.5137142" lon="14.3892582">
<ele>709.09</ele>
<time>2025-11-01T10:47:07Z</time>
<hdop>2.55</hdop>
</trkpt>
<trkpt lat="48.5134566" lon="14.3887102">
<ele>714.09</ele>
<time>2025-11-01T10:47:35Z</time>
<hdop>2.55</hdop>
</trkpt>
<trkpt lat="48.5133324" lon="14.3880816">
<ele>716.089</ele>
<time>2025-11-01T10:48:03Z</time>
<hdop>2.55</hdop>
</trkpt>
<trkpt lat="48.5131143" lon="14.3875143">
<ele>718.089</ele>
<time>2025-11-01T10:48:31Z</time>
<hdop>2.55</hdop>
</trkpt>
<trkpt lat="48.5127645" lon="14.3869646">
<ele>720.089</ele>
<time>2025-11-01T10:48:59Z</time>
<hdop>2.04</hdop>
</trkpt>
<trkpt lat="48.5123957" lon="14.3864658">
<ele>722.089</ele>
<time>2025-11-01T10:49:27Z</time>
<hdop>2.04</hdop>
</trkpt>
<trkpt lat="48.5120723" lon="14.3860814">
<ele>727.088</ele>
<time>2025-11-01T10:49:55Z</time>
<hdop>2.04</hdop>
</trkpt>
<trkpt lat="48.511759" lon="14.3857126">
<ele>731.088</ele>
<time>2025-11-01T10:50:23Z</time>
<hdop>2.04</hdop>
</trkpt>
<trkpt lat="48.5114448" lon="14.3853312">
<ele>735.088</ele>
<time>2025-11-01T10:50:51Z</time>
<hdop>2.55</hdop>
</trkpt>
<trkpt lat="48.511103" lon="14.3848572">
<ele>735.088</ele>
<time>2025-11-01T10:51:19Z</time>
<hdop>2.04</hdop>
</trkpt>
<trkpt lat="48.5106628" lon="14.384462">
<ele>737.088</ele>
<time>2025-11-01T10:51:47Z</time>
<hdop>2.55</hdop>
</trkpt>
<trkpt lat="48.5101743" lon="14.3842225">
<ele>738.088</ele>
<time>2025-11-01T10:52:15Z</time>
<hdop>2.55</hdop>
</trkpt>
<trkpt lat="48.5097015" lon="14.3844466">
<ele>739.088</ele>
<time>2025-11-01T10:52:43Z</time>
<hdop>2.55</hdop>
</trkpt>
<trkpt lat="48.5093713" lon="14.3845299">
<ele>744.088</ele>
<time>2025-11-01T10:53:11Z</time>
<hdop>2.55</hdop>
</trkpt>
<trkpt lat="48.5093588" lon="14.3834558">
<ele>746.087</ele>
<time>2025-11-01T10:53:39Z</time>
<hdop>2.55</hdop>
</trkpt>
<trkpt lat="48.5088623" lon="14.3827661">
<ele>749.087</ele>
<time>2025-11-01T10:54:07Z</time>
<hdop>2.04</hdop>
</trkpt>
<trkpt lat="48.5084675" lon="14.3822375">
<ele>751.087</ele>
<time>2025-11-01T10:54:35Z</time>
<hdop>3.06</hdop>
</trkpt>
<trkpt lat="48.5081793" lon="14.3815116">
<ele>756.086</ele>
<time>2025-11-01T10:55:03Z</time>
<hdop>3.06</hdop>
</trkpt>
<trkpt lat="48.5078878" lon="14.3807666">
<ele>759.086</ele>
<time>2025-11-01T10:55:31Z</time>
<hdop>2.55</hdop>
</trkpt>
<trkpt lat="48.5079572" lon="14.3799196">
<ele>762.085</ele>
<time>2025-11-01T10:55:59Z</time>
<hdop>1.53</hdop>
</trkpt>
<trkpt lat="48.5076698" lon="14.379307">
<ele>765.085</ele>
<time>2025-11-01T10:56:27Z</time>
<hdop>2.04</hdop>
</trkpt>
<trkpt lat="48.5074238" lon="14.3786677">
<ele>769.085</ele>
<time>2025-11-01T10:56:55Z</time>
<hdop>2.04</hdop>
</trkpt>
<trkpt lat="48.5071822" lon="14.3780144">
<ele>772.084</ele>
<time>2025-11-01T10:57:23Z</time>
<hdop>2.04</hdop>
</trkpt>
<trkpt lat="48.5069238" lon="14.3770054">
<ele>773.084</ele>
<time>2025-11-01T10:57:51Z</time>
<hdop>2.04</hdop>
</trkpt>
<trkpt lat="48.5066108" lon="14.3756125">
<ele>768.083</ele>
<time>2025-11-01T10:58:19Z</time>
<hdop>1.53</hdop>
</trkpt>
<trkpt lat="48.5062401" lon="14.3762418">
<ele>768.083</ele>
<time>2025-11-01T10:58:47Z</time>
<hdop>2.04</hdop>
</trkpt>
<trkpt lat="48.5058188" lon="14.3772742">
<ele>769.084</ele>
<time>2025-11-01T10:59:15Z</time>
<hdop>2.04</hdop>
</trkpt>
<trkpt lat="48.5052318" lon="14.3782955">
<ele>769.085</ele>
<time>2025-11-01T10:59:43Z</time>
<hdop>2.55</hdop>
</trkpt>
<trkpt lat="48.5046041" lon="14.3792369">
<ele>770.086</ele>
<time>2025-11-01T11:00:11Z</time>
<hdop>3.06</hdop>
</trkpt>
<trkpt lat="48.5041034" lon="14.3798414">
<ele>773.087</ele>
<time>2025-11-01T11:00:39Z</time>
<hdop>2.04</hdop>
</trkpt>
<trkpt lat="48.5036498" lon="14.3803186">
<ele>775.087</ele>
<time>2025-11-01T11:01:07Z</time>
<hdop>2.04</hdop>
</trkpt>
<trkpt lat="48.5030932" lon="14.3809641">
<ele>777.088</ele>
<time>2025-11-01T11:01:35Z</time>
<hdop>2.55</hdop>
</trkpt>
<trkpt lat="48.5023668" lon="14.3817115">
<ele>780.088</ele>
<time>2025-11-01T11:02:03Z</time>
<hdop>2.55</hdop>
</trkpt>
<trkpt lat="48.5015107" lon="14.3823071">
<ele>781.089</ele>
<time>2025-11-01T11:02:31Z</time>
<hdop>2.55</hdop>
</trkpt>
<trkpt lat="48.5008797" lon="14.3825773">
<ele>785.089</ele>
<time>2025-11-01T11:02:59Z</time>
<hdop>1.53</hdop>
</trkpt>
<trkpt lat="48.5008438" lon="14.3825588">
<ele>785.089</ele>
<time>2025-11-01T11:03:27Z</time>
<hdop>3.06</hdop>
</trkpt>
<trkpt lat="48.5008221" lon="14.3827371">
<ele>786.09</ele>
<time>2025-11-01T11:03:55Z</time>
<hdop>3.06</hdop>
</trkpt>
<trkpt lat="48.5004308" lon="14.3837288">
<ele>788.09</ele>
<time>2025-11-01T11:04:23Z</time>
<hdop>2.55</hdop>
</trkpt>
<trkpt lat="48.4995106" lon="14.3842641">
<ele>785.091</ele>
<time>2025-11-01T11:04:51Z</time>
<hdop>1.53</hdop>
</trkpt>
<trkpt lat="48.4984599" lon="14.3840767">
<ele>786.091</ele>
<time>2025-11-01T11:05:19Z</time>
<hdop>2.04</hdop>
</trkpt>
<trkpt lat="48.4974771" lon="14.3838423">
<ele>788.091</ele>
<time>2025-11-01T11:05:47Z</time>
<hdop>3.57</hdop>
</trkpt>
<trkpt lat="48.4966922" lon="14.3839362">
<ele>793.092</ele>
<time>2025-11-01T11:06:15Z</time>
<hdop>3.06</hdop>
</trkpt>
<trkpt lat="48.4949357" lon="14.3834901">
<ele>788.092</ele>
<time>2025-11-01T11:06:43Z</time>
<hdop>2.04</hdop>
</trkpt>
<trkpt lat="48.494491" lon="14.3833192">
<ele>785.092</ele>
<time>2025-11-01T11:07:11Z</time>
<hdop>2.55</hdop>
</trkpt>
<trkpt lat="48.4941181" lon="14.3833786">
<ele>785.092</ele>
<time>2025-11-01T11:07:39Z</time>
<hdop>2.55</hdop>
</trkpt>
<trkpt lat="48.4941181" lon="14.3833786">
<ele>785.092</ele>
<time>2025-11-01T11:08:07Z</time>
<hdop>1.53</hdop>
</trkpt>
<trkpt lat="48.4941181" lon="14.3833786">
<ele>784.092</ele>
<time>2025-11-01T11:08:35Z</time>
<hdop>1.53</hdop>
</trkpt>
<trkpt lat="48.4941181" lon="14.3833786">
<ele>785.092</ele>
<time>2025-11-01T11:09:03Z</time>
<hdop>1.53</hdop>
</trkpt>
<trkpt lat="48.4941181" lon="14.3833786">
<ele>785.092</ele>
<time>2025-11-01T11:09:31Z</time>
<hdop>2.55</hdop>
</trkpt>
<trkpt lat="48.4941181" lon="14.3833786">
<ele>786.092</ele>
<time>2025-11-01T11:09:59Z</time>
<hdop>2.04</hdop>
</trkpt>
<trkpt lat="48.4941181" lon="14.3833786">
<ele>785.092</ele>
<time>2025-11-01T11:10:27Z</time>
<hdop>3.06</hdop>
</trkpt>
<trkpt lat="48.4941181" lon="14.3833786">
<ele>785.092</ele>
<time>2025-11-01T11:10:55Z</time>
<hdop>3.06</hdop>
</trkpt>
<trkpt lat="48.4940697" lon="14.3833672">
<ele>786.092</ele>
<time>2025-11-01T11:11:23Z</time>
<hdop>3.06</hdop>
</trkpt>
<trkpt lat="48.493407" lon="14.3834374">
<ele>790.092</ele>
<time>2025-11-01T11:11:51Z</time>
<hdop>3.57</hdop>
</trkpt>
<trkpt lat="48.4922573" lon="14.3832103">
<ele>792.093</ele>
<time>2025-11-01T11:12:19Z</time>
<hdop>6.12</hdop>
</trkpt>
<trkpt lat="48.49129" lon="14.3829702">
<ele>794.093</ele>
<time>2025-11-01T11:12:47Z</time>
<hdop>3.57</hdop>
</trkpt>
<trkpt lat="48.4901493" lon="14.3827774">
<ele>788.093</ele>
<time>2025-11-01T11:13:15Z</time>
<hdop>2.55</hdop>
</trkpt>
<trkpt lat="48.4893488" lon="14.3838384">
<ele>785.094</ele>
<time>2025-11-01T11:13:43Z</time>
<hdop>2.04</hdop>
</trkpt>
<trkpt lat="48.4884377" lon="14.3848279">
<ele>786.095</ele>
<time>2025-11-01T11:14:11Z</time>
<hdop>2.55</hdop>
</trkpt>
<trkpt lat="48.4879453" lon="14.3846113">
<ele>791.095</ele>
<time>2025-11-01T11:14:39Z</time>
<hdop>2.55</hdop>
</trkpt>
<trkpt lat="48.4874799" lon="14.385167">
<ele>794.095</ele>
<time>2025-11-01T11:15:07Z</time>
<hdop>3.06</hdop>
</trkpt>
<trkpt lat="48.4870513" lon="14.3855569">
<ele>798.096</ele>
<time>2025-11-01T11:15:35Z</time>
<hdop>3.06</hdop>
</trkpt>
<trkpt lat="48.4867858" lon="14.3861606">
<ele>798.096</ele>
<time>2025-11-01T11:16:03Z</time>
<hdop>3.06</hdop>
</trkpt>
<trkpt lat="48.4864658" lon="14.3867714">
<ele>802.097</ele>
<time>2025-11-01T11:16:31Z</time>
<hdop>3.57</hdop>
</trkpt>
<trkpt lat="48.4861255" lon="14.3872076">
<ele>805.097</ele>
<time>2025-11-01T11:16:59Z</time>
<hdop>4.08</hdop>
</trkpt>
<trkpt lat="48.4859228" lon="14.3878525">
<ele>809.098</ele>
<time>2025-11-01T11:17:27Z</time>
<hdop>3.06</hdop>
</trkpt>
<trkpt lat="48.485755" lon="14.3884468">
<ele>816.098</ele>
<time>2025-11-01T11:17:55Z</time>
<hdop>3.06</hdop>
</trkpt>
<trkpt lat="48.4852639" lon="14.3887191">
<ele>820.099</ele>
<time>2025-11-01T11:18:23Z</time>
<hdop>3.06</hdop>
</trkpt>
<trkpt lat="48.4846984" lon="14.3890725">
<ele>820.099</ele>
<time>2025-11-01T11:18:51Z</time>
<hdop>2.55</hdop>
</trkpt>
<trkpt lat="48.4841826" lon="14.3893774">
<ele>822.099</ele>
<time>2025-11-01T11:19:19Z</time>
<hdop>3.06</hdop>
</trkpt>
<trkpt lat="48.4846024" lon="14.3903395">
<ele>820.1</ele>
<time>2025-11-01T11:19:47Z</time>
<hdop>2.04</hdop>
</trkpt>
<trkpt lat="48.4840587" lon="14.3909044">
<ele>820.1</ele>
<time>2025-11-01T11:20:15Z</time>
<hdop>2.55</hdop>
</trkpt>
<trkpt lat="48.4836721" lon="14.3914444">
<ele>823.101</ele>
<time>2025-11-01T11:20:43Z</time>
<hdop>3.06</hdop>
</trkpt>
<trkpt lat="48.4834675" lon="14.3923207">
<ele>825.102</ele>
<time>2025-11-01T11:21:11Z</time>
<hdop>2.55</hdop>
</trkpt>
<trkpt lat="48.4832805" lon="14.3931339">
<ele>830.102</ele>
<time>2025-11-01T11:21:39Z</time>
<hdop>3.57</hdop>
</trkpt>
<trkpt lat="48.4830255" lon="14.3937676">
<ele>833.103</ele>
<time>2025-11-01T11:22:07Z</time>
<hdop>2.55</hdop>
</trkpt>
<trkpt lat="48.4826689" lon="14.3941706">
<ele>837.103</ele>
<time>2025-11-01T11:22:35Z</time>
<hdop>2.55</hdop>
</trkpt>
<trkpt lat="48.4822602" lon="14.3947532">
<ele>838.104</ele>
<time>2025-11-01T11:23:03Z</time>
<hdop>2.55</hdop>
</trkpt>
<trkpt lat="48.4818084" lon="14.3955058">
<ele>841.104</ele>
<time>2025-11-01T11:23:31Z</time>
<hdop>3.06</hdop>
</trkpt>
<trkpt lat="48.4812955" lon="14.3963054">
<ele>841.105</ele>
<time>2025-11-01T11:23:59Z</time>
<hdop>3.57</hdop>
</trkpt>
<trkpt lat="48.4809685" lon="14.3966929">
<ele>847.106</ele>
<time>2025-11-01T11:24:27Z</time>
<hdop>4.08</hdop>
</trkpt>
<trkpt lat="48.4807342" lon="14.3972195">
<ele>848.106</ele>
<time>2025-11-01T11:24:55Z</time>
<hdop>5.1</hdop>
</trkpt>
<trkpt lat="48.4803975" lon="14.3980022">
<ele>856.107</ele>
<time>2025-11-01T11:25:23Z</time>
<hdop>6.12</hdop>
</trkpt>
<trkpt lat="48.4802882" lon="14.3990096">
<ele>855.107</ele>
<time>2025-11-01T11:25:51Z</time>
<hdop>6.63</hdop>
</trkpt>
<trkpt lat="48.4803704" lon="14.400893">
<ele>850.109</ele>
<time>2025-11-01T11:26:19Z</time>
<hdop>6.12</hdop>
</trkpt>
<trkpt lat="48.4803377" lon="14.4024897">
<ele>836.11</ele>
<time>2025-11-01T11:26:47Z</time>
<hdop>5.61</hdop>
</trkpt>
<trkpt lat="48.4799558" lon="14.4028701">
<ele>837.11</ele>
<time>2025-11-01T11:27:15Z</time>
<hdop>5.61</hdop>
</trkpt>
<trkpt lat="48.4796818" lon="14.4034532">
<ele>838.111</ele>
<time>2025-11-01T11:27:43Z</time>
<hdop>5.1</hdop>
</trkpt>
<trkpt lat="48.4792161" lon="14.4037222">
<ele>845.111</ele>
<time>2025-11-01T11:28:11Z</time>
<hdop>5.1</hdop>
</trkpt>
<trkpt lat="48.4787253" lon="14.4036407">
<ele>849.111</ele>
<time>2025-11-01T11:28:39Z</time>
<hdop>4.59</hdop>
</trkpt>
<trkpt lat="48.4780676" lon="14.4036295">
<ele>852.111</ele>
<time>2025-11-01T11:29:07Z</time>
<hdop>5.1</hdop>
</trkpt>
<trkpt lat="48.4778701" lon="14.4031073">
<ele>853.111</ele>
<time>2025-11-01T11:29:35Z</time>
<hdop>4.08</hdop>
</trkpt>
<trkpt lat="48.4778015" lon="14.4025498">
<ele>856.111</ele>
<time>2025-11-01T11:30:03Z</time>
<hdop>3.06</hdop>
</trkpt>
<trkpt lat="48.4779696" lon="14.4021878">
<ele>861.11</ele>
<time>2025-11-01T11:30:31Z</time>
<hdop>3.57</hdop>
</trkpt>
<trkpt lat="48.4779688" lon="14.4016882">
<ele>867.11</ele>
<time>2025-11-01T11:30:59Z</time>
<hdop>3.57</hdop>
</trkpt>
<trkpt lat="48.4780422" lon="14.4012148">
<ele>871.11</ele>
<time>2025-11-01T11:31:27Z</time>
<hdop>3.57</hdop>
</trkpt>
<trkpt lat="48.4779808" lon="14.400703">
<ele>874.109</ele>
<time>2025-11-01T11:31:55Z</time>
<hdop>3.57</hdop>
</trkpt>
<trkpt lat="48.4778056" lon="14.4003117">
<ele>877.109</ele>
<time>2025-11-01T11:32:23Z</time>
<hdop>3.57</hdop>
</trkpt>
<trkpt lat="48.4771972" lon="14.3999172">
<ele>877.109</ele>
<time>2025-11-01T11:32:51Z</time>
<hdop>3.06</hdop>
</trkpt>
<trkpt lat="48.4758087" lon="14.3987506">
<ele>862.109</ele>
<time>2025-11-01T11:33:19Z</time>
<hdop>3.06</hdop>
</trkpt>
<trkpt lat="48.4753469" lon="14.3969529">
<ele>865.107</ele>
<time>2025-11-01T11:33:47Z</time>
<hdop>3.57</hdop>
</trkpt>
<trkpt lat="48.4743798" lon="14.3967401">
<ele>870.108</ele>
<time>2025-11-01T11:34:15Z</time>
<hdop>5.1</hdop>
</trkpt>
<trkpt lat="48.4730133" lon="14.3978242">
<ele>857.109</ele>
<time>2025-11-01T11:34:43Z</time>
<hdop>3.57</hdop>
</trkpt>
<trkpt lat="48.4729573" lon="14.4002252">
<ele>849.11</ele>
<time>2025-11-01T11:35:11Z</time>
<hdop>4.59</hdop>
</trkpt>
<trkpt lat="48.4725361" lon="14.4014303">
<ele>843.111</ele>
<time>2025-11-01T11:35:39Z</time>
<hdop>4.08</hdop>
</trkpt>
<trkpt lat="48.4714029" lon="14.3993606">
<ele>823.11</ele>
<time>2025-11-01T11:36:07Z</time>
<hdop>2.55</hdop>
</trkpt>
<trkpt lat="48.4704481" lon="14.3977211">
<ele>800.109</ele>
<time>2025-11-01T11:36:35Z</time>
<hdop>3.06</hdop>
</trkpt>
<trkpt lat="48.4699619" lon="14.3963645">
<ele>801.109</ele>
<time>2025-11-01T11:37:03Z</time>
<hdop>2.04</hdop>
</trkpt>
<trkpt lat="48.4694009" lon="14.3946585">
<ele>802.108</ele>
<time>2025-11-01T11:37:31Z</time>
<hdop>2.04</hdop>
</trkpt>
<trkpt lat="48.4689063" lon="14.3924725">
<ele>798.106</ele>
<time>2025-11-01T11:37:59Z</time>
<hdop>1.53</hdop>
</trkpt>
<trkpt lat="48.4673617" lon="14.3910292">
<ele>796.106</ele>
<time>2025-11-01T11:38:27Z</time>
<hdop>2.04</hdop>
</trkpt>
<trkpt lat="48.4664975" lon="14.3889159">
<ele>796.104</ele>
<time>2025-11-01T11:38:55Z</time>
<hdop>2.04</hdop>
</trkpt>
<trkpt lat="48.4664147" lon="14.3865958">
<ele>797.103</ele>
<time>2025-11-01T11:39:23Z</time>
<hdop>2.04</hdop>
</trkpt>
<trkpt lat="48.4664902" lon="14.3855168">
<ele>802.102</ele>
<time>2025-11-01T11:39:51Z</time>
<hdop>2.55</hdop>
</trkpt>
<trkpt lat="48.4662635" lon="14.3849985">
<ele>807.102</ele>
<time>2025-11-01T11:40:19Z</time>
<hdop>3.06</hdop>
</trkpt>
<trkpt lat="48.4664411" lon="14.3844966">
<ele>811.101</ele>
<time>2025-11-01T11:40:47Z</time>
<hdop>3.06</hdop>
</trkpt>
<trkpt lat="48.4663301" lon="14.383892">
<ele>816.101</ele>
<time>2025-11-01T11:41:15Z</time>
<hdop>2.04</hdop>
</trkpt>
<trkpt lat="48.466275" lon="14.3833236">
<ele>821.101</ele>
<time>2025-11-01T11:41:43Z</time>
<hdop>3.06</hdop>
</trkpt>
<trkpt lat="48.4661227" lon="14.3829164">
<ele>824.1</ele>
<time>2025-11-01T11:42:11Z</time>
<hdop>2.55</hdop>
</trkpt>
<trkpt lat="48.4657352" lon="14.3829176">
<ele>828.1</ele>
<time>2025-11-01T11:42:39Z</time>
<hdop>2.55</hdop>
</trkpt>
<trkpt lat="48.465396" lon="14.3829565">
<ele>833.101</ele>
<time>2025-11-01T11:43:07Z</time>
<hdop>2.04</hdop>
</trkpt>
<trkpt lat="48.4653276" lon="14.3825502">
<ele>840.1</ele>
<time>2025-11-01T11:43:35Z</time>
<hdop>3.57</hdop>
</trkpt>
<trkpt lat="48.4653488" lon="14.3821344">
<ele>840.1</ele>
<time>2025-11-01T11:44:03Z</time>
<hdop>3.57</hdop>
</trkpt>
<trkpt lat="48.4653476" lon="14.3821328">
<ele>840.1</ele>
<time>2025-11-01T11:44:31Z</time>
<hdop>4.59</hdop>
</trkpt>
<trkpt lat="48.4652718" lon="14.3814841">
<ele>843.1</ele>
<time>2025-11-01T11:44:59Z</time>
<hdop>3.06</hdop>
</trkpt>
<trkpt lat="48.4647924" lon="14.3815806">
<ele>847.1</ele>
<time>2025-11-01T11:45:27Z</time>
<hdop>3.06</hdop>
</trkpt>
<trkpt lat="48.4644642" lon="14.3819323">
<ele>850.1</ele>
<time>2025-11-01T11:45:55Z</time>
<hdop>3.06</hdop>
</trkpt>
<trkpt lat="48.4641659" lon="14.3825025">
<ele>855.101</ele>
<time>2025-11-01T11:46:23Z</time>
<hdop>3.06</hdop>
</trkpt>
<trkpt lat="48.4638282" lon="14.3831644">
<ele>858.101</ele>
<time>2025-11-01T11:46:51Z</time>
<hdop>3.06</hdop>
</trkpt>
<trkpt lat="48.4630747" lon="14.3839691">
<ele>854.102</ele>
<time>2025-11-01T11:47:19Z</time>
<hdop>2.55</hdop>
</trkpt>
<trkpt lat="48.4610211" lon="14.3833062">
<ele>841.102</ele>
<time>2025-11-01T11:47:47Z</time>
<hdop>2.04</hdop>
</trkpt>
<trkpt lat="48.460286" lon="14.3832473">
<ele>839.102</ele>
<time>2025-11-01T11:48:15Z</time>
<hdop>2.55</hdop>
</trkpt>
<trkpt lat="48.4598941" lon="14.3824823">
<ele>836.102</ele>
<time>2025-11-01T11:48:43Z</time>
<hdop>3.06</hdop>
</trkpt>
<trkpt lat="48.4596595" lon="14.3825825">
<ele>835.102</ele>
<time>2025-11-01T11:49:11Z</time>
<hdop>4.08</hdop>
</trkpt>
<trkpt lat="48.4596595" lon="14.3825825">
<ele>835.102</ele>
<time>2025-11-01T11:49:39Z</time>
<hdop>2.55</hdop>
</trkpt>
<trkpt lat="48.4596595" lon="14.3825825">
<ele>835.102</ele>
<time>2025-11-01T11:50:07Z</time>
<hdop>3.57</hdop>
</trkpt>
<trkpt lat="48.4596595" lon="14.3825825">
<ele>835.102</ele>
<time>2025-11-01T11:50:35Z</time>
<hdop>2.55</hdop>
</trkpt>
<trkpt lat="48.4596595" lon="14.3825825">
<ele>835.102</ele>
<time>2025-11-01T11:51:03Z</time>
<hdop>2.55</hdop>
</trkpt>
<trkpt lat="48.4596595" lon="14.3825825">
<ele>836.102</ele>
<time>2025-11-01T11:51:31Z</time>
<hdop>2.55</hdop>
</trkpt>
<trkpt lat="48.4596595" lon="14.3825825">
<ele>836.102</ele>
<time>2025-11-01T11:51:59Z</time>
<hdop>2.04</hdop>
</trkpt>
<trkpt lat="48.4596174" lon="14.3826059">
<ele>836.102</ele>
<time>2025-11-01T11:52:27Z</time>
<hdop>2.55</hdop>
</trkpt>
<trkpt lat="48.4589275" lon="14.3828795">
<ele>839.103</ele>
<time>2025-11-01T11:52:55Z</time>
<hdop>3.06</hdop>
</trkpt>
<trkpt lat="48.4581716" lon="14.3829713">
<ele>837.103</ele>
<time>2025-11-01T11:53:23Z</time>
<hdop>3.57</hdop>
</trkpt>
<trkpt lat="48.4576434" lon="14.3824403">
<ele>839.103</ele>
<time>2025-11-01T11:53:51Z</time>
<hdop>3.57</hdop>
</trkpt>
<trkpt lat="48.4577586" lon="14.3813114">
<ele>837.102</ele>
<time>2025-11-01T11:54:19Z</time>
<hdop>4.59</hdop>
</trkpt>
<trkpt lat="48.4578463" lon="14.3794812">
<ele>835.1</ele>
<time>2025-11-01T11:54:47Z</time>
<hdop>5.61</hdop>
</trkpt>
<trkpt lat="48.457618" lon="14.3794201">
<ele>834.1</ele>
<time>2025-11-01T11:55:15Z</time>
<hdop>4.59</hdop>
</trkpt>
<trkpt lat="48.4562675" lon="14.3803018">
<ele>824.102</ele>
<time>2025-11-01T11:55:43Z</time>
<hdop>3.06</hdop>
</trkpt>
<trkpt lat="48.4544298" lon="14.3817345">
<ele>811.103</ele>
<time>2025-11-01T11:56:11Z</time>
<hdop>3.57</hdop>
</trkpt>
<trkpt lat="48.454181" lon="14.3802384">
<ele>803.102</ele>
<time>2025-11-01T11:56:39Z</time>
<hdop>2.55</hdop>
</trkpt>
<trkpt lat="48.4541198" lon="14.3784739">
<ele>802.101</ele>
<time>2025-11-01T11:57:07Z</time>
<hdop>4.08</hdop>
</trkpt>
<trkpt lat="48.4545574" lon="14.3776162">
<ele>803.1</ele>
<time>2025-11-01T11:57:35Z</time>
<hdop>5.61</hdop>
</trkpt>
<trkpt lat="48.4555556" lon="14.3763647">
<ele>802.099</ele>
<time>2025-11-01T11:58:03Z</time>
<hdop>6.63</hdop>
</trkpt>
<trkpt lat="48.456451" lon="14.3746955">
<ele>794.097</ele>
<time>2025-11-01T11:58:31Z</time>
<hdop>5.1</hdop>
</trkpt>
<trkpt lat="48.4567321" lon="14.3737462">
<ele>791.097</ele>
<time>2025-11-01T11:58:59Z</time>
<hdop>4.59</hdop>
</trkpt>
<trkpt lat="48.4564669" lon="14.3723462">
<ele>783.096</ele>
<time>2025-11-01T11:59:27Z</time>
<hdop>7.14</hdop>
</trkpt>
<trkpt lat="48.4570147" lon="14.3708854">
<ele>760.095</ele>
<time>2025-11-01T11:59:55Z</time>
<hdop>7.14</hdop>
</trkpt>
<trkpt lat="48.4577867" lon="14.3689179">
<ele>744.093</ele>
<time>2025-11-01T12:00:23Z</time>
<hdop>4.59</hdop>
</trkpt>
<trkpt lat="48.4585675" lon="14.3671063">
<ele>723.091</ele>
<time>2025-11-01T12:00:51Z</time>
<hdop>3.06</hdop>
</trkpt>
<trkpt lat="48.4591951" lon="14.3655486">
<ele>707.09</ele>
<time>2025-11-01T12:01:19Z</time>
<hdop>4.08</hdop>
</trkpt>
<trkpt lat="48.4592934" lon="14.3653532">
<ele>706.09</ele>
<time>2025-11-01T12:01:47Z</time>
<hdop>5.1</hdop>
</trkpt>
<trkpt lat="48.4592489" lon="14.3655557">
<ele>704.09</ele>
<time>2025-11-01T12:02:15Z</time>
<hdop>4.08</hdop>
</trkpt>
<trkpt lat="48.4585476" lon="14.3650844">
<ele>700.09</ele>
<time>2025-11-01T12:02:43Z</time>
<hdop>3.57</hdop>
</trkpt>
<trkpt lat="48.4580407" lon="14.3648709">
<ele>701.09</ele>
<time>2025-11-01T12:03:11Z</time>
<hdop>2.55</hdop>
</trkpt>
<trkpt lat="48.4575566" lon="14.3650108">
<ele>704.09</ele>
<time>2025-11-01T12:03:39Z</time>
<hdop>3.57</hdop>
</trkpt>
<trkpt lat="48.4566219" lon="14.3654206">
<ele>703.091</ele>
<time>2025-11-01T12:04:07Z</time>
<hdop>3.06</hdop>
</trkpt>
<trkpt lat="48.4556241" lon="14.3653884">
<ele>700.091</ele>
<time>2025-11-01T12:04:35Z</time>
<hdop>3.06</hdop>
</trkpt>
<trkpt lat="48.4546137" lon="14.3652702">
<ele>700.091</ele>
<time>2025-11-01T12:05:03Z</time>
<hdop>4.08</hdop>
</trkpt>
<trkpt lat="48.453938" lon="14.3651139">
<ele>695.091</ele>
<time>2025-11-01T12:05:31Z</time>
<hdop>4.59</hdop>
</trkpt>
<trkpt lat="48.4537839" lon="14.3650438">
<ele>693.091</ele>
<time>2025-11-01T12:05:59Z</time>
<hdop>4.59</hdop>
</trkpt>
<trkpt lat="48.4537797" lon="14.3650492">
<ele>693.091</ele>
<time>2025-11-01T12:06:27Z</time>
<hdop>4.59</hdop>
</trkpt>
<trkpt lat="48.4537789" lon="14.3650564">
<ele>693.091</ele>
<time>2025-11-01T12:06:55Z</time>
<hdop>3.57</hdop>
</trkpt>
<trkpt lat="48.453781" lon="14.3650634">
<ele>693.091</ele>
<time>2025-11-01T12:07:23Z</time>
<hdop>4.08</hdop>
</trkpt>
<trkpt lat="48.4537788" lon="14.3650678">
<ele>694.091</ele>
<time>2025-11-01T12:07:51Z</time>
<hdop>3.57</hdop>
</trkpt>
<trkpt lat="48.4537777" lon="14.3650738">
<ele>694.091</ele>
<time>2025-11-01T12:08:19Z</time>
<hdop>4.08</hdop>
</trkpt>
<trkpt lat="48.4537761" lon="14.3650744">
<ele>694.092</ele>
<time>2025-11-01T12:08:47Z</time>
<hdop>3.57</hdop>
</trkpt>
<trkpt lat="48.4537761" lon="14.3650744">
<ele>694.092</ele>
<time>2025-11-01T12:09:15Z</time>
<hdop>4.08</hdop>
</trkpt>
<trkpt lat="48.4537761" lon="14.3650744">
<ele>693.092</ele>
<time>2025-11-01T12:09:43Z</time>
<hdop>3.57</hdop>
</trkpt>
<trkpt lat="48.4537761" lon="14.3650744">
<ele>694.092</ele>
<time>2025-11-01T12:10:11Z</time>
<hdop>3.06</hdop>
</trkpt>
<trkpt lat="48.4537761" lon="14.3650744">
<ele>694.092</ele>
<time>2025-11-01T12:10:39Z</time>
<hdop>3.06</hdop>
</trkpt>
<trkpt lat="48.4537761" lon="14.3650744">
<ele>693.092</ele>
<time>2025-11-01T12:11:07Z</time>
<hdop>4.08</hdop>
</trkpt>
<trkpt lat="48.4537761" lon="14.3650744">
<ele>694.092</ele>
<time>2025-11-01T12:11:35Z</time>
<hdop>3.57</hdop>
</trkpt>
<trkpt lat="48.4537872" lon="14.3650609">
<ele>694.091</ele>
<time>2025-11-01T12:12:03Z</time>
<hdop>3.57</hdop>
</trkpt>
<trkpt lat="48.4531249" lon="14.3643918">
<ele>693.091</ele>
<time>2025-11-01T12:12:31Z</time>
<hdop>4.08</hdop>
</trkpt>
<trkpt lat="48.4519348" lon="14.3637091">
<ele>693.091</ele>
<time>2025-11-01T12:12:59Z</time>
<hdop>3.06</hdop>
</trkpt>
<trkpt lat="48.4518939" lon="14.3621047">
<ele>685.09</ele>
<time>2025-11-01T12:13:27Z</time>
<hdop>2.55</hdop>
</trkpt>
<trkpt lat="48.4528149" lon="14.3594681">
<ele>680.088</ele>
<time>2025-11-01T12:13:55Z</time>
<hdop>2.55</hdop>
</trkpt>
<trkpt lat="48.4534204" lon="14.3579348">
<ele>674.087</ele>
<time>2025-11-01T12:14:23Z</time>
<hdop>2.04</hdop>
</trkpt>
<trkpt lat="48.453855" lon="14.3551052">
<ele>656.084</ele>
<time>2025-11-01T12:14:51Z</time>
<hdop>2.04</hdop>
</trkpt>
<trkpt lat="48.4540818" lon="14.3526754">
<ele>640.083</ele>
<time>2025-11-01T12:15:19Z</time>
<hdop>2.55</hdop>
</trkpt>
<trkpt lat="48.4548403" lon="14.3517943">
<ele>643.082</ele>
<time>2025-11-01T12:15:47Z</time>
<hdop>3.06</hdop>
</trkpt>
<trkpt lat="48.4553454" lon="14.3513064">
<ele>651.081</ele>
<time>2025-11-01T12:16:15Z</time>
<hdop>2.55</hdop>
</trkpt>
<trkpt lat="48.4557243" lon="14.3507682">
<ele>658.081</ele>
<time>2025-11-01T12:16:43Z</time>
<hdop>3.57</hdop>
</trkpt>
<trkpt lat="48.455979" lon="14.3502652">
<ele>664.08</ele>
<time>2025-11-01T12:17:11Z</time>
<hdop>3.06</hdop>
</trkpt>
<trkpt lat="48.4561426" lon="14.3495611">
<ele>666.08</ele>
<time>2025-11-01T12:17:39Z</time>
<hdop>3.57</hdop>
</trkpt>
<trkpt lat="48.4560024" lon="14.3488526">
<ele>671.079</ele>
<time>2025-11-01T12:18:07Z</time>
<hdop>4.08</hdop>
</trkpt>
<trkpt lat="48.4558083" lon="14.3480844">
<ele>674.079</ele>
<time>2025-11-01T12:18:35Z</time>
<hdop>3.57</hdop>
</trkpt>
<trkpt lat="48.4553427" lon="14.3473637">
<ele>675.078</ele>
<time>2025-11-01T12:19:03Z</time>
<hdop>4.08</hdop>
</trkpt>
<trkpt lat="48.4547428" lon="14.3480502">
<ele>678.079</ele>
<time>2025-11-01T12:19:31Z</time>
<hdop>5.1</hdop>
</trkpt>
<trkpt lat="48.4543033" lon="14.348804">
<ele>683.08</ele>
<time>2025-11-01T12:19:59Z</time>
<hdop>3.57</hdop>
</trkpt>
<trkpt lat="48.4536954" lon="14.3490122">
<ele>686.08</ele>
<time>2025-11-01T12:20:27Z</time>
<hdop>4.08</hdop>
</trkpt>
<trkpt lat="48.4530846" lon="14.3490732">
<ele>689.08</ele>
<time>2025-11-01T12:20:55Z</time>
<hdop>4.08</hdop>
</trkpt>
<trkpt lat="48.4524692" lon="14.349084">
<ele>692.081</ele>
<time>2025-11-01T12:21:23Z</time>
<hdop>3.57</hdop>
</trkpt>
<trkpt lat="48.4519196" lon="14.3493047">
<ele>700.081</ele>
<time>2025-11-01T12:21:51Z</time>
<hdop>3.06</hdop>
</trkpt>
<trkpt lat="48.4514013" lon="14.3496087">
<ele>705.081</ele>
<time>2025-11-01T12:22:19Z</time>
<hdop>4.08</hdop>
</trkpt>
<trkpt lat="48.4508163" lon="14.3495725">
<ele>709.081</ele>
<time>2025-11-01T12:22:47Z</time>
<hdop>4.59</hdop>
</trkpt>
<trkpt lat="48.4509191" lon="14.3486549">
<ele>715.081</ele>
<time>2025-11-01T12:23:15Z</time>
<hdop>4.08</hdop>
</trkpt>
<trkpt lat="48.451212" lon="14.3478753">
<ele>718.08</ele>
<time>2025-11-01T12:23:43Z</time>
<hdop>3.57</hdop>
</trkpt>
<trkpt lat="48.451645" lon="14.3471846">
<ele>722.079</ele>
<time>2025-11-01T12:24:11Z</time>
<hdop>2.04</hdop>
</trkpt>
<trkpt lat="48.4520229" lon="14.3466765">
<ele>726.079</ele>
<time>2025-11-01T12:24:39Z</time>
<hdop>3.06</hdop>
</trkpt>
<trkpt lat="48.4518392" lon="14.3458377">
<ele>729.078</ele>
<time>2025-11-01T12:25:07Z</time>
<hdop>3.57</hdop>
</trkpt>
<trkpt lat="48.4517959" lon="14.3452163">
<ele>733.078</ele>
<time>2025-11-01T12:25:35Z</time>
<hdop>3.57</hdop>
</trkpt>
<trkpt lat="48.451867" lon="14.3445774">
<ele>737.078</ele>
<time>2025-11-01T12:26:03Z</time>
<hdop>4.08</hdop>
</trkpt>
<trkpt lat="48.4520789" lon="14.3435313">
<ele>737.077</ele>
<time>2025-11-01T12:26:31Z</time>
<hdop>4.59</hdop>
</trkpt>
<trkpt lat="48.4521983" lon="14.3420388">
<ele>740.076</ele>
<time>2025-11-01T12:26:59Z</time>
<hdop>4.08</hdop>
</trkpt>
<trkpt lat="48.4521475" lon="14.3401593">
<ele>743.074</ele>
<time>2025-11-01T12:27:27Z</time>
<hdop>2.55</hdop>
</trkpt>
<trkpt lat="48.4519328" lon="14.3388325">
<ele>745.073</ele>
<time>2025-11-01T12:27:55Z</time>
<hdop>3.57</hdop>
</trkpt>
<trkpt lat="48.4517154" lon="14.3393161">
<ele>748.074</ele>
<time>2025-11-01T12:28:23Z</time>
<hdop>4.59</hdop>
</trkpt>
<trkpt lat="48.4514331" lon="14.3395127">
<ele>751.074</ele>
<time>2025-11-01T12:28:51Z</time>
<hdop>5.61</hdop>
</trkpt>
<trkpt lat="48.4512175" lon="14.3398527">
<ele>757.074</ele>
<time>2025-11-01T12:29:19Z</time>
<hdop>4.08</hdop>
</trkpt>
<trkpt lat="48.4509743" lon="14.3400867">
<ele>760.075</ele>
<time>2025-11-01T12:29:47Z</time>
<hdop>4.08</hdop>
</trkpt>
<trkpt lat="48.4506663" lon="14.3401194">
<ele>764.075</ele>
<time>2025-11-01T12:30:15Z</time>
<hdop>3.57</hdop>
</trkpt>
<trkpt lat="48.4503801" lon="14.3400073">
<ele>768.075</ele>
<time>2025-11-01T12:30:43Z</time>
<hdop>3.57</hdop>
</trkpt>
<trkpt lat="48.4500177" lon="14.3397208">
<ele>772.075</ele>
<time>2025-11-01T12:31:11Z</time>
<hdop>2.55</hdop>
</trkpt>
<trkpt lat="48.4495725" lon="14.3394593">
<ele>776.075</ele>
<time>2025-11-01T12:31:39Z</time>
<hdop>2.04</hdop>
</trkpt>
<trkpt lat="48.449205" lon="14.3394565">
<ele>781.075</ele>
<time>2025-11-01T12:32:07Z</time>
<hdop>2.55</hdop>
</trkpt>
<trkpt lat="48.4488301" lon="14.3397009">
<ele>784.075</ele>
<time>2025-11-01T12:32:35Z</time>
<hdop>3.06</hdop>
</trkpt>
<trkpt lat="48.448321" lon="14.3399195">
<ele>784.075</ele>
<time>2025-11-01T12:33:03Z</time>
<hdop>3.06</hdop>
</trkpt>
<trkpt lat="48.4480441" lon="14.3392996">
<ele>789.075</ele>
<time>2025-11-01T12:33:31Z</time>
<hdop>2.55</hdop>
</trkpt>
<trkpt lat="48.4476446" lon="14.3390946">
<ele>794.075</ele>
<time>2025-11-01T12:33:59Z</time>
<hdop>2.55</hdop>
</trkpt>
<trkpt lat="48.4472799" lon="14.3389346">
<ele>800.075</ele>
<time>2025-11-01T12:34:27Z</time>
<hdop>2.55</hdop>
</trkpt>
<trkpt lat="48.4469428" lon="14.3386914">
<ele>802.075</ele>
<time>2025-11-01T12:34:55Z</time>
<hdop>3.06</hdop>
</trkpt>
<trkpt lat="48.4466832" lon="14.3382948">
<ele>808.075</ele>
<time>2025-11-01T12:35:23Z</time>
<hdop>3.57</hdop>
</trkpt>
<trkpt lat="48.4465907" lon="14.3377204">
<ele>813.074</ele>
<time>2025-11-01T12:35:51Z</time>
<hdop>3.06</hdop>
</trkpt>
<trkpt lat="48.4466058" lon="14.3369026">
<ele>814.074</ele>
<time>2025-11-01T12:36:19Z</time>
<hdop>3.06</hdop>
</trkpt>
<trkpt lat="48.4461358" lon="14.3365434">
<ele>814.074</ele>
<time>2025-11-01T12:36:47Z</time>
<hdop>2.55</hdop>
</trkpt>
<trkpt lat="48.4457474" lon="14.3362175">
<ele>817.073</ele>
<time>2025-11-01T12:37:15Z</time>
<hdop>5.1</hdop>
</trkpt>
<trkpt lat="48.4453459" lon="14.3357148">
<ele>818.073</ele>
<time>2025-11-01T12:37:43Z</time>
<hdop>5.1</hdop>
</trkpt>
<trkpt lat="48.4452946" lon="14.3356511">
<ele>819.073</ele>
<time>2025-11-01T12:38:11Z</time>
<hdop>5.1</hdop>
</trkpt>
<trkpt lat="48.44545" lon="14.3358026">
<ele>819.073</ele>
<time>2025-11-01T12:38:39Z</time>
<hdop>5.61</hdop>
</trkpt>
<trkpt lat="48.4455946" lon="14.3363491">
<ele>821.074</ele>
<time>2025-11-01T12:39:07Z</time>
<hdop>5.1</hdop>
</trkpt>
<trkpt lat="48.4452367" lon="14.3362587">
<ele>823.074</ele>
<time>2025-11-01T12:39:35Z</time>
<hdop>5.1</hdop>
</trkpt>
<trkpt lat="48.4448644" lon="14.3360836">
<ele>825.074</ele>
<time>2025-11-01T12:40:03Z</time>
<hdop>4.59</hdop>
</trkpt>
<trkpt lat="48.4444946" lon="14.3359066">
<ele>829.074</ele>
<time>2025-11-01T12:40:31Z</time>
<hdop>4.59</hdop>
</trkpt>
<trkpt lat="48.4441022" lon="14.3357578">
<ele>834.074</ele>
<time>2025-11-01T12:40:59Z</time>
<hdop>4.59</hdop>
</trkpt>
<trkpt lat="48.4436957" lon="14.3353887">
<ele>835.074</ele>
<time>2025-11-01T12:41:27Z</time>
<hdop>4.59</hdop>
</trkpt>
<trkpt lat="48.4432723" lon="14.335014">
<ele>836.073</ele>
<time>2025-11-01T12:41:55Z</time>
<hdop>6.12</hdop>
</trkpt>
<trkpt lat="48.4429307" lon="14.3345834">
<ele>835.073</ele>
<time>2025-11-01T12:42:23Z</time>
<hdop>4.59</hdop>
</trkpt>
<trkpt lat="48.4428421" lon="14.3343967">
<ele>835.073</ele>
<time>2025-11-01T12:42:51Z</time>
<hdop>4.59</hdop>
</trkpt>
<trkpt lat="48.4425948" lon="14.3338949">
<ele>839.073</ele>
<time>2025-11-01T12:43:19Z</time>
<hdop>5.61</hdop>
</trkpt>
<trkpt lat="48.4421959" lon="14.333275">
<ele>841.072</ele>
<time>2025-11-01T12:43:47Z</time>
<hdop>6.63</hdop>
</trkpt>
<trkpt lat="48.441756" lon="14.3328332">
<ele>844.072</ele>
<time>2025-11-01T12:44:15Z</time>
<hdop>5.1</hdop>
</trkpt>
<trkpt lat="48.4413328" lon="14.3325984">
<ele>843.072</ele>
<time>2025-11-01T12:44:43Z</time>
<hdop>5.61</hdop>
</trkpt>
<trkpt lat="48.4407235" lon="14.3325109">
<ele>846.072</ele>
<time>2025-11-01T12:45:11Z</time>
<hdop>6.63</hdop>
</trkpt>
<trkpt lat="48.4401821" lon="14.3327717">
<ele>848.073</ele>
<time>2025-11-01T12:45:39Z</time>
<hdop>6.12</hdop>
</trkpt>
<trkpt lat="48.4390075" lon="14.3328942">
<ele>846.073</ele>
<time>2025-11-01T12:46:07Z</time>
<hdop>5.1</hdop>
</trkpt>
<trkpt lat="48.4385492" lon="14.3312914">
<ele>844.072</ele>
<time>2025-11-01T12:46:35Z</time>
<hdop>3.06</hdop>
</trkpt>
<trkpt lat="48.4382156" lon="14.3301876">
<ele>845.072</ele>
<time>2025-11-01T12:47:03Z</time>
<hdop>3.57</hdop>
</trkpt>
<trkpt lat="48.4376457" lon="14.329443">
<ele>846.071</ele>
<time>2025-11-01T12:47:31Z</time>
<hdop>3.57</hdop>
</trkpt>
<trkpt lat="48.4371574" lon="14.3283276">
<ele>852.071</ele>
<time>2025-11-01T12:47:59Z</time>
<hdop>4.59</hdop>
</trkpt>
<trkpt lat="48.436717" lon="14.3271886">
<ele>852.07</ele>
<time>2025-11-01T12:48:27Z</time>
<hdop>3.57</hdop>
</trkpt>
<trkpt lat="48.4363815" lon="14.3260134">
<ele>850.069</ele>
<time>2025-11-01T12:48:55Z</time>
<hdop>3.06</hdop>
</trkpt>
<trkpt lat="48.4360025" lon="14.3246237">
<ele>852.068</ele>
<time>2025-11-01T12:49:23Z</time>
<hdop>2.55</hdop>
</trkpt>
<trkpt lat="48.4356355" lon="14.3229457">
<ele>851.067</ele>
<time>2025-11-01T12:49:51Z</time>
<hdop>4.59</hdop>
</trkpt>
<trkpt lat="48.4354957" lon="14.3213576">
<ele>849.066</ele>
<time>2025-11-01T12:50:19Z</time>
<hdop>5.1</hdop>
</trkpt>
<trkpt lat="48.4354787" lon="14.3205822">
<ele>852.066</ele>
<time>2025-11-01T12:50:47Z</time>
<hdop>5.1</hdop>
</trkpt>
<trkpt lat="48.4352792" lon="14.319935">
<ele>852.065</ele>
<time>2025-11-01T12:51:15Z</time>
<hdop>4.08</hdop>
</trkpt>
<trkpt lat="48.4351896" lon="14.319051">
<ele>858.065</ele>
<time>2025-11-01T12:51:43Z</time>
<hdop>2.55</hdop>
</trkpt>
<trkpt lat="48.4349765" lon="14.3181122">
<ele>861.064</ele>
<time>2025-11-01T12:52:11Z</time>
<hdop>2.55</hdop>
</trkpt>
<trkpt lat="48.434691" lon="14.3171405">
<ele>864.063</ele>
<time>2025-11-01T12:52:39Z</time>
<hdop>3.57</hdop>
</trkpt>
<trkpt lat="48.4350183" lon="14.3157553">
<ele>865.062</ele>
<time>2025-11-01T12:53:07Z</time>
<hdop>2.55</hdop>
</trkpt>
<trkpt lat="48.4351095" lon="14.3143883">
<ele>865.061</ele>
<time>2025-11-01T12:53:35Z</time>
<hdop>3.57</hdop>
</trkpt>
<trkpt lat="48.4344414" lon="14.3133166">
<ele>865.061</ele>
<time>2025-11-01T12:54:03Z</time>
<hdop>2.04</hdop>
</trkpt>
<trkpt lat="48.4336138" lon="14.312131">
<ele>863.06</ele>
<time>2025-11-01T12:54:31Z</time>
<hdop>2.04</hdop>
</trkpt>
<trkpt lat="48.4323118" lon="14.3114626">
<ele>852.06</ele>
<time>2025-11-01T12:54:59Z</time>
<hdop>2.04</hdop>
</trkpt>
<trkpt lat="48.4317758" lon="14.3104567">
<ele>845.059</ele>
<time>2025-11-01T12:55:27Z</time>
<hdop>3.06</hdop>
</trkpt>
<trkpt lat="48.4317681" lon="14.3104414">
<ele>844.059</ele>
<time>2025-11-01T12:55:55Z</time>
<hdop>4.08</hdop>
</trkpt>
<trkpt lat="48.4317681" lon="14.3104414">
<ele>843.059</ele>
<time>2025-11-01T12:56:23Z</time>
<hdop>2.55</hdop>
</trkpt>
<trkpt lat="48.4317681" lon="14.3104414">
<ele>844.059</ele>
<time>2025-11-01T12:56:50Z</time>
<hdop>2.04</hdop>
</trkpt>
<trkpt lat="48.4317681" lon="14.3104414">
<ele>844.059</ele>
<time>2025-11-01T12:57:18Z</time>
<hdop>2.04</hdop>
</trkpt>
<trkpt lat="48.4317681" lon="14.3104414">
<ele>844.059</ele>
<time>2025-11-01T12:57:46Z</time>
<hdop>2.04</hdop>
</trkpt>
<trkpt lat="48.4317681" lon="14.3104414">
<ele>844.059</ele>
<time>2025-11-01T12:58:13Z</time>
<hdop>1.53</hdop>
</trkpt>
<trkpt lat="48.4317681" lon="14.3104414">
<ele>844.059</ele>
<time>2025-11-01T12:58:40Z</time>
<hdop>2.04</hdop>
</trkpt>
<trkpt lat="48.4317681" lon="14.3104414">
<ele>844.059</ele>
<time>2025-11-01T12:59:08Z</time>
<hdop>1.53</hdop>
</trkpt>
<trkpt lat="48.4317681" lon="14.3104414">
<ele>844.059</ele>
<time>2025-11-01T12:59:36Z</time>
<hdop>1.53</hdop>
</trkpt>
<trkpt lat="48.4317681" lon="14.3104414">
<ele>844.059</ele>
<time>2025-11-01T13:00:04Z</time>
<hdop>2.04</hdop>
</trkpt>
<trkpt lat="48.4317681" lon="14.3104414">
<ele>844.059</ele>
<time>2025-11-01T13:00:32Z</time>
<hdop>1.53</hdop>
</trkpt>
<trkpt lat="48.4317681" lon="14.3104414">
<ele>844.059</ele>
<time>2025-11-01T13:01:00Z</time>
<hdop>1.53</hdop>
</trkpt>
<trkpt lat="48.4317681" lon="14.3104414">
<ele>844.059</ele>
<time>2025-11-01T13:01:28Z</time>
<hdop>1.53</hdop>
</trkpt>
<trkpt lat="48.4317681" lon="14.3104414">
<ele>844.059</ele>
<time>2025-11-01T13:01:56Z</time>
<hdop>1.53</hdop>
</trkpt>
<trkpt lat="48.4317681" lon="14.3104414">
<ele>844.059</ele>
<time>2025-11-01T13:02:24Z</time>
<hdop>1.53</hdop>
</trkpt>
<trkpt lat="48.4317681" lon="14.3104414">
<ele>844.059</ele>
<time>2025-11-01T13:02:52Z</time>
<hdop>1.53</hdop>
</trkpt>
<trkpt lat="48.4317681" lon="14.3104414">
<ele>844.059</ele>
<time>2025-11-01T13:03:20Z</time>
<hdop>1.53</hdop>
</trkpt>
<trkpt lat="48.4317681" lon="14.3104414">
<ele>845.059</ele>
<time>2025-11-01T13:03:48Z</time>
<hdop>1.53</hdop>
</trkpt>
<trkpt lat="48.4317681" lon="14.3104414">
<ele>845.059</ele>
<time>2025-11-01T13:04:16Z</time>
<hdop>1.53</hdop>
</trkpt>
<trkpt lat="48.4317681" lon="14.3104414">
<ele>844.059</ele>
<time>2025-11-01T13:04:44Z</time>
<hdop>5.61</hdop>
</trkpt>
<trkpt lat="48.4317681" lon="14.3104414">
<ele>844.059</ele>
<time>2025-11-01T13:05:12Z</time>
<hdop>4.59</hdop>
</trkpt>
<trkpt lat="48.4317681" lon="14.3104414">
<ele>843.059</ele>
<time>2025-11-01T13:05:40Z</time>
<hdop>4.59</hdop>
</trkpt>
<trkpt lat="48.4317681" lon="14.3104414">
<ele>842.059</ele>
<time>2025-11-01T13:06:08Z</time>
<hdop>9.18</hdop>
</trkpt>
<trkpt lat="48.431768" lon="14.3104257">
<ele>844.059</ele>
<time>2025-11-01T13:06:36Z</time>
<hdop>4.59</hdop>
</trkpt>
<trkpt lat="48.4308252" lon="14.309487">
<ele>840.059</ele>
<time>2025-11-01T13:07:04Z</time>
<hdop>6.12</hdop>
</trkpt>
<trkpt lat="48.4291379" lon="14.3090554">
<ele>830.059</ele>
<time>2025-11-01T13:07:32Z</time>
<hdop>8.16</hdop>
</trkpt>
<trkpt lat="48.4284977" lon="14.3107128">
<ele>819.061</ele>
<time>2025-11-01T13:08:00Z</time>
<hdop>7.65</hdop>
</trkpt>
<trkpt lat="48.4275277" lon="14.3116625">
<ele>818.062</ele>
<time>2025-11-01T13:08:28Z</time>
<hdop>7.14</hdop>
</trkpt>
<trkpt lat="48.4267331" lon="14.3111312">
<ele>815.061</ele>
<time>2025-11-01T13:08:56Z</time>
<hdop>23.98</hdop>
</trkpt>
<trkpt lat="48.4259886" lon="14.3087741">
<ele>806.06</ele>
<time>2025-11-01T13:09:24Z</time>
<hdop>26.02</hdop>
</trkpt>
<trkpt lat="48.4248637" lon="14.308488">
<ele>799.06</ele>
<time>2025-11-01T13:09:52Z</time>
<hdop>21.43</hdop>
</trkpt>
<trkpt lat="48.4244058" lon="14.3080477">
<ele>801.06</ele>
<time>2025-11-01T13:10:20Z</time>
<hdop>17.35</hdop>
</trkpt>
<trkpt lat="48.4240989" lon="14.3076955">
<ele>804.06</ele>
<time>2025-11-01T13:10:48Z</time>
<hdop>21.94</hdop>
</trkpt>
<trkpt lat="48.4237971" lon="14.3073707">
<ele>806.06</ele>
<time>2025-11-01T13:11:16Z</time>
<hdop>16.84</hdop>
</trkpt>
<trkpt lat="48.4235025" lon="14.3067438">
<ele>808.059</ele>
<time>2025-11-01T13:11:44Z</time>
<hdop>16.33</hdop>
</trkpt>
<trkpt lat="48.4227059" lon="14.3061402">
<ele>804.059</ele>
<time>2025-11-01T13:12:12Z</time>
<hdop>9.18</hdop>
</trkpt>
<trkpt lat="48.4218164" lon="14.3058572">
<ele>808.059</ele>
<time>2025-11-01T13:12:40Z</time>
<hdop>9.69</hdop>
</trkpt>
<trkpt lat="48.4208328" lon="14.3053971">
<ele>810.059</ele>
<time>2025-11-01T13:13:08Z</time>
<hdop>8.16</hdop>
</trkpt>
<trkpt lat="48.4202639" lon="14.3062629">
<ele>810.06</ele>
<time>2025-11-01T13:13:36Z</time>
<hdop>8.67</hdop>
</trkpt>
<trkpt lat="48.4188664" lon="14.3064708">
<ele>806.061</ele>
<time>2025-11-01T13:14:04Z</time>
<hdop>6.63</hdop>
</trkpt>
<trkpt lat="48.4179242" lon="14.3064046">
<ele>806.061</ele>
<time>2025-11-01T13:14:32Z</time>
<hdop>15.31</hdop>
</trkpt>
<trkpt lat="48.4170938" lon="14.3066">
<ele>805.061</ele>
<time>2025-11-01T13:15:00Z</time>
<hdop>18.37</hdop>
</trkpt>
<trkpt lat="48.4163844" lon="14.3059872">
<ele>807.061</ele>
<time>2025-11-01T13:15:28Z</time>
<hdop>16.84</hdop>
</trkpt>
<trkpt lat="48.4159042" lon="14.3055887">
<ele>808.061</ele>
<time>2025-11-01T13:15:56Z</time>
<hdop>19.39</hdop>
</trkpt>
<trkpt lat="48.41542" lon="14.3055451">
<ele>810.061</ele>
<time>2025-11-01T13:16:24Z</time>
<hdop>15.82</hdop>
</trkpt>
<trkpt lat="48.4150406" lon="14.3054492">
<ele>815.061</ele>
<time>2025-11-01T13:16:52Z</time>
<hdop>22.96</hdop>
</trkpt>
<trkpt lat="48.4145534" lon="14.3052509">
<ele>817.061</ele>
<time>2025-11-01T13:17:20Z</time>
<hdop>21.43</hdop>
</trkpt>
<trkpt lat="48.4131079" lon="14.3052074">
<ele>816.061</ele>
<time>2025-11-01T13:17:48Z</time>
<hdop>25.0</hdop>
</trkpt>
<trkpt lat="48.4127544" lon="14.3056842">
<ele>813.062</ele>
<time>2025-11-01T13:18:16Z</time>
<hdop>18.88</hdop>
</trkpt>
<trkpt lat="48.412542" lon="14.3062048">
<ele>811.062</ele>
<time>2025-11-01T13:18:44Z</time>
<hdop>14.29</hdop>
</trkpt>
<trkpt lat="48.4121796" lon="14.3064657">
<ele>813.063</ele>
<time>2025-11-01T13:19:12Z</time>
<hdop>6.12</hdop>
</trkpt>
<trkpt lat="48.4121796" lon="14.3064657">
<ele>813.063</ele>
<time>2025-11-01T13:19:40Z</time>
<hdop>14.8</hdop>
</trkpt>
<trkpt lat="48.4121796" lon="14.3064657">
<ele>813.063</ele>
<time>2025-11-01T13:20:08Z</time>
<hdop>8.67</hdop>
</trkpt>
<trkpt lat="48.4122074" lon="14.3065305">
<ele>813.063</ele>
<time>2025-11-01T13:20:36Z</time>
<hdop>6.12</hdop>
</trkpt>
<trkpt lat="48.4122177" lon="14.3065234">
<ele>813.063</ele>
<time>2025-11-01T13:21:04Z</time>
<hdop>6.63</hdop>
</trkpt>
<trkpt lat="48.4122432" lon="14.3065399">
<ele>814.063</ele>
<time>2025-11-01T13:21:32Z</time>
<hdop>9.69</hdop>
</trkpt>
<trkpt lat="48.4123141" lon="14.3067182">
<ele>815.063</ele>
<time>2025-11-01T13:22:00Z</time>
<hdop>9.69</hdop>
</trkpt>
<trkpt lat="48.4123776" lon="14.3069583">
<ele>814.063</ele>
<time>2025-11-01T13:22:28Z</time>
<hdop>7.65</hdop>
</trkpt>
<trkpt lat="48.4123674" lon="14.3072667">
<ele>813.063</ele>
<time>2025-11-01T13:22:56Z</time>
<hdop>9.18</hdop>
</trkpt>
<trkpt lat="48.4123793" lon="14.3073469">
<ele>811.063</ele>
<time>2025-11-01T13:23:24Z</time>
<hdop>10.71</hdop>
</trkpt>
<trkpt lat="48.4123654" lon="14.3073665">
<ele>813.063</ele>
<time>2025-11-01T13:23:52Z</time>
<hdop>5.61</hdop>
</trkpt>
<trkpt lat="48.4123628" lon="14.3073646">
<ele>812.063</ele>
<time>2025-11-01T13:24:20Z</time>
<hdop>8.16</hdop>
</trkpt>
<trkpt lat="48.4123628" lon="14.3073646">
<ele>812.063</ele>
<time>2025-11-01T13:24:48Z</time>
<hdop>6.12</hdop>
</trkpt>
<trkpt lat="48.4123628" lon="14.3073646">
<ele>810.063</ele>
<time>2025-11-01T13:25:16Z</time>
<hdop>4.59</hdop>
</trkpt>
<trkpt lat="48.4123628" lon="14.3073646">
<ele>810.063</ele>
<time>2025-11-01T13:25:44Z</time>
<hdop>8.67</hdop>
</trkpt>
<trkpt lat="48.4123869" lon="14.3073688">
<ele>807.063</ele>
<time>2025-11-01T13:26:12Z</time>
<hdop>5.1</hdop>
</trkpt>
<trkpt lat="48.412407" lon="14.3071383">
<ele>808.063</ele>
<time>2025-11-01T13:26:40Z</time>
<hdop>6.12</hdop>
</trkpt>
<trkpt lat="48.4124242" lon="14.306857">
<ele>811.063</ele>
<time>2025-11-01T13:27:08Z</time>
<hdop>5.61</hdop>
</trkpt>
<trkpt lat="48.412294" lon="14.3066425">
<ele>811.063</ele>
<time>2025-11-01T13:27:36Z</time>
<hdop>6.12</hdop>
</trkpt>
<trkpt lat="48.4121584" lon="14.3064928">
<ele>816.063</ele>
<time>2025-11-01T13:28:04Z</time>
<hdop>5.1</hdop>
</trkpt>
<trkpt lat="48.4121792" lon="14.3064605">
<ele>816.063</ele>
<time>2025-11-01T13:28:32Z</time>
<hdop>4.08</hdop>
</trkpt>
<trkpt lat="48.4121737" lon="14.3064508">
<ele>814.063</ele>
<time>2025-11-01T13:29:00Z</time>
<hdop>5.1</hdop>
</trkpt>
<trkpt lat="48.411975" lon="14.3065002">
<ele>814.063</ele>
<time>2025-11-01T13:29:28Z</time>
<hdop>8.67</hdop>
</trkpt>
<trkpt lat="48.4107993" lon="14.3077521">
<ele>806.064</ele>
<time>2025-11-01T13:29:56Z</time>
<hdop>6.63</hdop>
</trkpt>
<trkpt lat="48.410353" lon="14.3092523">
<ele>802.065</ele>
<time>2025-11-01T13:30:24Z</time>
<hdop>8.67</hdop>
</trkpt>
<trkpt lat="48.4098587" lon="14.3101969">
<ele>803.066</ele>
<time>2025-11-01T13:30:52Z</time>
<hdop>9.69</hdop>
</trkpt>
<trkpt lat="48.4094941" lon="14.3109218">
<ele>804.067</ele>
<time>2025-11-01T13:31:20Z</time>
<hdop>9.18</hdop>
</trkpt>
<trkpt lat="48.4090529" lon="14.3115046">
<ele>805.067</ele>
<time>2025-11-01T13:31:48Z</time>
<hdop>26.02</hdop>
</trkpt>
<trkpt lat="48.4080027" lon="14.3120253">
<ele>803.068</ele>
<time>2025-11-01T13:32:16Z</time>
<hdop>28.06</hdop>
</trkpt>
<trkpt lat="48.4076378" lon="14.312153">
<ele>801.068</ele>
<time>2025-11-01T13:32:20Z</time>
<hdop>13.78</hdop>
</trkpt>
<trkpt lat="48.406057" lon="14.3124288">
<ele>803.069</ele>
<time>2025-11-01T13:32:48Z</time>
<hdop>7.14</hdop>
</trkpt>
<trkpt lat="48.4054927" lon="14.3121443">
<ele>799.069</ele>
<time>2025-11-01T13:33:16Z</time>
<hdop>6.12</hdop>
</trkpt>
<trkpt lat="48.4037899" lon="14.3117748">
<ele>788.069</ele>
<time>2025-11-01T13:33:44Z</time>
<hdop>5.61</hdop>
</trkpt>
<trkpt lat="48.4026307" lon="14.3125042">
<ele>786.07</ele>
<time>2025-11-01T13:34:12Z</time>
<hdop>10.71</hdop>
</trkpt>
<trkpt lat="48.4025436" lon="14.3125354">
<ele>783.07</ele>
<time>2025-11-01T13:34:40Z</time>
<hdop>10.71</hdop>
</trkpt>
<trkpt lat="48.402523" lon="14.31256">
<ele>784.07</ele>
<time>2025-11-01T13:35:08Z</time>
<hdop>5.61</hdop>
</trkpt>
<trkpt lat="48.402523" lon="14.31256">
<ele>785.07</ele>
<time>2025-11-01T13:35:36Z</time>
<hdop>4.59</hdop>
</trkpt>
<trkpt lat="48.402523" lon="14.31256">
<ele>785.07</ele>
<time>2025-11-01T13:36:04Z</time>
<hdop>4.59</hdop>
</trkpt>
<trkpt lat="48.402523" lon="14.31256">
<ele>786.07</ele>
<time>2025-11-01T13:36:32Z</time>
<hdop>4.59</hdop>
</trkpt>
<trkpt lat="48.402523" lon="14.31256">
<ele>787.07</ele>
<time>2025-11-01T13:37:00Z</time>
<hdop>4.59</hdop>
</trkpt>
<trkpt lat="48.402523" lon="14.31256">
<ele>785.07</ele>
<time>2025-11-01T13:37:28Z</time>
<hdop>4.59</hdop>
</trkpt>
<trkpt lat="48.4025458" lon="14.3125537">
<ele>785.07</ele>
<time>2025-11-01T13:37:56Z</time>
<hdop>5.1</hdop>
</trkpt>
<trkpt lat="48.4025799" lon="14.3125527">
<ele>786.07</ele>
<time>2025-11-01T13:38:24Z</time>
<hdop>6.12</hdop>
</trkpt>
<trkpt lat="48.4018642" lon="14.3132735">
<ele>782.07</ele>
<time>2025-11-01T13:38:52Z</time>
<hdop>4.08</hdop>
</trkpt>
<trkpt lat="48.3999815" lon="14.3147125">
<ele>768.072</ele>
<time>2025-11-01T13:39:20Z</time>
<hdop>3.57</hdop>
</trkpt>
<trkpt lat="48.3981709" lon="14.3156181">
<ele>764.073</ele>
<time>2025-11-01T13:39:48Z</time>
<hdop>4.59</hdop>
</trkpt>
<trkpt lat="48.3965762" lon="14.3167508">
<ele>760.075</ele>
<time>2025-11-01T13:40:16Z</time>
<hdop>3.06</hdop>
</trkpt>
<trkpt lat="48.3945888" lon="14.3177595">
<ele>751.076</ele>
<time>2025-11-01T13:40:44Z</time>
<hdop>3.06</hdop>
</trkpt>
<trkpt lat="48.3921827" lon="14.3187712">
<ele>735.077</ele>
<time>2025-11-01T13:41:12Z</time>
<hdop>4.59</hdop>
</trkpt>
<trkpt lat="48.3907203" lon="14.3197047">
<ele>734.078</ele>
<time>2025-11-01T13:41:40Z</time>
<hdop>5.61</hdop>
</trkpt>
<trkpt lat="48.3893786" lon="14.3203993">
<ele>728.079</ele>
<time>2025-11-01T13:42:08Z</time>
<hdop>4.59</hdop>
</trkpt>
<trkpt lat="48.3881703" lon="14.3201029">
<ele>729.079</ele>
<time>2025-11-01T13:42:36Z</time>
<hdop>10.2</hdop>
</trkpt>
<trkpt lat="48.3870943" lon="14.3190297">
<ele>725.079</ele>
<time>2025-11-01T13:43:04Z</time>
<hdop>7.14</hdop>
</trkpt>
<trkpt lat="48.3858232" lon="14.3184131">
<ele>709.079</ele>
<time>2025-11-01T13:43:32Z</time>
<hdop>4.59</hdop>
</trkpt>
<trkpt lat="48.3843988" lon="14.3183932">
<ele>702.079</ele>
<time>2025-11-01T13:44:00Z</time>
<hdop>3.57</hdop>
</trkpt>
<trkpt lat="48.3838377" lon="14.3188426">
<ele>701.08</ele>
<time>2025-11-01T13:44:28Z</time>
<hdop>4.08</hdop>
</trkpt>
<trkpt lat="48.3838448" lon="14.3188527">
<ele>700.08</ele>
<time>2025-11-01T13:44:56Z</time>
<hdop>8.67</hdop>
</trkpt>
<trkpt lat="48.3838429" lon="14.3188582">
<ele>700.08</ele>
<time>2025-11-01T13:45:24Z</time>
<hdop>6.12</hdop>
</trkpt>
<trkpt lat="48.3838318" lon="14.318875">
<ele>701.08</ele>
<time>2025-11-01T13:45:52Z</time>
<hdop>9.69</hdop>
</trkpt>
<trkpt lat="48.3826995" lon="14.3185431">
<ele>695.08</ele>
<time>2025-11-01T13:46:20Z</time>
<hdop>3.57</hdop>
</trkpt>
<trkpt lat="48.3812227" lon="14.3176579">
<ele>689.08</ele>
<time>2025-11-01T13:46:48Z</time>
<hdop>5.61</hdop>
</trkpt>
<trkpt lat="48.3795137" lon="14.317424">
<ele>682.08</ele>
<time>2025-11-01T13:47:16Z</time>
<hdop>3.57</hdop>
</trkpt>
<trkpt lat="48.3781344" lon="14.3172355">
<ele>682.08</ele>
<time>2025-11-01T13:47:44Z</time>
<hdop>4.59</hdop>
</trkpt>
<trkpt lat="48.3772937" lon="14.3163619">
<ele>681.08</ele>
<time>2025-11-01T13:48:12Z</time>
<hdop>4.59</hdop>
</trkpt>
<trkpt lat="48.3766212" lon="14.3153708">
<ele>680.08</ele>
<time>2025-11-01T13:48:40Z</time>
<hdop>4.59</hdop>
</trkpt>
<trkpt lat="48.3753044" lon="14.3152601">
<ele>679.08</ele>
<time>2025-11-01T13:49:08Z</time>
<hdop>10.71</hdop>
</trkpt>
<trkpt lat="48.3738451" lon="14.315671">
<ele>672.081</ele>
<time>2025-11-01T13:49:36Z</time>
<hdop>9.18</hdop>
</trkpt>
<trkpt lat="48.3717361" lon="14.3158716">
<ele>655.081</ele>
<time>2025-11-01T13:50:04Z</time>
<hdop>4.59</hdop>
</trkpt>
<trkpt lat="48.3704132" lon="14.3142965">
<ele>653.081</ele>
<time>2025-11-01T13:50:32Z</time>
<hdop>5.61</hdop>
</trkpt>
<trkpt lat="48.369343" lon="14.3130892">
<ele>651.08</ele>
<time>2025-11-01T13:51:00Z</time>
<hdop>4.59</hdop>
</trkpt>
<trkpt lat="48.3675308" lon="14.3127466">
<ele>641.08</ele>
<time>2025-11-01T13:51:28Z</time>
<hdop>5.61</hdop>
</trkpt>
<trkpt lat="48.3661369" lon="14.3116098">
<ele>639.08</ele>
<time>2025-11-01T13:51:56Z</time>
<hdop>8.16</hdop>
</trkpt>
<trkpt lat="48.3657527" lon="14.3106208">
<ele>642.079</ele>
<time>2025-11-01T13:52:24Z</time>
<hdop>5.61</hdop>
</trkpt>
<trkpt lat="48.3656975" lon="14.3094854">
<ele>641.079</ele>
<time>2025-11-01T13:52:52Z</time>
<hdop>11.22</hdop>
</trkpt>
<trkpt lat="48.3654344" lon="14.3087413">
<ele>643.078</ele>
<time>2025-11-01T13:53:20Z</time>
<hdop>11.22</hdop>
</trkpt>
<trkpt lat="48.3647379" lon="14.3070193">
<ele>641.077</ele>
<time>2025-11-01T13:53:48Z</time>
<hdop>6.63</hdop>
</trkpt>
<trkpt lat="48.3637644" lon="14.3067869">
<ele>641.077</ele>
<time>2025-11-01T13:54:16Z</time>
<hdop>6.63</hdop>
</trkpt>
<trkpt lat="48.3625354" lon="14.3054458">
<ele>635.077</ele>
<time>2025-11-01T13:54:44Z</time>
<hdop>5.61</hdop>
</trkpt>
<trkpt lat="48.3617985" lon="14.3049512">
<ele>636.077</ele>
<time>2025-11-01T13:55:12Z</time>
<hdop>12.24</hdop>
</trkpt>
<trkpt lat="48.3605282" lon="14.3044166">
<ele>624.077</ele>
<time>2025-11-01T13:55:40Z</time>
<hdop>5.1</hdop>
</trkpt>
<trkpt lat="48.3593097" lon="14.3059012">
<ele>618.078</ele>
<time>2025-11-01T13:56:08Z</time>
<hdop>4.59</hdop>
</trkpt>
<trkpt lat="48.3584825" lon="14.3072017">
<ele>619.079</ele>
<time>2025-11-01T13:56:36Z</time>
<hdop>8.16</hdop>
</trkpt>
<trkpt lat="48.3575853" lon="14.3088377">
<ele>617.081</ele>
<time>2025-11-01T13:57:04Z</time>
<hdop>4.59</hdop>
</trkpt>
<trkpt lat="48.3562186" lon="14.3100137">
<ele>595.082</ele>
<time>2025-11-01T13:57:32Z</time>
<hdop>3.57</hdop>
</trkpt>
<trkpt lat="48.3539736" lon="14.3105514">
<ele>578.083</ele>
<time>2025-11-01T13:58:00Z</time>
<hdop>4.08</hdop>
</trkpt>
<trkpt lat="48.3530757" lon="14.3101392">
<ele>580.083</ele>
<time>2025-11-01T13:58:28Z</time>
<hdop>10.2</hdop>
</trkpt>
<trkpt lat="48.3520388" lon="14.3096566">
<ele>576.083</ele>
<time>2025-11-01T13:58:56Z</time>
<hdop>6.63</hdop>
</trkpt>
<trkpt lat="48.3507515" lon="14.310303">
<ele>574.084</ele>
<time>2025-11-01T13:59:24Z</time>
<hdop>11.22</hdop>
</trkpt>
<trkpt lat="48.349319" lon="14.31058">
<ele>566.084</ele>
<time>2025-11-01T13:59:52Z</time>
<hdop>13.78</hdop>
</trkpt>
<trkpt lat="48.3481683" lon="14.3108897">
<ele>549.085</ele>
<time>2025-11-01T14:00:20Z</time>
<hdop>7.14</hdop>
</trkpt>
<trkpt lat="48.3472207" lon="14.3106918">
<ele>531.085</ele>
<time>2025-11-01T14:00:48Z</time>
<hdop>9.18</hdop>
</trkpt>
<trkpt lat="48.3466864" lon="14.3097607">
<ele>525.085</ele>
<time>2025-11-01T14:01:16Z</time>
<hdop>14.29</hdop>
</trkpt>
<trkpt lat="48.3467212" lon="14.3081774">
<ele>513.083</ele>
<time>2025-11-01T14:01:44Z</time>
<hdop>9.69</hdop>
</trkpt>
<trkpt lat="48.3462309" lon="14.3073905">
<ele>511.083</ele>
<time>2025-11-01T14:02:12Z</time>
<hdop>16.33</hdop>
</trkpt>
<trkpt lat="48.3458213" lon="14.3065191">
<ele>508.083</ele>
<time>2025-11-01T14:02:40Z</time>
<hdop>12.24</hdop>
</trkpt>
<trkpt lat="48.345847" lon="14.3064939">
<ele>508.083</ele>
<time>2025-11-01T14:03:08Z</time>
<hdop>17.86</hdop>
</trkpt>
<trkpt lat="48.3458653" lon="14.3063373">
<ele>504.082</ele>
<time>2025-11-01T14:03:36Z</time>
<hdop>14.29</hdop>
</trkpt>
<trkpt lat="48.3458903" lon="14.3059796">
<ele>499.082</ele>
<time>2025-11-01T14:04:04Z</time>
<hdop>16.33</hdop>
</trkpt>
<trkpt lat="48.3458151" lon="14.3057427">
<ele>496.082</ele>
<time>2025-11-01T14:04:32Z</time>
<hdop>13.78</hdop>
</trkpt>
<trkpt lat="48.3456437" lon="14.3053535">
<ele>492.082</ele>
<time>2025-11-01T14:05:00Z</time>
<hdop>15.82</hdop>
</trkpt>
<trkpt lat="48.3453113" lon="14.3049346">
<ele>484.082</ele>
<time>2025-11-01T14:05:28Z</time>
<hdop>10.71</hdop>
</trkpt>
<trkpt lat="48.3453779" lon="14.3046822">
<ele>476.081</ele>
<time>2025-11-01T14:05:56Z</time>
<hdop>10.71</hdop>
</trkpt>
<trkpt lat="48.3449748" lon="14.3044668">
<ele>472.081</ele>
<time>2025-11-01T14:06:24Z</time>
<hdop>12.76</hdop>
</trkpt>
<trkpt lat="48.3430891" lon="14.306058">
<ele>454.083</ele>
<time>2025-11-01T14:06:52Z</time>
<hdop>7.14</hdop>
</trkpt>
<trkpt lat="48.3414245" lon="14.3058817">
<ele>428.083</ele>
<time>2025-11-01T14:07:20Z</time>
<hdop>6.63</hdop>
</trkpt>
<trkpt lat="48.3433175" lon="14.3025334">
<ele>404.08</ele>
<time>2025-11-01T14:07:48Z</time>
<hdop>3.06</hdop>
</trkpt>
<trkpt lat="48.3432349" lon="14.3012415">
<ele>386.08</ele>
<time>2025-11-01T14:08:16Z</time>
<hdop>4.08</hdop>
</trkpt>
<trkpt lat="48.3406975" lon="14.3030158">
<ele>366.082</ele>
<time>2025-11-01T14:08:44Z</time>
<hdop>9.18</hdop>
</trkpt>
<trkpt lat="48.337874" lon="14.3027651">
<ele>341.082</ele>
<time>2025-11-01T14:09:12Z</time>
<hdop>5.1</hdop>
</trkpt>
<trkpt lat="48.3370565" lon="14.304297">
<ele>329.084</ele>
<time>2025-11-01T14:09:40Z</time>
<hdop>4.59</hdop>
</trkpt>
<trkpt lat="48.3365453" lon="14.3031444">
<ele>317.083</ele>
<time>2025-11-01T14:10:08Z</time>
<hdop>3.57</hdop>
</trkpt>
<trkpt lat="48.3369334" lon="14.3019153">
<ele>311.082</ele>
<time>2025-11-01T14:10:36Z</time>
<hdop>8.16</hdop>
</trkpt>
<trkpt lat="48.3384305" lon="14.3003326">
<ele>299.08</ele>
<time>2025-11-01T14:11:04Z</time>
<hdop>4.08</hdop>
</trkpt>
<trkpt lat="48.3364798" lon="14.3009247">
<ele>289.081</ele>
<time>2025-11-01T14:11:32Z</time>
<hdop>7.65</hdop>
</trkpt>
<trkpt lat="48.3347722" lon="14.3005608">
<ele>272.082</ele>
<time>2025-11-01T14:12:00Z</time>
<hdop>4.59</hdop>
</trkpt>
<trkpt lat="48.3343188" lon="14.3005755">
<ele>269.082</ele>
<time>2025-11-01T14:12:28Z</time>
<hdop>5.61</hdop>
</trkpt>
<trkpt lat="48.3336007" lon="14.2997009">
<ele>265.081</ele>
<time>2025-11-01T14:12:56Z</time>
<hdop>4.08</hdop>
</trkpt>
<trkpt lat="48.3321572" lon="14.2995489">
<ele>264.082</ele>
<time>2025-11-01T14:13:24Z</time>
<hdop>4.59</hdop>
</trkpt>
<trkpt lat="48.3305701" lon="14.299332">
<ele>266.082</ele>
<time>2025-11-01T14:13:52Z</time>
<hdop>10.2</hdop>
</trkpt>
<trkpt lat="48.3290232" lon="14.2996105">
<ele>259.083</ele>
<time>2025-11-01T14:14:20Z</time>
<hdop>3.57</hdop>
</trkpt>
<trkpt lat="48.3276318" lon="14.2991181">
<ele>258.083</ele>
<time>2025-11-01T14:14:48Z</time>
<hdop>6.63</hdop>
</trkpt>
<trkpt lat="48.3264408" lon="14.298245">
<ele>256.082</ele>
<time>2025-11-01T14:15:16Z</time>
<hdop>4.59</hdop>
</trkpt>
<trkpt lat="48.3251851" lon="14.2974086">
<ele>256.082</ele>
<time>2025-11-01T14:15:44Z</time>
<hdop>7.65</hdop>
</trkpt>
<trkpt lat="48.3239986" lon="14.298562">
<ele>252.083</ele>
<time>2025-11-01T14:16:12Z</time>
<hdop>12.24</hdop>
</trkpt>
<trkpt lat="48.3235616" lon="14.3000844">
<ele>254.085</ele>
<time>2025-11-01T14:16:40Z</time>
<hdop>11.73</hdop>
</trkpt>
<trkpt lat="48.3228299" lon="14.2991089">
<ele>256.084</ele>
<time>2025-11-01T14:17:07Z</time>
<hdop>5.61</hdop>
</trkpt>
<trkpt lat="48.3219078" lon="14.297861">
<ele>257.084</ele>
<time>2025-11-01T14:17:34Z</time>
<hdop>4.59</hdop>
</trkpt>
<trkpt lat="48.3209549" lon="14.2966946">
<ele>259.083</ele>
<time>2025-11-01T14:18:01Z</time>
<hdop>17.35</hdop>
</trkpt>
<trkpt lat="48.3201638" lon="14.2955934">
<ele>255.082</ele>
<time>2025-11-01T14:18:26Z</time>
<hdop>6.63</hdop>
</trkpt>
<trkpt lat="48.3193364" lon="14.2945243">
<ele>257.082</ele>
<time>2025-11-01T14:18:53Z</time>
<hdop>4.59</hdop>
</trkpt>
<trkpt lat="48.318231" lon="14.2934162">
<ele>251.081</ele>
<time>2025-11-01T14:19:21Z</time>
<hdop>8.16</hdop>
</trkpt>
<trkpt lat="48.3173417" lon="14.2938622">
<ele>251.082</ele>
<time>2025-11-01T14:19:49Z</time>
<hdop>5.61</hdop>
</trkpt>
<trkpt lat="48.3164311" lon="14.2928472">
<ele>251.082</ele>
<time>2025-11-01T14:20:17Z</time>
<hdop>3.57</hdop>
</trkpt>
<trkpt lat="48.3154125" lon="14.2917949">
<ele>251.081</ele>
<time>2025-11-01T14:20:45Z</time>
<hdop>7.65</hdop>
</trkpt>
<trkpt lat="48.3142899" lon="14.2907391">
<ele>253.081</ele>
<time>2025-11-01T14:21:13Z</time>
<hdop>7.65</hdop>
</trkpt>
<trkpt lat="48.3132473" lon="14.2896241">
<ele>253.08</ele>
<time>2025-11-01T14:21:41Z</time>
<hdop>5.61</hdop>
</trkpt>
<trkpt lat="48.312209" lon="14.2886354">
<ele>255.08</ele>
<time>2025-11-01T14:22:09Z</time>
<hdop>5.1</hdop>
</trkpt>
<trkpt lat="48.3112593" lon="14.2874875">
<ele>253.079</ele>
<time>2025-11-01T14:22:37Z</time>
<hdop>4.59</hdop>
</trkpt>
<trkpt lat="48.3104545" lon="14.2861715">
<ele>253.079</ele>
<time>2025-11-01T14:23:05Z</time>
<hdop>4.59</hdop>
</trkpt>
<trkpt lat="48.3096489" lon="14.2846734">
<ele>253.078</ele>
<time>2025-11-01T14:23:33Z</time>
<hdop>4.59</hdop>
</trkpt>
<trkpt lat="48.3090249" lon="14.2827844">
<ele>255.077</ele>
<time>2025-11-01T14:24:01Z</time>
<hdop>9.18</hdop>
</trkpt>
<trkpt lat="48.3096382" lon="14.2818188">
<ele>254.076</ele>
<time>2025-11-01T14:24:28Z</time>
<hdop>11.22</hdop>
</trkpt>
<trkpt lat="48.3102603" lon="14.2821104">
<ele>259.076</ele>
<time>2025-11-01T14:24:56Z</time>
<hdop>10.71</hdop>
</trkpt>
<trkpt lat="48.3098533" lon="14.2835041">
<ele>260.077</ele>
<time>2025-11-01T14:25:24Z</time>
<hdop>8.16</hdop>
</trkpt>
<trkpt lat="48.308842" lon="14.2842165">
<ele>264.078</ele>
<time>2025-11-01T14:25:52Z</time>
<hdop>3.57</hdop>
</trkpt>
<trkpt lat="48.3078371" lon="14.2849381">
<ele>264.079</ele>
<time>2025-11-01T14:26:20Z</time>
<hdop>3.57</hdop>
</trkpt>
<trkpt lat="48.3069957" lon="14.2855703">
<ele>262.079</ele>
<time>2025-11-01T14:26:48Z</time>
<hdop>6.12</hdop>
</trkpt>
<trkpt lat="48.307011" lon="14.2855744">
<ele>261.079</ele>
<time>2025-11-01T14:27:16Z</time>
<hdop>8.67</hdop>
</trkpt>
<trkpt lat="48.3059951" lon="14.2859009">
<ele>259.08</ele>
<time>2025-11-01T14:27:44Z</time>
<hdop>7.14</hdop>
</trkpt>
<trkpt lat="48.3056309" lon="14.2848022">
<ele>259.079</ele>
<time>2025-11-01T14:28:12Z</time>
<hdop>34.69</hdop>
</trkpt>
<trkpt lat="48.3054788" lon="14.2848348">
<ele>260.079</ele>
<time>2025-11-01T14:28:17Z</time>
<hdop>16.33</hdop>
</trkpt>
<trkpt lat="48.3047796" lon="14.2847025">
<ele>263.079</ele>
<time>2025-11-01T14:28:44Z</time>
<hdop>23.98</hdop>
</trkpt>
<trkpt lat="48.3043782" lon="14.2850626">
<ele>264.08</ele>
<time>2025-11-01T14:28:55Z</time>
<hdop>8.16</hdop>
</trkpt>
<trkpt lat="48.3038489" lon="14.2855691">
<ele>268.08</ele>
<time>2025-11-01T14:29:22Z</time>
<hdop>26.53</hdop>
</trkpt>
<trkpt lat="48.303675" lon="14.2857175">
<ele>269.08</ele>
<time>2025-11-01T14:29:29Z</time>
<hdop>12.76</hdop>
</trkpt>
<trkpt lat="48.3028856" lon="14.2862193">
<ele>267.081</ele>
<time>2025-11-01T14:29:57Z</time>
<hdop>23.98</hdop>
</trkpt>
<trkpt lat="48.3020771" lon="14.2867752">
<ele>266.082</ele>
<time>2025-11-01T14:30:22Z</time>
<hdop>9.69</hdop>
</trkpt>
<trkpt lat="48.300962" lon="14.2873166">
<ele>266.082</ele>
<time>2025-11-01T14:30:50Z</time>
<hdop>17.35</hdop>
</trkpt>
<trkpt lat="48.3002996" lon="14.2874261">
<ele>263.083</ele>
<time>2025-11-01T14:31:04Z</time>
<hdop>7.14</hdop>
</trkpt>
<trkpt lat="48.2988558" lon="14.2876367">
<ele>268.083</ele>
<time>2025-11-01T14:31:31Z</time>
<hdop>19.9</hdop>
</trkpt>
<trkpt lat="48.2978491" lon="14.2878256">
<ele>268.084</ele>
<time>2025-11-01T14:31:47Z</time>
<hdop>9.69</hdop>
</trkpt>
<trkpt lat="48.2964112" lon="14.2873495">
<ele>267.084</ele>
<time>2025-11-01T14:32:15Z</time>
<hdop>8.67</hdop>
</trkpt>
<trkpt lat="48.2951378" lon="14.2868274">
<ele>270.084</ele>
<time>2025-11-01T14:32:43Z</time>
<hdop>7.65</hdop>
</trkpt>
<trkpt lat="48.2939647" lon="14.2861475">
<ele>271.084</ele>
<time>2025-11-01T14:33:11Z</time>
<hdop>9.69</hdop>
</trkpt>
<trkpt lat="48.2934866" lon="14.285201">
<ele>268.083</ele>
<time>2025-11-01T14:33:39Z</time>
<hdop>9.18</hdop>
</trkpt>
<trkpt lat="48.2934873" lon="14.2851875">
<ele>268.083</ele>
<time>2025-11-01T14:34:07Z</time>
<hdop>9.18</hdop>
</trkpt>
<trkpt lat="48.293451" lon="14.2850497">
<ele>269.083</ele>
<time>2025-11-01T14:34:35Z</time>
<hdop>5.61</hdop>
</trkpt>
<trkpt lat="48.2929861" lon="14.2847326">
<ele>272.083</ele>
<time>2025-11-01T14:35:03Z</time>
<hdop>12.76</hdop>
</trkpt>
<trkpt lat="48.2922466" lon="14.2852966">
<ele>275.083</ele>
<time>2025-11-01T14:35:31Z</time>
<hdop>8.16</hdop>
</trkpt>
<trkpt lat="48.2917463" lon="14.2853201">
<ele>278.084</ele>
<time>2025-11-01T14:35:59Z</time>
<hdop>10.2</hdop>
</trkpt>
<trkpt lat="48.2912941" lon="14.2855218">
<ele>284.084</ele>
<time>2025-11-01T14:36:27Z</time>
<hdop>11.73</hdop>
</trkpt>
<trkpt lat="48.2905385" lon="14.2857647">
<ele>284.084</ele>
<time>2025-11-01T14:36:55Z</time>
<hdop>13.27</hdop>
</trkpt>
<trkpt lat="48.2902244" lon="14.2851099">
<ele>284.084</ele>
<time>2025-11-01T14:37:23Z</time>
<hdop>10.2</hdop>
</trkpt>
<trkpt lat="48.2902311" lon="14.2840399">
<ele>285.083</ele>
<time>2025-11-01T14:37:51Z</time>
<hdop>8.16</hdop>
</trkpt>
<trkpt lat="48.2904155" lon="14.2831056">
<ele>289.082</ele>
<time>2025-11-01T14:38:19Z</time>
<hdop>7.65</hdop>
</trkpt>
<trkpt lat="48.2902041" lon="14.2822579">
<ele>293.082</ele>
<time>2025-11-01T14:38:47Z</time>
<hdop>9.69</hdop>
</trkpt>
<trkpt lat="48.2891908" lon="14.2819246">
<ele>296.082</ele>
<time>2025-11-01T14:39:15Z</time>
<hdop>7.14</hdop>
</trkpt>
<trkpt lat="48.2884683" lon="14.2815652">
<ele>300.082</ele>
<time>2025-11-01T14:39:43Z</time>
<hdop>7.65</hdop>
</trkpt>
<trkpt lat="48.2878628" lon="14.281244">
<ele>304.082</ele>
<time>2025-11-01T14:40:11Z</time>
<hdop>8.16</hdop>
</trkpt>
<trkpt lat="48.286895" lon="14.2810471">
<ele>303.082</ele>
<time>2025-11-01T14:40:39Z</time>
<hdop>8.16</hdop>
</trkpt>
<trkpt lat="48.2864727" lon="14.2795129">
<ele>305.081</ele>
<time>2025-11-01T14:41:07Z</time>
<hdop>7.65</hdop>
</trkpt>
<trkpt lat="48.2860833" lon="14.2782401">
<ele>307.08</ele>
<time>2025-11-01T14:41:35Z</time>
<hdop>6.12</hdop>
</trkpt>
<trkpt lat="48.2854288" lon="14.2776945">
<ele>309.08</ele>
<time>2025-11-01T14:42:03Z</time>
<hdop>16.33</hdop>
</trkpt>
<trkpt lat="48.2855599" lon="14.2769144">
<ele>311.079</ele>
<time>2025-11-01T14:42:31Z</time>
<hdop>14.8</hdop>
</trkpt>
<trkpt lat="48.2854908" lon="14.2757634">
<ele>312.079</ele>
<time>2025-11-01T14:42:59Z</time>
<hdop>13.78</hdop>
</trkpt>
</trkseg>
</trk>
</gpx>
