<?xml version="1.0" encoding="UTF-8"?>
<gpx xmlns="http://www.topografix.com/GPX/1/1" version="1.1" creator="AlpineQuest 2.4.0c" xmlns:xsi="http://www.w3.org/2001/XMLSchema-instance" xsi:schemaLocation="http://www.topografix.com/GPX/1/1 http://www.topografix.com/GPX/1/1/gpx.xsd">
<metadata>
<desc>AlpineQuest Track 30.10.24 06:15:16</desc>
<link href="https://www.alpinequest.net" />
<time>2026-01-06T10:18:08Z</time>
</metadata>
<trk>
<name>Dachstein-Pichlweg</name>
<type>bicycle</type>
<trkseg>
<trkpt lat="47.4509137" lon="13.6184696">
<ele>1701.183</ele>
<time>2024-10-30T05:15:16Z</time>
<hdop>8.85</hdop>
</trkpt>
<trkpt lat="47.4508481" lon="13.6183098">
<ele>1704.152</ele>
<time>2024-10-30T05:15:55Z</time>
<hdop>6.89</hdop>
</trkpt>
<trkpt lat="47.4511418" lon="13.6184568">
<ele>1718.783</ele>
<time>2024-10-30T05:16:26Z</time>
<hdop>9.89</hdop>
</trkpt>
<trkpt lat="47.4513709" lon="13.6183785">
<ele>1724.866</ele>
<time>2024-10-30T05:16:56Z</time>
<hdop>14.67</hdop>
</trkpt>
<trkpt lat="47.4519385" lon="13.6188959">
<ele>1710.698</ele>
<time>2024-10-30T05:17:55Z</time>
<hdop>9.62</hdop>
</trkpt>
<trkpt lat="47.4519666" lon="13.6193065">
<ele>1722.14</ele>
<time>2024-10-30T05:18:25Z</time>
<hdop>20.38</hdop>
</trkpt>
<trkpt lat="47.4522088" lon="13.6193852">
<ele>1740.274</ele>
<time>2024-10-30T05:18:55Z</time>
<hdop>8.83</hdop>
</trkpt>
<trkpt lat="47.4524389" lon="13.6198028">
<ele>1736.882</ele>
<time>2024-10-30T05:19:26Z</time>
<hdop>15.97</hdop>
</trkpt>
<trkpt lat="47.4525356" lon="13.6198047">
<ele>1748.488</ele>
<time>2024-10-30T05:19:56Z</time>
<hdop>13.59</hdop>
</trkpt>
<trkpt lat="47.4528313" lon="13.6205576">
<ele>1740.34</ele>
<time>2024-10-30T05:20:55Z</time>
<hdop>18.89</hdop>
</trkpt>
<trkpt lat="47.4528386" lon="13.6205014">
<ele>1738.258</ele>
<time>2024-10-30T05:21:27Z</time>
<hdop>40.14</hdop>
</trkpt>
<trkpt lat="47.453142" lon="13.6207197">
<ele>1749.455</ele>
<time>2024-10-30T05:22:26Z</time>
<hdop>22.26</hdop>
</trkpt>
<trkpt lat="47.4534062" lon="13.6211131">
<ele>1757.778</ele>
<time>2024-10-30T05:22:57Z</time>
<hdop>22.76</hdop>
</trkpt>
<trkpt lat="47.4541343" lon="13.6218924">
<ele>1710.362</ele>
<time>2024-10-30T05:23:56Z</time>
<hdop>24.75</hdop>
</trkpt>
<trkpt lat="47.4541798" lon="13.6218255">
<ele>1793.311</ele>
<time>2024-10-30T05:24:56Z</time>
<hdop>14.38</hdop>
</trkpt>
<trkpt lat="47.4544076" lon="13.6218967">
<ele>1795.922</ele>
<time>2024-10-30T05:25:26Z</time>
<hdop>26.86</hdop>
</trkpt>
<trkpt lat="47.4545863" lon="13.621916">
<ele>1792.711</ele>
<time>2024-10-30T05:25:56Z</time>
<hdop>17.19</hdop>
</trkpt>
<trkpt lat="47.4549809" lon="13.6224836">
<ele>1734.042</ele>
<time>2024-10-30T05:27:25Z</time>
<hdop>19.08</hdop>
</trkpt>
<trkpt lat="47.4554444" lon="13.6226838">
<ele>1797.731</ele>
<time>2024-10-30T05:28:06Z</time>
<hdop>21.35</hdop>
</trkpt>
<trkpt lat="47.4573333" lon="13.6219238">
<ele>1807.233</ele>
<time>2024-10-30T05:32:07Z</time>
<hdop>6.35</hdop>
</trkpt>
<trkpt lat="47.4575751" lon="13.6217348">
<ele>1807.04</ele>
<time>2024-10-30T05:32:37Z</time>
<hdop>6.76</hdop>
</trkpt>
<trkpt lat="47.4579067" lon="13.6218649">
<ele>1799.75</ele>
<time>2024-10-30T05:33:07Z</time>
<hdop>7.06</hdop>
</trkpt>
<trkpt lat="47.4581659" lon="13.6217149">
<ele>1805.814</ele>
<time>2024-10-30T05:33:37Z</time>
<hdop>7.49</hdop>
</trkpt>
<trkpt lat="47.4584595" lon="13.6214278">
<ele>1814.203</ele>
<time>2024-10-30T05:34:07Z</time>
<hdop>4.45</hdop>
</trkpt>
<trkpt lat="47.4587205" lon="13.6212677">
<ele>1814.41</ele>
<time>2024-10-30T05:34:37Z</time>
<hdop>5.71</hdop>
</trkpt>
<trkpt lat="47.458931" lon="13.6212838">
<ele>1819.1</ele>
<time>2024-10-30T05:35:07Z</time>
<hdop>5.71</hdop>
</trkpt>
<trkpt lat="47.4590948" lon="13.6209177">
<ele>1821.297</ele>
<time>2024-10-30T05:35:37Z</time>
<hdop>4.81</hdop>
</trkpt>
<trkpt lat="47.4592318" lon="13.6206589">
<ele>1829.752</ele>
<time>2024-10-30T05:36:07Z</time>
<hdop>4.91</hdop>
</trkpt>
<trkpt lat="47.4593597" lon="13.6199525">
<ele>1847.996</ele>
<time>2024-10-30T05:36:59Z</time>
<hdop>10.98</hdop>
</trkpt>
<trkpt lat="47.4594594" lon="13.6196969">
<ele>1839.791</ele>
<time>2024-10-30T05:37:29Z</time>
<hdop>26.48</hdop>
</trkpt>
<trkpt lat="47.4594966" lon="13.6190579">
<ele>1834.846</ele>
<time>2024-10-30T05:37:59Z</time>
<hdop>9.79</hdop>
</trkpt>
<trkpt lat="47.4597751" lon="13.6183606">
<ele>1843.6</ele>
<time>2024-10-30T05:39:29Z</time>
<hdop>8.94</hdop>
</trkpt>
<trkpt lat="47.4599165" lon="13.6178787">
<ele>1865.314</ele>
<time>2024-10-30T05:39:59Z</time>
<hdop>10.05</hdop>
</trkpt>
<trkpt lat="47.4600362" lon="13.6175031">
<ele>1871.933</ele>
<time>2024-10-30T05:40:29Z</time>
<hdop>12.49</hdop>
</trkpt>
<trkpt lat="47.4600895" lon="13.6171403">
<ele>1834.378</ele>
<time>2024-10-30T05:40:59Z</time>
<hdop>16.62</hdop>
</trkpt>
<trkpt lat="47.4598838" lon="13.6164419">
<ele>1855.061</ele>
<time>2024-10-30T05:41:29Z</time>
<hdop>16.43</hdop>
</trkpt>
<trkpt lat="47.4596773" lon="13.6151422">
<ele>1876.242</ele>
<time>2024-10-30T05:42:28Z</time>
<hdop>8.75</hdop>
</trkpt>
<trkpt lat="47.4598937" lon="13.6151213">
<ele>1878.362</ele>
<time>2024-10-30T05:43:01Z</time>
<hdop>16.1</hdop>
</trkpt>
<trkpt lat="47.4600033" lon="13.6155101">
<ele>1878.152</ele>
<time>2024-10-30T05:43:59Z</time>
<hdop>11.59</hdop>
</trkpt>
<trkpt lat="47.4599841" lon="13.615455">
<ele>1882.478</ele>
<time>2024-10-30T05:44:30Z</time>
<hdop>12.43</hdop>
</trkpt>
<trkpt lat="47.4599684" lon="13.6154589">
<ele>1858.806</ele>
<time>2024-10-30T05:45:29Z</time>
<hdop>20.11</hdop>
</trkpt>
<trkpt lat="47.4599394" lon="13.6154299">
<ele>1884.29</ele>
<time>2024-10-30T05:46:28Z</time>
<hdop>7.26</hdop>
</trkpt>
<trkpt lat="47.459939" lon="13.6154231">
<ele>1885.817</ele>
<time>2024-10-30T05:46:58Z</time>
<hdop>6.58</hdop>
</trkpt>
<trkpt lat="47.4599384" lon="13.6154221">
<ele>1886.358</ele>
<time>2024-10-30T05:47:29Z</time>
<hdop>12.08</hdop>
</trkpt>
<trkpt lat="47.4599354" lon="13.6154183">
<ele>1886.014</ele>
<time>2024-10-30T05:47:59Z</time>
<hdop>16.82</hdop>
</trkpt>
<trkpt lat="47.4598022" lon="13.6151518">
<ele>1864.22</ele>
<time>2024-10-30T05:48:29Z</time>
<hdop>11.12</hdop>
</trkpt>
<trkpt lat="47.4596719" lon="13.6150976">
<ele>1876.521</ele>
<time>2024-10-30T05:51:59Z</time>
<hdop>9.62</hdop>
</trkpt>
<trkpt lat="47.4596771" lon="13.6151035">
<ele>1802.627</ele>
<time>2024-10-30T05:52:31Z</time>
<hdop>24.53</hdop>
</trkpt>
<trkpt lat="47.4597481" lon="13.615165">
<ele>1865.032</ele>
<time>2024-10-30T05:53:30Z</time>
<hdop>20.38</hdop>
</trkpt>
<trkpt lat="47.4598214" lon="13.6151173">
<ele>1877.246</ele>
<time>2024-10-30T05:54:28Z</time>
<hdop>9.1</hdop>
</trkpt>
<trkpt lat="47.4601734" lon="13.6152867">
<ele>1863.525</ele>
<time>2024-10-30T05:54:58Z</time>
<hdop>6.66</hdop>
</trkpt>
<trkpt lat="47.4603594" lon="13.6153515">
<ele>1862.927</ele>
<time>2024-10-30T05:55:28Z</time>
<hdop>9.53</hdop>
</trkpt>
<trkpt lat="47.4605386" lon="13.6155394">
<ele>1848.607</ele>
<time>2024-10-30T05:55:59Z</time>
<hdop>5.99</hdop>
</trkpt>
<trkpt lat="47.4610196" lon="13.6158034">
<ele>1822.337</ele>
<time>2024-10-30T05:56:58Z</time>
<hdop>8.88</hdop>
</trkpt>
<trkpt lat="47.461191" lon="13.6157802">
<ele>1850.13</ele>
<time>2024-10-30T05:58:29Z</time>
<hdop>9.47</hdop>
</trkpt>
<trkpt lat="47.4615939" lon="13.6161076">
<ele>1841.152</ele>
<time>2024-10-30T05:59:58Z</time>
<hdop>6.47</hdop>
</trkpt>
<trkpt lat="47.4618751" lon="13.6161431">
<ele>1838.883</ele>
<time>2024-10-30T06:00:29Z</time>
<hdop>7.38</hdop>
</trkpt>
<trkpt lat="47.4621956" lon="13.6161153">
<ele>1839.803</ele>
<time>2024-10-30T06:01:29Z</time>
<hdop>8.19</hdop>
</trkpt>
<trkpt lat="47.4626481" lon="13.6161519">
<ele>1834.783</ele>
<time>2024-10-30T06:01:59Z</time>
<hdop>7.9</hdop>
</trkpt>
<trkpt lat="47.4628662" lon="13.6162356">
<ele>1849.654</ele>
<time>2024-10-30T06:02:29Z</time>
<hdop>17.24</hdop>
</trkpt>
<trkpt lat="47.4633307" lon="13.6161274">
<ele>1830.276</ele>
<time>2024-10-30T06:02:59Z</time>
<hdop>15.19</hdop>
</trkpt>
<trkpt lat="47.4636616" lon="13.6162686">
<ele>1854.986</ele>
<time>2024-10-30T06:03:59Z</time>
<hdop>16.36</hdop>
</trkpt>
<trkpt lat="47.4639991" lon="13.6162752">
<ele>1827.328</ele>
<time>2024-10-30T06:04:29Z</time>
<hdop>19.2</hdop>
</trkpt>
<trkpt lat="47.4641827" lon="13.6159486">
<ele>1803.535</ele>
<time>2024-10-30T06:04:59Z</time>
<hdop>15.54</hdop>
</trkpt>
<trkpt lat="47.4646618" lon="13.6157769">
<ele>1824.42</ele>
<time>2024-10-30T06:05:59Z</time>
<hdop>8.95</hdop>
</trkpt>
<trkpt lat="47.4647958" lon="13.6155919">
<ele>1817.291</ele>
<time>2024-10-30T06:06:29Z</time>
<hdop>8.06</hdop>
</trkpt>
<trkpt lat="47.465261" lon="13.6149758">
<ele>1840.645</ele>
<time>2024-10-30T06:07:58Z</time>
<hdop>10.48</hdop>
</trkpt>
<trkpt lat="47.4651808" lon="13.6148337">
<ele>1840.069</ele>
<time>2024-10-30T06:08:29Z</time>
<hdop>13.99</hdop>
</trkpt>
<trkpt lat="47.4654733" lon="13.6145663">
<ele>1827.327</ele>
<time>2024-10-30T06:09:29Z</time>
<hdop>9.14</hdop>
</trkpt>
<trkpt lat="47.4655075" lon="13.6144188">
<ele>1835.077</ele>
<time>2024-10-30T06:09:59Z</time>
<hdop>14.48</hdop>
</trkpt>
<trkpt lat="47.4655349" lon="13.6143894">
<ele>1841.967</ele>
<time>2024-10-30T06:10:29Z</time>
<hdop>9.93</hdop>
</trkpt>
<trkpt lat="47.4659343" lon="13.6141362">
<ele>1873.872</ele>
<time>2024-10-30T06:14:03Z</time>
<hdop>17.54</hdop>
</trkpt>
<trkpt lat="47.4659128" lon="13.6139786">
<ele>1899.395</ele>
<time>2024-10-30T06:15:32Z</time>
<hdop>12.55</hdop>
</trkpt>
<trkpt lat="47.4659443" lon="13.6140046">
<ele>1898.441</ele>
<time>2024-10-30T06:16:02Z</time>
<hdop>16.96</hdop>
</trkpt>
<trkpt lat="47.4659745" lon="13.6139912">
<ele>1892.221</ele>
<time>2024-10-30T06:16:32Z</time>
<hdop>16.31</hdop>
</trkpt>
<trkpt lat="47.4660137" lon="13.6140244">
<ele>1887.091</ele>
<time>2024-10-30T06:17:02Z</time>
<hdop>11.04</hdop>
</trkpt>
<trkpt lat="47.4661991" lon="13.6142017">
<ele>1900.447</ele>
<time>2024-10-30T06:18:02Z</time>
<hdop>10.22</hdop>
</trkpt>
<trkpt lat="47.4666612" lon="13.6142206">
<ele>1878.71</ele>
<time>2024-10-30T06:20:02Z</time>
<hdop>15.31</hdop>
</trkpt>
<trkpt lat="47.4666414" lon="13.6141014">
<ele>1892.957</ele>
<time>2024-10-30T06:20:32Z</time>
<hdop>11.7</hdop>
</trkpt>
<trkpt lat="47.4668296" lon="13.6138084">
<ele>1941.634</ele>
<time>2024-10-30T06:22:32Z</time>
<hdop>12.73</hdop>
</trkpt>
<trkpt lat="47.4669056" lon="13.6138246">
<ele>1921.398</ele>
<time>2024-10-30T06:23:02Z</time>
<hdop>7.57</hdop>
</trkpt>
<trkpt lat="47.4671227" lon="13.6135588">
<ele>1714.827</ele>
<time>2024-10-30T06:24:02Z</time>
<hdop>14.66</hdop>
</trkpt>
<trkpt lat="47.4673725" lon="13.613444">
<ele>1877.121</ele>
<time>2024-10-30T06:25:32Z</time>
<hdop>9.1</hdop>
</trkpt>
<trkpt lat="47.4673907" lon="13.6131661">
<ele>1976.029</ele>
<time>2024-10-30T06:27:02Z</time>
<hdop>13.61</hdop>
</trkpt>
<trkpt lat="47.4675777" lon="13.6130172">
<ele>1897.601</ele>
<time>2024-10-30T06:27:32Z</time>
<hdop>12.22</hdop>
</trkpt>
<trkpt lat="47.4678758" lon="13.6128686">
<ele>1900.198</ele>
<time>2024-10-30T06:28:32Z</time>
<hdop>21.42</hdop>
</trkpt>
<trkpt lat="47.4679156" lon="13.6128319">
<ele>1993.289</ele>
<time>2024-10-30T06:29:02Z</time>
<hdop>8.91</hdop>
</trkpt>
<trkpt lat="47.4680402" lon="13.6125442">
<ele>1984.746</ele>
<time>2024-10-30T06:30:32Z</time>
<hdop>13.55</hdop>
</trkpt>
<trkpt lat="47.4681462" lon="13.6125039">
<ele>2011.95</ele>
<time>2024-10-30T06:31:02Z</time>
<hdop>13.95</hdop>
</trkpt>
<trkpt lat="47.4684202" lon="13.6125151">
<ele>2013.122</ele>
<time>2024-10-30T06:32:32Z</time>
<hdop>15.62</hdop>
</trkpt>
<trkpt lat="47.4684341" lon="13.6123017">
<ele>2018.3</ele>
<time>2024-10-30T06:33:02Z</time>
<hdop>14.78</hdop>
</trkpt>
<trkpt lat="47.4686849" lon="13.6124645">
<ele>1972.835</ele>
<time>2024-10-30T06:33:32Z</time>
<hdop>18.16</hdop>
</trkpt>
<trkpt lat="47.4686535" lon="13.612276">
<ele>2036.982</ele>
<time>2024-10-30T06:34:33Z</time>
<hdop>21.04</hdop>
</trkpt>
<trkpt lat="47.4687377" lon="13.6122043">
<ele>2048.774</ele>
<time>2024-10-30T06:35:32Z</time>
<hdop>17.14</hdop>
</trkpt>
<trkpt lat="47.4687377" lon="13.6122043">
<ele>2048.176</ele>
<time>2024-10-30T06:36:18Z</time>
<hdop>18.3</hdop>
</trkpt>
<trkpt lat="47.4687377" lon="13.6122043">
<ele>2058.36</ele>
<time>2024-10-30T06:36:49Z</time>
<hdop>14.71</hdop>
</trkpt>
<trkpt lat="47.4688507" lon="13.6122963">
<ele>2038.52</ele>
<time>2024-10-30T06:37:20Z</time>
<hdop>17.59</hdop>
</trkpt>
<trkpt lat="47.4688854" lon="13.6121201">
<ele>2068.151</ele>
<time>2024-10-30T06:38:20Z</time>
<hdop>20.12</hdop>
</trkpt>
<trkpt lat="47.4688602" lon="13.6116277">
<ele>2073.297</ele>
<time>2024-10-30T06:39:20Z</time>
<hdop>28.4</hdop>
</trkpt>
<trkpt lat="47.4687862" lon="13.6115603">
<ele>2106.155</ele>
<time>2024-10-30T06:39:50Z</time>
<hdop>32.12</hdop>
</trkpt>
<trkpt lat="47.4687726" lon="13.6114405">
<ele>2079.625</ele>
<time>2024-10-30T06:40:20Z</time>
<hdop>26.42</hdop>
</trkpt>
<trkpt lat="47.4686201" lon="13.6109855">
<ele>2100.962</ele>
<time>2024-10-30T06:41:19Z</time>
<hdop>14.8</hdop>
</trkpt>
<trkpt lat="47.4686938" lon="13.610897">
<ele>1884.891</ele>
<time>2024-10-30T06:41:49Z</time>
<hdop>13.89</hdop>
</trkpt>
<trkpt lat="47.4686366" lon="13.6107831">
<ele>2035.794</ele>
<time>2024-10-30T06:42:50Z</time>
<hdop>27.09</hdop>
</trkpt>
<trkpt lat="47.4686713" lon="13.6107489">
<ele>2101.773</ele>
<time>2024-10-30T06:43:20Z</time>
<hdop>19.05</hdop>
</trkpt>
<trkpt lat="47.4686713" lon="13.6107489">
<ele>2095.874</ele>
<time>2024-10-30T06:44:07Z</time>
<hdop>13.81</hdop>
</trkpt>
<trkpt lat="47.4686713" lon="13.6107489">
<ele>2093.896</ele>
<time>2024-10-30T06:44:38Z</time>
<hdop>12.48</hdop>
</trkpt>
<trkpt lat="47.4686713" lon="13.6107489">
<ele>2103.736</ele>
<time>2024-10-30T06:45:08Z</time>
<hdop>12.91</hdop>
</trkpt>
<trkpt lat="47.4686713" lon="13.6107489">
<ele>2103.025</ele>
<time>2024-10-30T06:46:07Z</time>
<hdop>6.36</hdop>
</trkpt>
<trkpt lat="47.4686713" lon="13.6107489">
<ele>2103.388</ele>
<time>2024-10-30T06:46:37Z</time>
<hdop>5.28</hdop>
</trkpt>
<trkpt lat="47.4686713" lon="13.6107489">
<ele>2103.006</ele>
<time>2024-10-30T06:47:07Z</time>
<hdop>6.53</hdop>
</trkpt>
<trkpt lat="47.4686713" lon="13.6107489">
<ele>2102.953</ele>
<time>2024-10-30T06:47:37Z</time>
<hdop>5.91</hdop>
</trkpt>
<trkpt lat="47.4686713" lon="13.6107489">
<ele>2098.737</ele>
<time>2024-10-30T06:48:07Z</time>
<hdop>7.38</hdop>
</trkpt>
<trkpt lat="47.4686713" lon="13.6107489">
<ele>2102.389</ele>
<time>2024-10-30T06:48:37Z</time>
<hdop>5.83</hdop>
</trkpt>
<trkpt lat="47.4686713" lon="13.6107489">
<ele>2102.431</ele>
<time>2024-10-30T06:49:07Z</time>
<hdop>7.3</hdop>
</trkpt>
<trkpt lat="47.4686713" lon="13.6107489">
<ele>2101.975</ele>
<time>2024-10-30T06:49:37Z</time>
<hdop>6.65</hdop>
</trkpt>
<trkpt lat="47.4686713" lon="13.6107489">
<ele>2101.588</ele>
<time>2024-10-30T06:50:07Z</time>
<hdop>5.44</hdop>
</trkpt>
<trkpt lat="47.4686713" lon="13.6107489">
<ele>2101.735</ele>
<time>2024-10-30T06:50:37Z</time>
<hdop>4.97</hdop>
</trkpt>
<trkpt lat="47.4686713" lon="13.6107489">
<ele>2101.98</ele>
<time>2024-10-30T06:51:07Z</time>
<hdop>10.43</hdop>
</trkpt>
<trkpt lat="47.4686713" lon="13.6107489">
<ele>2100.513</ele>
<time>2024-10-30T06:51:38Z</time>
<hdop>11.05</hdop>
</trkpt>
<trkpt lat="47.4686713" lon="13.6107489">
<ele>2103.075</ele>
<time>2024-10-30T06:52:08Z</time>
<hdop>4.37</hdop>
</trkpt>
<trkpt lat="47.4686713" lon="13.6107489">
<ele>2103.068</ele>
<time>2024-10-30T06:52:38Z</time>
<hdop>3.89</hdop>
</trkpt>
<trkpt lat="47.4686713" lon="13.6107489">
<ele>2103.022</ele>
<time>2024-10-30T06:53:08Z</time>
<hdop>4.35</hdop>
</trkpt>
<trkpt lat="47.4686713" lon="13.6107489">
<ele>2102.151</ele>
<time>2024-10-30T06:53:39Z</time>
<hdop>4.33</hdop>
</trkpt>
<trkpt lat="47.4686713" lon="13.6107489">
<ele>2103.311</ele>
<time>2024-10-30T06:54:10Z</time>
<hdop>10.59</hdop>
</trkpt>
<trkpt lat="47.4686713" lon="13.6107489">
<ele>2091.996</ele>
<time>2024-10-30T06:54:40Z</time>
<hdop>9.84</hdop>
</trkpt>
<trkpt lat="47.4686713" lon="13.6107489">
<ele>2093.386</ele>
<time>2024-10-30T06:55:11Z</time>
<hdop>16.48</hdop>
</trkpt>
<trkpt lat="47.4686713" lon="13.6107489">
<ele>2097.96</ele>
<time>2024-10-30T06:55:41Z</time>
<hdop>15.28</hdop>
</trkpt>
<trkpt lat="47.4687189" lon="13.6106838">
<ele>2099.946</ele>
<time>2024-10-30T06:56:11Z</time>
<hdop>9.44</hdop>
</trkpt>
<trkpt lat="47.4688024" lon="13.6105758">
<ele>2102.098</ele>
<time>2024-10-30T06:57:11Z</time>
<hdop>8.13</hdop>
</trkpt>
<trkpt lat="47.4692567" lon="13.6105432">
<ele>2032.225</ele>
<time>2024-10-30T06:58:10Z</time>
<hdop>6.95</hdop>
</trkpt>
<trkpt lat="47.4694301" lon="13.6104755">
<ele>1876.426</ele>
<time>2024-10-30T06:59:11Z</time>
<hdop>21.24</hdop>
</trkpt>
<trkpt lat="47.4697844" lon="13.6105233">
<ele>2089.007</ele>
<time>2024-10-30T06:59:41Z</time>
<hdop>7.63</hdop>
</trkpt>
<trkpt lat="47.4699707" lon="13.6103365">
<ele>2109.592</ele>
<time>2024-10-30T07:00:40Z</time>
<hdop>10.22</hdop>
</trkpt>
<trkpt lat="47.4701277" lon="13.6103322">
<ele>2105.198</ele>
<time>2024-10-30T07:01:40Z</time>
<hdop>8.93</hdop>
</trkpt>
<trkpt lat="47.4703711" lon="13.6102543">
<ele>2083.318</ele>
<time>2024-10-30T07:02:11Z</time>
<hdop>9.39</hdop>
</trkpt>
<trkpt lat="47.4707279" lon="13.609872">
<ele>2113.424</ele>
<time>2024-10-30T07:04:11Z</time>
<hdop>11.96</hdop>
</trkpt>
<trkpt lat="47.4710865" lon="13.6095694">
<ele>2107.623</ele>
<time>2024-10-30T07:05:11Z</time>
<hdop>20.52</hdop>
</trkpt>
<trkpt lat="47.4711371" lon="13.6093349">
<ele>1959.95</ele>
<time>2024-10-30T07:06:42Z</time>
<hdop>21.08</hdop>
</trkpt>
<trkpt lat="47.47116" lon="13.609236">
<ele>2105.446</ele>
<time>2024-10-30T07:07:12Z</time>
<hdop>27.33</hdop>
</trkpt>
<trkpt lat="47.4714628" lon="13.6087791">
<ele>2152.863</ele>
<time>2024-10-30T07:09:41Z</time>
<hdop>18.69</hdop>
</trkpt>
<trkpt lat="47.4714581" lon="13.60876">
<ele>2144.821</ele>
<time>2024-10-30T07:10:11Z</time>
<hdop>18.74</hdop>
</trkpt>
<trkpt lat="47.4716405" lon="13.6087377">
<ele>2164.444</ele>
<time>2024-10-30T07:10:41Z</time>
<hdop>10.89</hdop>
</trkpt>
<trkpt lat="47.4716187" lon="13.6088104">
<ele>2151.825</ele>
<time>2024-10-30T07:11:41Z</time>
<hdop>9.75</hdop>
</trkpt>
<trkpt lat="47.4721915" lon="13.6090805">
<ele>2104.841</ele>
<time>2024-10-30T07:12:12Z</time>
<hdop>16.51</hdop>
</trkpt>
<trkpt lat="47.4721068" lon="13.6089288">
<ele>2120.326</ele>
<time>2024-10-30T07:13:11Z</time>
<hdop>18.54</hdop>
</trkpt>
<trkpt lat="47.4720684" lon="13.608864">
<ele>2127.788</ele>
<time>2024-10-30T07:13:41Z</time>
<hdop>16.9</hdop>
</trkpt>
<trkpt lat="47.4721083" lon="13.6086377">
<ele>2157.555</ele>
<time>2024-10-30T07:14:22Z</time>
<hdop>21.25</hdop>
</trkpt>
<trkpt lat="47.4721713" lon="13.6084739">
<ele>2151.486</ele>
<time>2024-10-30T07:14:52Z</time>
<hdop>19.16</hdop>
</trkpt>
<trkpt lat="47.4725287" lon="13.6082451">
<ele>2158.822</ele>
<time>2024-10-30T07:15:23Z</time>
<hdop>42.61</hdop>
</trkpt>
<trkpt lat="47.4725871" lon="13.6079507">
<ele>2128.113</ele>
<time>2024-10-30T07:19:22Z</time>
<hdop>24.68</hdop>
</trkpt>
<trkpt lat="47.472835" lon="13.6077297">
<ele>2211.869</ele>
<time>2024-10-30T07:20:51Z</time>
<hdop>18.36</hdop>
</trkpt>
<trkpt lat="47.472927" lon="13.607715">
<ele>2229.489</ele>
<time>2024-10-30T07:22:51Z</time>
<hdop>16.92</hdop>
</trkpt>
<trkpt lat="47.4733665" lon="13.6075955">
<ele>2211.782</ele>
<time>2024-10-30T07:25:21Z</time>
<hdop>29.75</hdop>
</trkpt>
<trkpt lat="47.4733168" lon="13.6075874">
<ele>2225.427</ele>
<time>2024-10-30T07:26:52Z</time>
<hdop>31.39</hdop>
</trkpt>
<trkpt lat="47.4733215" lon="13.6076313">
<ele>2099.217</ele>
<time>2024-10-30T07:27:22Z</time>
<hdop>36.3</hdop>
</trkpt>
<trkpt lat="47.4733842" lon="13.6079689">
<ele>2276.21</ele>
<time>2024-10-30T07:33:50Z</time>
<hdop>11.61</hdop>
</trkpt>
<trkpt lat="47.4733383" lon="13.6081513">
<ele>2291.796</ele>
<time>2024-10-30T07:35:20Z</time>
<hdop>11.74</hdop>
</trkpt>
<trkpt lat="47.4733633" lon="13.6083211">
<ele>2209.28</ele>
<time>2024-10-30T07:35:51Z</time>
<hdop>23.65</hdop>
</trkpt>
<trkpt lat="47.4733711" lon="13.6084363">
<ele>2298.793</ele>
<time>2024-10-30T07:37:50Z</time>
<hdop>11.8</hdop>
</trkpt>
<trkpt lat="47.4733819" lon="13.6085354">
<ele>2246.212</ele>
<time>2024-10-30T07:39:51Z</time>
<hdop>28.39</hdop>
</trkpt>
<trkpt lat="47.4733868" lon="13.6085634">
<ele>2268.265</ele>
<time>2024-10-30T07:40:22Z</time>
<hdop>27.19</hdop>
</trkpt>
<trkpt lat="47.47339" lon="13.608594">
<ele>2321.362</ele>
<time>2024-10-30T07:45:20Z</time>
<hdop>7.93</hdop>
</trkpt>
<trkpt lat="47.4734136" lon="13.608608">
<ele>2272.873</ele>
<time>2024-10-30T07:47:21Z</time>
<hdop>27.89</hdop>
</trkpt>
<trkpt lat="47.4734533" lon="13.6086099">
<ele>2033.389</ele>
<time>2024-10-30T07:47:52Z</time>
<hdop>38.58</hdop>
</trkpt>
<trkpt lat="47.4735072" lon="13.6086363">
<ele>2296.499</ele>
<time>2024-10-30T07:48:51Z</time>
<hdop>28.23</hdop>
</trkpt>
<trkpt lat="47.4735338" lon="13.6086768">
<ele>2190.22</ele>
<time>2024-10-30T07:49:21Z</time>
<hdop>18.64</hdop>
</trkpt>
<trkpt lat="47.4735402" lon="13.6087012">
<ele>2031.781</ele>
<time>2024-10-30T07:50:30Z</time>
<hdop>58.06</hdop>
</trkpt>
<trkpt lat="47.4735477" lon="13.6087095">
<ele>2282.285</ele>
<time>2024-10-30T07:51:21Z</time>
<hdop>30.12</hdop>
</trkpt>
<trkpt lat="47.4735726" lon="13.6087302">
<ele>2288.29</ele>
<time>2024-10-30T07:58:22Z</time>
<hdop>42.62</hdop>
</trkpt>
<trkpt lat="47.4736567" lon="13.6085967">
<ele>1792.691</ele>
<time>2024-10-30T09:41:35Z</time>
<hdop>43.65</hdop>
</trkpt>
<trkpt lat="47.4736811" lon="13.6084533">
<ele>1877.627</ele>
<time>2024-10-30T09:43:44Z</time>
<hdop>34.01</hdop>
</trkpt>
<trkpt lat="47.4736802" lon="13.608157">
<ele>1890.142</ele>
<time>2024-10-30T09:54:52Z</time>
<hdop>33.51</hdop>
</trkpt>
<trkpt lat="47.4739409" lon="13.6078297">
<ele>2503.579</ele>
<time>2024-10-30T10:12:50Z</time>
<hdop>21.32</hdop>
</trkpt>
<trkpt lat="47.4739399" lon="13.6078268">
<ele>2362.493</ele>
<time>2024-10-30T10:16:20Z</time>
<hdop>21.34</hdop>
</trkpt>
<trkpt lat="47.4739601" lon="13.6078464">
<ele>2153.147</ele>
<time>2024-10-30T10:16:50Z</time>
<hdop>18.64</hdop>
</trkpt>
<trkpt lat="47.4739556" lon="13.6078398">
<ele>1910.278</ele>
<time>2024-10-30T10:24:52Z</time>
<hdop>33.54</hdop>
</trkpt>
<trkpt lat="47.4741383" lon="13.6078796">
<ele>2589.341</ele>
<time>2024-10-30T10:31:50Z</time>
<hdop>14.67</hdop>
</trkpt>
<trkpt lat="47.4741704" lon="13.6078554">
<ele>2522.673</ele>
<time>2024-10-30T10:34:20Z</time>
<hdop>11.06</hdop>
</trkpt>
<trkpt lat="47.4743559" lon="13.6080103">
<ele>2644.956</ele>
<time>2024-10-30T10:48:50Z</time>
<hdop>12.79</hdop>
</trkpt>
<trkpt lat="47.4743546" lon="13.6080168">
<ele>2644.695</ele>
<time>2024-10-30T10:49:20Z</time>
<hdop>18.82</hdop>
</trkpt>
<trkpt lat="47.4743533" lon="13.6080181">
<ele>2574.423</ele>
<time>2024-10-30T10:49:50Z</time>
<hdop>18.77</hdop>
</trkpt>
<trkpt lat="47.4743515" lon="13.6080227">
<ele>2643.163</ele>
<time>2024-10-30T10:50:20Z</time>
<hdop>11.04</hdop>
</trkpt>
<trkpt lat="47.4743547" lon="13.6080207">
<ele>2559.165</ele>
<time>2024-10-30T10:51:50Z</time>
<hdop>18.24</hdop>
</trkpt>
<trkpt lat="47.4743549" lon="13.6080204">
<ele>2637.042</ele>
<time>2024-10-30T10:52:20Z</time>
<hdop>17.84</hdop>
</trkpt>
<trkpt lat="47.4743617" lon="13.6080322">
<ele>1801.85</ele>
<time>2024-10-30T10:53:52Z</time>
<hdop>18.58</hdop>
</trkpt>
<trkpt lat="47.4743789" lon="13.6080821">
<ele>2592.905</ele>
<time>2024-10-30T10:54:49Z</time>
<hdop>7.55</hdop>
</trkpt>
<trkpt lat="47.4744822" lon="13.6084413">
<ele>2312.476</ele>
<time>2024-10-30T11:46:20Z</time>
<hdop>17.32</hdop>
</trkpt>
<trkpt lat="47.4744936" lon="13.60846">
<ele>2699.958</ele>
<time>2024-10-30T11:47:51Z</time>
<hdop>19.94</hdop>
</trkpt>
<trkpt lat="47.474491" lon="13.6084651">
<ele>2704.07</ele>
<time>2024-10-30T11:48:50Z</time>
<hdop>17.95</hdop>
</trkpt>
<trkpt lat="47.4744908" lon="13.6084546">
<ele>2703.886</ele>
<time>2024-10-30T11:49:51Z</time>
<hdop>26.67</hdop>
</trkpt>
<trkpt lat="47.4744935" lon="13.6084535">
<ele>2704.821</ele>
<time>2024-10-30T11:50:50Z</time>
<hdop>21.13</hdop>
</trkpt>
<trkpt lat="47.4744946" lon="13.6084435">
<ele>2427.871</ele>
<time>2024-10-30T11:51:22Z</time>
<hdop>8.3</hdop>
</trkpt>
<trkpt lat="47.4744997" lon="13.6084419">
<ele>2380.77</ele>
<time>2024-10-30T11:52:00Z</time>
<hdop>19.73</hdop>
</trkpt>
<trkpt lat="47.4745019" lon="13.6084491">
<ele>2680.55</ele>
<time>2024-10-30T11:52:49Z</time>
<hdop>6.13</hdop>
</trkpt>
<trkpt lat="47.4745019" lon="13.6084491">
<ele>2669.271</ele>
<time>2024-10-30T11:53:20Z</time>
<hdop>9.96</hdop>
</trkpt>
<trkpt lat="47.4745019" lon="13.6084491">
<ele>2703.355</ele>
<time>2024-10-30T11:53:50Z</time>
<hdop>8.76</hdop>
</trkpt>
<trkpt lat="47.4745019" lon="13.6084491">
<ele>2702.083</ele>
<time>2024-10-30T11:54:21Z</time>
<hdop>19.01</hdop>
</trkpt>
<trkpt lat="47.4744957" lon="13.608437">
<ele>2701.807</ele>
<time>2024-10-30T11:54:52Z</time>
<hdop>32.03</hdop>
</trkpt>
<trkpt lat="47.4744924" lon="13.6084503">
<ele>2623.549</ele>
<time>2024-10-30T11:58:50Z</time>
<hdop>12.26</hdop>
</trkpt>
<trkpt lat="47.4744938" lon="13.6084546">
<ele>2515.203</ele>
<time>2024-10-30T11:59:20Z</time>
<hdop>11.45</hdop>
</trkpt>
<trkpt lat="47.4744942" lon="13.6084548">
<ele>2696.49</ele>
<time>2024-10-30T11:59:50Z</time>
<hdop>11.15</hdop>
</trkpt>
<trkpt lat="47.4745047" lon="13.6084472">
<ele>2508.515</ele>
<time>2024-10-30T12:00:21Z</time>
<hdop>7.53</hdop>
</trkpt>
<trkpt lat="47.4744947" lon="13.608453">
<ele>2674.544</ele>
<time>2024-10-30T12:01:20Z</time>
<hdop>18.61</hdop>
</trkpt>
<trkpt lat="47.4744997" lon="13.6084493">
<ele>2672.215</ele>
<time>2024-10-30T12:01:50Z</time>
<hdop>14.83</hdop>
</trkpt>
<trkpt lat="47.4744999" lon="13.6084452">
<ele>2699.93</ele>
<time>2024-10-30T12:02:20Z</time>
<hdop>11.74</hdop>
</trkpt>
<trkpt lat="47.4744945" lon="13.6084571">
<ele>2698.261</ele>
<time>2024-10-30T12:03:50Z</time>
<hdop>16.17</hdop>
</trkpt>
<trkpt lat="47.4744908" lon="13.608469">
<ele>2367.673</ele>
<time>2024-10-30T12:04:22Z</time>
<hdop>10.65</hdop>
</trkpt>
<trkpt lat="47.4745076" lon="13.6084636">
<ele>2670.61</ele>
<time>2024-10-30T12:05:21Z</time>
<hdop>26.57</hdop>
</trkpt>
<trkpt lat="47.4745047" lon="13.6084664">
<ele>2715.114</ele>
<time>2024-10-30T12:06:19Z</time>
<hdop>4.09</hdop>
</trkpt>
<trkpt lat="47.4745151" lon="13.6084682">
<ele>2714.734</ele>
<time>2024-10-30T12:06:49Z</time>
<hdop>5.79</hdop>
</trkpt>
<trkpt lat="47.4745246" lon="13.6084704">
<ele>2715.07</ele>
<time>2024-10-30T12:07:19Z</time>
<hdop>8.05</hdop>
</trkpt>
<trkpt lat="47.4745331" lon="13.6084783">
<ele>2715.636</ele>
<time>2024-10-30T12:07:50Z</time>
<hdop>13.1</hdop>
</trkpt>
<trkpt lat="47.4745588" lon="13.608534">
<ele>2724.39</ele>
<time>2024-10-30T12:08:50Z</time>
<hdop>11.59</hdop>
</trkpt>
<trkpt lat="47.4747069" lon="13.6087024">
<ele>2461.245</ele>
<time>2024-10-30T12:12:50Z</time>
<hdop>20.52</hdop>
</trkpt>
<trkpt lat="47.4747314" lon="13.6087063">
<ele>2131.276</ele>
<time>2024-10-30T12:13:21Z</time>
<hdop>21.5</hdop>
</trkpt>
<trkpt lat="47.4747083" lon="13.6087214">
<ele>2600.913</ele>
<time>2024-10-30T12:14:21Z</time>
<hdop>20.82</hdop>
</trkpt>
<trkpt lat="47.4747073" lon="13.6087003">
<ele>2590.705</ele>
<time>2024-10-30T12:15:20Z</time>
<hdop>19.7</hdop>
</trkpt>
<trkpt lat="47.4746933" lon="13.6087135">
<ele>2767.058</ele>
<time>2024-10-30T12:19:28Z</time>
<hdop>8.41</hdop>
</trkpt>
<trkpt lat="47.4747665" lon="13.6087137">
<ele>2542.112</ele>
<time>2024-10-30T12:20:19Z</time>
<hdop>9.87</hdop>
</trkpt>
<trkpt lat="47.4747435" lon="13.6087174">
<ele>2755.237</ele>
<time>2024-10-30T12:20:51Z</time>
<hdop>3.79</hdop>
</trkpt>
<trkpt lat="47.4747434" lon="13.6087186">
<ele>2755.238</ele>
<time>2024-10-30T12:21:49Z</time>
<hdop>5.77</hdop>
</trkpt>
<trkpt lat="47.4747434" lon="13.6087186">
<ele>2755.24</ele>
<time>2024-10-30T12:22:19Z</time>
<hdop>6.74</hdop>
</trkpt>
<trkpt lat="47.4747434" lon="13.6087186">
<ele>2755.239</ele>
<time>2024-10-30T12:22:50Z</time>
<hdop>12.92</hdop>
</trkpt>
<trkpt lat="47.4747434" lon="13.6087186">
<ele>2755.241</ele>
<time>2024-10-30T12:23:49Z</time>
<hdop>9.67</hdop>
</trkpt>
<trkpt lat="47.4747434" lon="13.6087186">
<ele>2755.234</ele>
<time>2024-10-30T12:24:20Z</time>
<hdop>13.54</hdop>
</trkpt>
<trkpt lat="47.4747434" lon="13.6087186">
<ele>2755.228</ele>
<time>2024-10-30T12:24:50Z</time>
<hdop>16.55</hdop>
</trkpt>
<trkpt lat="47.4747434" lon="13.6087186">
<ele>2755.226</ele>
<time>2024-10-30T12:25:49Z</time>
<hdop>7.02</hdop>
</trkpt>
<trkpt lat="47.4747434" lon="13.6087186">
<ele>2755.226</ele>
<time>2024-10-30T12:26:19Z</time>
<hdop>9.51</hdop>
</trkpt>
<trkpt lat="47.4747434" lon="13.6087186">
<ele>2755.227</ele>
<time>2024-10-30T12:26:49Z</time>
<hdop>6.68</hdop>
</trkpt>
<trkpt lat="47.4747434" lon="13.6087186">
<ele>2755.23</ele>
<time>2024-10-30T12:27:20Z</time>
<hdop>12.33</hdop>
</trkpt>
<trkpt lat="47.4747434" lon="13.6087186">
<ele>2755.227</ele>
<time>2024-10-30T12:27:50Z</time>
<hdop>9.92</hdop>
</trkpt>
<trkpt lat="47.4747434" lon="13.6087186">
<ele>2755.228</ele>
<time>2024-10-30T12:28:50Z</time>
<hdop>10.04</hdop>
</trkpt>
<trkpt lat="47.4747434" lon="13.6087186">
<ele>2755.231</ele>
<time>2024-10-30T12:29:20Z</time>
<hdop>7.77</hdop>
</trkpt>
<trkpt lat="47.4747434" lon="13.6087186">
<ele>2755.234</ele>
<time>2024-10-30T12:30:21Z</time>
<hdop>22.58</hdop>
</trkpt>
<trkpt lat="47.4747434" lon="13.6087186">
<ele>2755.228</ele>
<time>2024-10-30T12:31:20Z</time>
<hdop>11.07</hdop>
</trkpt>
<trkpt lat="47.4747434" lon="13.6087186">
<ele>2728.283</ele>
<time>2024-10-30T12:31:50Z</time>
<hdop>7.78</hdop>
</trkpt>
<trkpt lat="47.4747434" lon="13.6087186">
<ele>2748.087</ele>
<time>2024-10-30T12:32:20Z</time>
<hdop>7.19</hdop>
</trkpt>
<trkpt lat="47.4747434" lon="13.6087186">
<ele>2755.231</ele>
<time>2024-10-30T12:33:19Z</time>
<hdop>7.78</hdop>
</trkpt>
<trkpt lat="47.4747434" lon="13.6087186">
<ele>2755.236</ele>
<time>2024-10-30T12:33:50Z</time>
<hdop>10.19</hdop>
</trkpt>
<trkpt lat="47.4747434" lon="13.6087186">
<ele>2755.24</ele>
<time>2024-10-30T12:34:49Z</time>
<hdop>7.96</hdop>
</trkpt>
<trkpt lat="47.4747434" lon="13.6087186">
<ele>2755.237</ele>
<time>2024-10-30T12:35:19Z</time>
<hdop>7.58</hdop>
</trkpt>
<trkpt lat="47.4747434" lon="13.6087186">
<ele>2755.221</ele>
<time>2024-10-30T12:35:50Z</time>
<hdop>18.24</hdop>
</trkpt>
<trkpt lat="47.4747434" lon="13.6087186">
<ele>2755.226</ele>
<time>2024-10-30T12:36:50Z</time>
<hdop>8.8</hdop>
</trkpt>
<trkpt lat="47.4747434" lon="13.6087186">
<ele>2755.221</ele>
<time>2024-10-30T12:37:49Z</time>
<hdop>5.81</hdop>
</trkpt>
<trkpt lat="47.4747434" lon="13.6087186">
<ele>2755.226</ele>
<time>2024-10-30T12:38:20Z</time>
<hdop>12.74</hdop>
</trkpt>
<trkpt lat="47.4747434" lon="13.6087186">
<ele>2755.226</ele>
<time>2024-10-30T12:38:50Z</time>
<hdop>9.08</hdop>
</trkpt>
<trkpt lat="47.4747434" lon="13.6087186">
<ele>2755.225</ele>
<time>2024-10-30T12:39:50Z</time>
<hdop>12.63</hdop>
</trkpt>
<trkpt lat="47.4747434" lon="13.6087186">
<ele>2755.224</ele>
<time>2024-10-30T12:40:20Z</time>
<hdop>10.7</hdop>
</trkpt>
<trkpt lat="47.4747434" lon="13.6087186">
<ele>2755.223</ele>
<time>2024-10-30T12:40:53Z</time>
<hdop>40.7</hdop>
</trkpt>
<trkpt lat="47.4747434" lon="13.6087186">
<ele>2755.213</ele>
<time>2024-10-30T12:41:49Z</time>
<hdop>6.9</hdop>
</trkpt>
<trkpt lat="47.4747434" lon="13.6087186">
<ele>2755.216</ele>
<time>2024-10-30T12:42:20Z</time>
<hdop>7.88</hdop>
</trkpt>
<trkpt lat="47.4747434" lon="13.6087186">
<ele>2755.209</ele>
<time>2024-10-30T12:42:50Z</time>
<hdop>10.57</hdop>
</trkpt>
<trkpt lat="47.4747434" lon="13.6087186">
<ele>2755.205</ele>
<time>2024-10-30T12:43:20Z</time>
<hdop>12.04</hdop>
</trkpt>
<trkpt lat="47.4747434" lon="13.6087186">
<ele>2755.205</ele>
<time>2024-10-30T12:44:19Z</time>
<hdop>7.62</hdop>
</trkpt>
<trkpt lat="47.4747651" lon="13.6087078">
<ele>2612.678</ele>
<time>2024-10-30T12:45:50Z</time>
<hdop>7.13</hdop>
</trkpt>
<trkpt lat="47.4747664" lon="13.6087723">
<ele>2757.68</ele>
<time>2024-10-30T12:46:49Z</time>
<hdop>10.71</hdop>
</trkpt>
<trkpt lat="47.4747722" lon="13.6087851">
<ele>2761.183</ele>
<time>2024-10-30T12:47:19Z</time>
<hdop>8.97</hdop>
</trkpt>
<trkpt lat="47.4747895" lon="13.6088015">
<ele>2763.512</ele>
<time>2024-10-30T12:47:50Z</time>
<hdop>6.45</hdop>
</trkpt>
<trkpt lat="47.4747918" lon="13.6088201">
<ele>2766.064</ele>
<time>2024-10-30T12:48:50Z</time>
<hdop>9.93</hdop>
</trkpt>
<trkpt lat="47.4747642" lon="13.608904">
<ele>2775.077</ele>
<time>2024-10-30T12:49:50Z</time>
<hdop>9.72</hdop>
</trkpt>
<trkpt lat="47.4747642" lon="13.608904">
<ele>2779.06</ele>
<time>2024-10-30T12:50:20Z</time>
<hdop>7.82</hdop>
</trkpt>
<trkpt lat="47.4747642" lon="13.608904">
<ele>2778.275</ele>
<time>2024-10-30T12:50:50Z</time>
<hdop>10.24</hdop>
</trkpt>
<trkpt lat="47.4747642" lon="13.608904">
<ele>2777.477</ele>
<time>2024-10-30T12:51:20Z</time>
<hdop>9.46</hdop>
</trkpt>
<trkpt lat="47.4747642" lon="13.608904">
<ele>2776.491</ele>
<time>2024-10-30T12:52:20Z</time>
<hdop>8.79</hdop>
</trkpt>
<trkpt lat="47.4747642" lon="13.608904">
<ele>2781.939</ele>
<time>2024-10-30T12:52:50Z</time>
<hdop>7.88</hdop>
</trkpt>
<trkpt lat="47.4747642" lon="13.608904">
<ele>2780.65</ele>
<time>2024-10-30T12:53:20Z</time>
<hdop>8.31</hdop>
</trkpt>
<trkpt lat="47.4747642" lon="13.608904">
<ele>2780.113</ele>
<time>2024-10-30T12:53:51Z</time>
<hdop>19.91</hdop>
</trkpt>
<trkpt lat="47.4747642" lon="13.608904">
<ele>2780.562</ele>
<time>2024-10-30T12:54:49Z</time>
<hdop>9.72</hdop>
</trkpt>
<trkpt lat="47.4747642" lon="13.608904">
<ele>2782.77</ele>
<time>2024-10-30T12:55:19Z</time>
<hdop>4.94</hdop>
</trkpt>
<trkpt lat="47.4747642" lon="13.608904">
<ele>2780.955</ele>
<time>2024-10-30T12:55:49Z</time>
<hdop>5.11</hdop>
</trkpt>
<trkpt lat="47.4748497" lon="13.6090034">
<ele>2786.631</ele>
<time>2024-10-30T12:56:20Z</time>
<hdop>7.39</hdop>
</trkpt>
<trkpt lat="47.4748492" lon="13.6090597">
<ele>2798.277</ele>
<time>2024-10-30T12:57:20Z</time>
<hdop>9.89</hdop>
</trkpt>
<trkpt lat="47.4748687" lon="13.6090914">
<ele>2796.791</ele>
<time>2024-10-30T12:58:19Z</time>
<hdop>8.12</hdop>
</trkpt>
<trkpt lat="47.4748423" lon="13.6091352">
<ele>2799.747</ele>
<time>2024-10-30T12:58:50Z</time>
<hdop>20.27</hdop>
</trkpt>
<trkpt lat="47.4748871" lon="13.6091014">
<ele>2799.423</ele>
<time>2024-10-30T12:59:20Z</time>
<hdop>7.25</hdop>
</trkpt>
<trkpt lat="47.4748821" lon="13.6091176">
<ele>2802.313</ele>
<time>2024-10-30T13:02:19Z</time>
<hdop>11.83</hdop>
</trkpt>
<trkpt lat="47.474856" lon="13.6091153">
<ele>2804.658</ele>
<time>2024-10-30T13:02:50Z</time>
<hdop>10.86</hdop>
</trkpt>
<trkpt lat="47.474856" lon="13.6091153">
<ele>2801.862</ele>
<time>2024-10-30T13:03:20Z</time>
<hdop>13.5</hdop>
</trkpt>
<trkpt lat="47.474856" lon="13.6091153">
<ele>2802.858</ele>
<time>2024-10-30T13:03:50Z</time>
<hdop>21.08</hdop>
</trkpt>
<trkpt lat="47.474856" lon="13.6091153">
<ele>2802.027</ele>
<time>2024-10-30T13:04:20Z</time>
<hdop>18.62</hdop>
</trkpt>
<trkpt lat="47.474856" lon="13.6091153">
<ele>2788.078</ele>
<time>2024-10-30T13:04:50Z</time>
<hdop>14.34</hdop>
</trkpt>
<trkpt lat="47.474856" lon="13.6091153">
<ele>2802.727</ele>
<time>2024-10-30T13:05:20Z</time>
<hdop>10.3</hdop>
</trkpt>
<trkpt lat="47.474856" lon="13.6091153">
<ele>2804.092</ele>
<time>2024-10-30T13:05:50Z</time>
<hdop>9.56</hdop>
</trkpt>
<trkpt lat="47.474856" lon="13.6091153">
<ele>2805.886</ele>
<time>2024-10-30T13:06:20Z</time>
<hdop>13.35</hdop>
</trkpt>
<trkpt lat="47.474856" lon="13.6091153">
<ele>2807.154</ele>
<time>2024-10-30T13:06:50Z</time>
<hdop>15.74</hdop>
</trkpt>
<trkpt lat="47.474856" lon="13.6091153">
<ele>2808.034</ele>
<time>2024-10-30T13:07:20Z</time>
<hdop>8.77</hdop>
</trkpt>
<trkpt lat="47.474856" lon="13.6091153">
<ele>2808.334</ele>
<time>2024-10-30T13:07:50Z</time>
<hdop>8.69</hdop>
</trkpt>
<trkpt lat="47.474856" lon="13.6091153">
<ele>2808.383</ele>
<time>2024-10-30T13:08:20Z</time>
<hdop>14.59</hdop>
</trkpt>
<trkpt lat="47.474856" lon="13.6091153">
<ele>2789.932</ele>
<time>2024-10-30T13:08:50Z</time>
<hdop>13.85</hdop>
</trkpt>
<trkpt lat="47.4748508" lon="13.6091435">
<ele>2805.067</ele>
<time>2024-10-30T13:09:20Z</time>
<hdop>14.22</hdop>
</trkpt>
<trkpt lat="47.4748551" lon="13.6091475">
<ele>2805.868</ele>
<time>2024-10-30T13:09:51Z</time>
<hdop>17.36</hdop>
</trkpt>
<trkpt lat="47.4749744" lon="13.6091665">
<ele>2802.502</ele>
<time>2024-10-30T13:21:50Z</time>
<hdop>19.44</hdop>
</trkpt>
<trkpt lat="47.4750684" lon="13.6094551">
<ele>2810.851</ele>
<time>2024-10-30T13:23:20Z</time>
<hdop>17.96</hdop>
</trkpt>
<trkpt lat="47.4750488" lon="13.6094676">
<ele>2660.591</ele>
<time>2024-10-30T13:27:51Z</time>
<hdop>14.53</hdop>
</trkpt>
<trkpt lat="47.4750724" lon="13.6094745">
<ele>2775.404</ele>
<time>2024-10-30T13:31:20Z</time>
<hdop>12.21</hdop>
</trkpt>
<trkpt lat="47.4750713" lon="13.6094876">
<ele>2844.678</ele>
<time>2024-10-30T13:32:19Z</time>
<hdop>4.32</hdop>
</trkpt>
<trkpt lat="47.4750693" lon="13.6094977">
<ele>2844.348</ele>
<time>2024-10-30T13:32:49Z</time>
<hdop>5.82</hdop>
</trkpt>
<trkpt lat="47.4750683" lon="13.6094997">
<ele>2844.571</ele>
<time>2024-10-30T13:33:19Z</time>
<hdop>5.12</hdop>
</trkpt>
<trkpt lat="47.4750782" lon="13.6094754">
<ele>2845.083</ele>
<time>2024-10-30T13:35:19Z</time>
<hdop>5.74</hdop>
</trkpt>
<trkpt lat="47.4751033" lon="13.6094684">
<ele>2838.17</ele>
<time>2024-10-30T13:35:49Z</time>
<hdop>6.01</hdop>
</trkpt>
<trkpt lat="47.4750994" lon="13.6094939">
<ele>2820.112</ele>
<time>2024-10-30T13:39:19Z</time>
<hdop>9.45</hdop>
</trkpt>
<trkpt lat="47.4750943" lon="13.6094981">
<ele>2650.798</ele>
<time>2024-10-30T13:39:51Z</time>
<hdop>21.12</hdop>
</trkpt>
<trkpt lat="47.4750922" lon="13.6095018">
<ele>2790.446</ele>
<time>2024-10-30T13:40:21Z</time>
<hdop>22.81</hdop>
</trkpt>
<trkpt lat="47.4750936" lon="13.6095047">
<ele>2832.816</ele>
<time>2024-10-30T13:41:20Z</time>
<hdop>16.11</hdop>
</trkpt>
<trkpt lat="47.4750936" lon="13.6095047">
<ele>2833.858</ele>
<time>2024-10-30T13:41:51Z</time>
<hdop>14.66</hdop>
</trkpt>
<trkpt lat="47.4750942" lon="13.6095084">
<ele>2837.016</ele>
<time>2024-10-30T13:42:49Z</time>
<hdop>7.44</hdop>
</trkpt>
<trkpt lat="47.4750985" lon="13.6095121">
<ele>2753.447</ele>
<time>2024-10-30T13:43:19Z</time>
<hdop>10.17</hdop>
</trkpt>
<trkpt lat="47.4750883" lon="13.6095113">
<ele>2834.657</ele>
<time>2024-10-30T13:43:49Z</time>
<hdop>9.79</hdop>
</trkpt>
<trkpt lat="47.4750804" lon="13.6095107">
<ele>2835.774</ele>
<time>2024-10-30T13:44:20Z</time>
<hdop>11.1</hdop>
</trkpt>
<trkpt lat="47.4750746" lon="13.6095095">
<ele>2831.371</ele>
<time>2024-10-30T13:44:51Z</time>
<hdop>21.02</hdop>
</trkpt>
<trkpt lat="47.4750746" lon="13.6095095">
<ele>2840.31</ele>
<time>2024-10-30T13:45:50Z</time>
<hdop>9.46</hdop>
</trkpt>
<trkpt lat="47.4750932" lon="13.6094945">
<ele>2838.779</ele>
<time>2024-10-30T13:46:49Z</time>
<hdop>5.06</hdop>
</trkpt>
<trkpt lat="47.4750939" lon="13.6094941">
<ele>2837.761</ele>
<time>2024-10-30T13:47:19Z</time>
<hdop>9.38</hdop>
</trkpt>
<trkpt lat="47.4750945" lon="13.6094939">
<ele>2836.689</ele>
<time>2024-10-30T13:47:50Z</time>
<hdop>14.18</hdop>
</trkpt>
<trkpt lat="47.4751004" lon="13.6094907">
<ele>2840.426</ele>
<time>2024-10-30T13:48:49Z</time>
<hdop>7.45</hdop>
</trkpt>
<trkpt lat="47.4751081" lon="13.6094851">
<ele>2840.273</ele>
<time>2024-10-30T13:49:19Z</time>
<hdop>8.07</hdop>
</trkpt>
<trkpt lat="47.4751211" lon="13.6094764">
<ele>2839.116</ele>
<time>2024-10-30T13:49:49Z</time>
<hdop>5.82</hdop>
</trkpt>
<trkpt lat="47.4751336" lon="13.6094616">
<ele>2839.225</ele>
<time>2024-10-30T13:50:19Z</time>
<hdop>4.96</hdop>
</trkpt>
<trkpt lat="47.4754543" lon="13.6092109">
<ele>2840.993</ele>
<time>2024-10-30T13:51:20Z</time>
<hdop>12.82</hdop>
</trkpt>
<trkpt lat="47.4754839" lon="13.609168">
<ele>2854.241</ele>
<time>2024-10-30T13:52:19Z</time>
<hdop>4.69</hdop>
</trkpt>
<trkpt lat="47.4754972" lon="13.6091653">
<ele>2852.882</ele>
<time>2024-10-30T13:52:50Z</time>
<hdop>10.53</hdop>
</trkpt>
<trkpt lat="47.4755101" lon="13.609044">
<ele>2857.052</ele>
<time>2024-10-30T13:53:49Z</time>
<hdop>8.43</hdop>
</trkpt>
<trkpt lat="47.475491" lon="13.6090283">
<ele>2856.827</ele>
<time>2024-10-30T13:54:19Z</time>
<hdop>6.86</hdop>
</trkpt>
<trkpt lat="47.4755025" lon="13.6089579">
<ele>2872.237</ele>
<time>2024-10-30T13:54:50Z</time>
<hdop>7.52</hdop>
</trkpt>
<trkpt lat="47.4754237" lon="13.6088313">
<ele>2869.363</ele>
<time>2024-10-30T13:55:50Z</time>
<hdop>17.83</hdop>
</trkpt>
<trkpt lat="47.4754237" lon="13.6088313">
<ele>2887.171</ele>
<time>2024-10-30T13:56:20Z</time>
<hdop>16.84</hdop>
</trkpt>
<trkpt lat="47.4753969" lon="13.6088507">
<ele>2872.94</ele>
<time>2024-10-30T13:56:50Z</time>
<hdop>13.76</hdop>
</trkpt>
<trkpt lat="47.4752904" lon="13.6088428">
<ele>2882.415</ele>
<time>2024-10-30T13:58:19Z</time>
<hdop>5.44</hdop>
</trkpt>
<trkpt lat="47.4752949" lon="13.6088498">
<ele>2645.678</ele>
<time>2024-10-30T13:58:49Z</time>
<hdop>7.46</hdop>
</trkpt>
<trkpt lat="47.475298" lon="13.6088569">
<ele>2875.646</ele>
<time>2024-10-30T13:59:19Z</time>
<hdop>4.8</hdop>
</trkpt>
<trkpt lat="47.4753015" lon="13.6088575">
<ele>2882.132</ele>
<time>2024-10-30T13:59:49Z</time>
<hdop>5.45</hdop>
</trkpt>
<trkpt lat="47.4753029" lon="13.6088672">
<ele>2884.603</ele>
<time>2024-10-30T14:00:19Z</time>
<hdop>4.28</hdop>
</trkpt>
<trkpt lat="47.4753047" lon="13.6088679">
<ele>2887.447</ele>
<time>2024-10-30T14:00:49Z</time>
<hdop>3.79</hdop>
</trkpt>
<trkpt lat="47.4753051" lon="13.6088691">
<ele>2891.189</ele>
<time>2024-10-30T14:01:19Z</time>
<hdop>9.26</hdop>
</trkpt>
<trkpt lat="47.475303" lon="13.6088687">
<ele>2890.374</ele>
<time>2024-10-30T14:01:51Z</time>
<hdop>21.63</hdop>
</trkpt>
<trkpt lat="47.4752712" lon="13.6088392">
<ele>2874.537</ele>
<time>2024-10-30T14:02:50Z</time>
<hdop>13.83</hdop>
</trkpt>
<trkpt lat="47.4751703" lon="13.6081083">
<ele>2891.852</ele>
<time>2024-10-30T14:03:51Z</time>
<hdop>19.9</hdop>
</trkpt>
<trkpt lat="47.475142" lon="13.6080712">
<ele>2879.174</ele>
<time>2024-10-30T14:04:50Z</time>
<hdop>17.88</hdop>
</trkpt>
<trkpt lat="47.4750737" lon="13.6078389">
<ele>2892.536</ele>
<time>2024-10-30T14:05:20Z</time>
<hdop>15.73</hdop>
</trkpt>
<trkpt lat="47.4751186" lon="13.6076973">
<ele>2890.282</ele>
<time>2024-10-30T14:06:19Z</time>
<hdop>9.53</hdop>
</trkpt>
<trkpt lat="47.4750906" lon="13.6076755">
<ele>2892.346</ele>
<time>2024-10-30T14:06:50Z</time>
<hdop>13.03</hdop>
</trkpt>
<trkpt lat="47.4751297" lon="13.6076504">
<ele>2891.798</ele>
<time>2024-10-30T14:07:21Z</time>
<hdop>24.41</hdop>
</trkpt>
<trkpt lat="47.475123" lon="13.6076238">
<ele>2892.545</ele>
<time>2024-10-30T14:07:51Z</time>
<hdop>26.29</hdop>
</trkpt>
<trkpt lat="47.4751183" lon="13.6075653">
<ele>2901.844</ele>
<time>2024-10-30T14:08:50Z</time>
<hdop>11.19</hdop>
</trkpt>
<trkpt lat="47.4750915" lon="13.6074941">
<ele>2896.928</ele>
<time>2024-10-30T14:09:20Z</time>
<hdop>18.42</hdop>
</trkpt>
<trkpt lat="47.4752721" lon="13.6070845">
<ele>2931.589</ele>
<time>2024-10-30T14:10:50Z</time>
<hdop>16.24</hdop>
</trkpt>
<trkpt lat="47.475338" lon="13.6067602">
<ele>2901.996</ele>
<time>2024-10-30T14:11:50Z</time>
<hdop>13.14</hdop>
</trkpt>
<trkpt lat="47.4753543" lon="13.6066194">
<ele>2903.326</ele>
<time>2024-10-30T14:12:20Z</time>
<hdop>9.39</hdop>
</trkpt>
<trkpt lat="47.4753959" lon="13.6063964">
<ele>2919.709</ele>
<time>2024-10-30T14:14:50Z</time>
<hdop>17.19</hdop>
</trkpt>
<trkpt lat="47.4752519" lon="13.6063931">
<ele>2937.671</ele>
<time>2024-10-30T14:18:50Z</time>
<hdop>9.82</hdop>
</trkpt>
<trkpt lat="47.4752748" lon="13.6062796">
<ele>2943.241</ele>
<time>2024-10-30T14:20:50Z</time>
<hdop>14.7</hdop>
</trkpt>
<trkpt lat="47.4753213" lon="13.6062266">
<ele>2942.767</ele>
<time>2024-10-30T14:21:50Z</time>
<hdop>12.07</hdop>
</trkpt>
<trkpt lat="47.4753374" lon="13.6061499">
<ele>2953.879</ele>
<time>2024-10-30T14:22:20Z</time>
<hdop>8.18</hdop>
</trkpt>
<trkpt lat="47.4752443" lon="13.6058543">
<ele>2984.112</ele>
<time>2024-10-30T14:27:19Z</time>
<hdop>4.09</hdop>
</trkpt>
<trkpt lat="47.4752443" lon="13.6058543">
<ele>2989.224</ele>
<time>2024-10-30T14:27:49Z</time>
<hdop>7.46</hdop>
</trkpt>
<trkpt lat="47.4752263" lon="13.605809">
<ele>2974.771</ele>
<time>2024-10-30T14:28:19Z</time>
<hdop>5.72</hdop>
</trkpt>
<trkpt lat="47.47525" lon="13.6057836">
<ele>2990.883</ele>
<time>2024-10-30T14:28:49Z</time>
<hdop>3.79</hdop>
</trkpt>
<trkpt lat="47.475247" lon="13.6057514">
<ele>2991.159</ele>
<time>2024-10-30T14:29:19Z</time>
<hdop>5.24</hdop>
</trkpt>
<trkpt lat="47.4752381" lon="13.6057271">
<ele>2989.799</ele>
<time>2024-10-30T14:29:49Z</time>
<hdop>4.49</hdop>
</trkpt>
<trkpt lat="47.4752114" lon="13.6057162">
<ele>2948.367</ele>
<time>2024-10-30T14:30:19Z</time>
<hdop>3.79</hdop>
</trkpt>
<trkpt lat="47.4752049" lon="13.6056995">
<ele>2987.911</ele>
<time>2024-10-30T14:30:49Z</time>
<hdop>3.79</hdop>
</trkpt>
<trkpt lat="47.4752001" lon="13.60569">
<ele>2987.528</ele>
<time>2024-10-30T14:31:19Z</time>
<hdop>3.79</hdop>
</trkpt>
<trkpt lat="47.4752001" lon="13.6056891">
<ele>2988.705</ele>
<time>2024-10-30T14:31:49Z</time>
<hdop>5.85</hdop>
</trkpt>
<trkpt lat="47.4751995" lon="13.6056882">
<ele>2798.4</ele>
<time>2024-10-30T14:32:19Z</time>
<hdop>7.61</hdop>
</trkpt>
<trkpt lat="47.4751942" lon="13.6056862">
<ele>2984.131</ele>
<time>2024-10-30T14:32:49Z</time>
<hdop>4.45</hdop>
</trkpt>
<trkpt lat="47.4751891" lon="13.6056819">
<ele>2986.484</ele>
<time>2024-10-30T14:33:19Z</time>
<hdop>4.18</hdop>
</trkpt>
<trkpt lat="47.4751891" lon="13.6056819">
<ele>2991.178</ele>
<time>2024-10-30T14:33:49Z</time>
<hdop>4.79</hdop>
</trkpt>
<trkpt lat="47.4751891" lon="13.6056819">
<ele>2992.606</ele>
<time>2024-10-30T14:34:19Z</time>
<hdop>3.79</hdop>
</trkpt>
<trkpt lat="47.4751929" lon="13.6056879">
<ele>2990.447</ele>
<time>2024-10-30T14:34:49Z</time>
<hdop>7.32</hdop>
</trkpt>
<trkpt lat="47.4752377" lon="13.6058464">
<ele>2984.365</ele>
<time>2024-10-30T14:37:20Z</time>
<hdop>11.12</hdop>
</trkpt>
<trkpt lat="47.4753376" lon="13.6061668">
<ele>2957.388</ele>
<time>2024-10-30T14:37:50Z</time>
<hdop>8.92</hdop>
</trkpt>
<trkpt lat="47.4753332" lon="13.6061623">
<ele>2904.043</ele>
<time>2024-10-30T14:39:22Z</time>
<hdop>40.31</hdop>
</trkpt>
<trkpt lat="47.4753173" lon="13.6061695">
<ele>2913.762</ele>
<time>2024-10-30T14:41:50Z</time>
<hdop>16.4</hdop>
</trkpt>
<trkpt lat="47.475298" lon="13.6061445">
<ele>2927.622</ele>
<time>2024-10-30T14:42:20Z</time>
<hdop>17.45</hdop>
</trkpt>
<trkpt lat="47.4752914" lon="13.6061954">
<ele>2922.409</ele>
<time>2024-10-30T14:42:50Z</time>
<hdop>9.62</hdop>
</trkpt>
<trkpt lat="47.4752581" lon="13.6062821">
<ele>2915.531</ele>
<time>2024-10-30T14:43:49Z</time>
<hdop>9.35</hdop>
</trkpt>
<trkpt lat="47.4752588" lon="13.606391">
<ele>2911.342</ele>
<time>2024-10-30T14:44:20Z</time>
<hdop>8.55</hdop>
</trkpt>
<trkpt lat="47.4753929" lon="13.6063964">
<ele>2902.958</ele>
<time>2024-10-30T14:45:20Z</time>
<hdop>21.14</hdop>
</trkpt>
<trkpt lat="47.4753053" lon="13.6066701">
<ele>2917.083</ele>
<time>2024-10-30T14:45:51Z</time>
<hdop>21.9</hdop>
</trkpt>
<trkpt lat="47.4752354" lon="13.6070612">
<ele>2935.303</ele>
<time>2024-10-30T14:46:49Z</time>
<hdop>8.89</hdop>
</trkpt>
<trkpt lat="47.4751111" lon="13.6070939">
<ele>2919.069</ele>
<time>2024-10-30T14:47:19Z</time>
<hdop>10.09</hdop>
</trkpt>
<trkpt lat="47.4750757" lon="13.6072627">
<ele>2928.407</ele>
<time>2024-10-30T14:47:50Z</time>
<hdop>9.7</hdop>
</trkpt>
<trkpt lat="47.4750893" lon="13.607593">
<ele>2900.047</ele>
<time>2024-10-30T14:50:49Z</time>
<hdop>4.17</hdop>
</trkpt>
<trkpt lat="47.475056" lon="13.6077446">
<ele>2910.18</ele>
<time>2024-10-30T14:51:19Z</time>
<hdop>4.46</hdop>
</trkpt>
<trkpt lat="47.4750953" lon="13.6078144">
<ele>2893.767</ele>
<time>2024-10-30T14:51:50Z</time>
<hdop>9.2</hdop>
</trkpt>
<trkpt lat="47.4751288" lon="13.607995">
<ele>2896.921</ele>
<time>2024-10-30T14:52:50Z</time>
<hdop>11.5</hdop>
</trkpt>
<trkpt lat="47.4750801" lon="13.6080538">
<ele>2890.632</ele>
<time>2024-10-30T14:53:20Z</time>
<hdop>18.28</hdop>
</trkpt>
<trkpt lat="47.4751093" lon="13.6081589">
<ele>2904.093</ele>
<time>2024-10-30T14:54:20Z</time>
<hdop>7.2</hdop>
</trkpt>
<trkpt lat="47.4751204" lon="13.6082838">
<ele>2868.088</ele>
<time>2024-10-30T14:54:50Z</time>
<hdop>17.08</hdop>
</trkpt>
<trkpt lat="47.4751514" lon="13.6083919">
<ele>2892.161</ele>
<time>2024-10-30T14:55:49Z</time>
<hdop>4.87</hdop>
</trkpt>
<trkpt lat="47.4752651" lon="13.6088323">
<ele>2887.151</ele>
<time>2024-10-30T14:56:19Z</time>
<hdop>3.79</hdop>
</trkpt>
<trkpt lat="47.4753165" lon="13.6088147">
<ele>2901.724</ele>
<time>2024-10-30T14:56:49Z</time>
<hdop>4.68</hdop>
</trkpt>
<trkpt lat="47.4752839" lon="13.6088876">
<ele>2878.891</ele>
<time>2024-10-30T14:57:19Z</time>
<hdop>8.96</hdop>
</trkpt>
<trkpt lat="47.4752837" lon="13.6088888">
<ele>2860.373</ele>
<time>2024-10-30T14:57:50Z</time>
<hdop>8.36</hdop>
</trkpt>
<trkpt lat="47.4752966" lon="13.6088931">
<ele>2883.901</ele>
<time>2024-10-30T14:58:49Z</time>
<hdop>3.79</hdop>
</trkpt>
<trkpt lat="47.4752995" lon="13.6088886">
<ele>2882.251</ele>
<time>2024-10-30T14:59:19Z</time>
<hdop>3.79</hdop>
</trkpt>
<trkpt lat="47.4753043" lon="13.6088775">
<ele>2879.476</ele>
<time>2024-10-30T14:59:49Z</time>
<hdop>6.63</hdop>
</trkpt>
<trkpt lat="47.4753156" lon="13.6088605">
<ele>2876.624</ele>
<time>2024-10-30T15:00:19Z</time>
<hdop>5.31</hdop>
</trkpt>
<trkpt lat="47.4753213" lon="13.6088543">
<ele>2874.835</ele>
<time>2024-10-30T15:00:49Z</time>
<hdop>5.38</hdop>
</trkpt>
<trkpt lat="47.4753257" lon="13.6088523">
<ele>2872.617</ele>
<time>2024-10-30T15:01:19Z</time>
<hdop>4.16</hdop>
</trkpt>
<trkpt lat="47.4753319" lon="13.6088558">
<ele>2871.578</ele>
<time>2024-10-30T15:01:49Z</time>
<hdop>7.66</hdop>
</trkpt>
<trkpt lat="47.4754643" lon="13.6092982">
<ele>2836.245</ele>
<time>2024-10-30T15:03:20Z</time>
<hdop>16.49</hdop>
</trkpt>
<trkpt lat="47.4754643" lon="13.6092982">
<ele>2833.871</ele>
<time>2024-10-30T15:04:20Z</time>
<hdop>9.63</hdop>
</trkpt>
<trkpt lat="47.4754643" lon="13.6092982">
<ele>2831.276</ele>
<time>2024-10-30T15:05:19Z</time>
<hdop>8.56</hdop>
</trkpt>
<trkpt lat="47.475621" lon="13.6092029">
<ele>2807.253</ele>
<time>2024-10-30T15:06:20Z</time>
<hdop>9.97</hdop>
</trkpt>
<trkpt lat="47.4756706" lon="13.6092726">
<ele>2810.687</ele>
<time>2024-10-30T15:06:50Z</time>
<hdop>8.07</hdop>
</trkpt>
<trkpt lat="47.4756843" lon="13.6094014">
<ele>2821.489</ele>
<time>2024-10-30T15:07:20Z</time>
<hdop>8.35</hdop>
</trkpt>
<trkpt lat="47.4757096" lon="13.6094227">
<ele>2814.242</ele>
<time>2024-10-30T15:07:50Z</time>
<hdop>7.65</hdop>
</trkpt>
<trkpt lat="47.4756583" lon="13.6095431">
<ele>2796.278</ele>
<time>2024-10-30T15:08:49Z</time>
<hdop>4.61</hdop>
</trkpt>
<trkpt lat="47.4756539" lon="13.6095977">
<ele>2770.89</ele>
<time>2024-10-30T15:09:20Z</time>
<hdop>10.63</hdop>
</trkpt>
<trkpt lat="47.4756609" lon="13.60959">
<ele>2789.976</ele>
<time>2024-10-30T15:10:19Z</time>
<hdop>8.7</hdop>
</trkpt>
<trkpt lat="47.4756712" lon="13.6095694">
<ele>2790.207</ele>
<time>2024-10-30T15:10:49Z</time>
<hdop>9.03</hdop>
</trkpt>
<trkpt lat="47.475668" lon="13.6098183">
<ele>2777.841</ele>
<time>2024-10-30T15:11:19Z</time>
<hdop>5.34</hdop>
</trkpt>
<trkpt lat="47.4757323" lon="13.6099289">
<ele>2773.151</ele>
<time>2024-10-30T15:12:19Z</time>
<hdop>3.96</hdop>
</trkpt>
<trkpt lat="47.4757323" lon="13.6099289">
<ele>2757.012</ele>
<time>2024-10-30T15:12:49Z</time>
<hdop>7.15</hdop>
</trkpt>
<trkpt lat="47.4757323" lon="13.6099289">
<ele>2760.725</ele>
<time>2024-10-30T15:13:19Z</time>
<hdop>10.16</hdop>
</trkpt>
<trkpt lat="47.4757323" lon="13.6099289">
<ele>2768.173</ele>
<time>2024-10-30T15:13:50Z</time>
<hdop>12.76</hdop>
</trkpt>
<trkpt lat="47.4757323" lon="13.6099289">
<ele>2757.899</ele>
<time>2024-10-30T15:14:20Z</time>
<hdop>10.73</hdop>
</trkpt>
<trkpt lat="47.4757323" lon="13.6099289">
<ele>2750.382</ele>
<time>2024-10-30T15:15:19Z</time>
<hdop>5.17</hdop>
</trkpt>
<trkpt lat="47.4757323" lon="13.6099289">
<ele>2748.665</ele>
<time>2024-10-30T15:15:50Z</time>
<hdop>17.91</hdop>
</trkpt>
<trkpt lat="47.4757323" lon="13.6099289">
<ele>2748.534</ele>
<time>2024-10-30T15:16:49Z</time>
<hdop>4.74</hdop>
</trkpt>
<trkpt lat="47.4757323" lon="13.6099289">
<ele>2751.687</ele>
<time>2024-10-30T15:17:19Z</time>
<hdop>6.98</hdop>
</trkpt>
<trkpt lat="47.4757323" lon="13.6099289">
<ele>2749.053</ele>
<time>2024-10-30T15:17:50Z</time>
<hdop>14.26</hdop>
</trkpt>
<trkpt lat="47.4757914" lon="13.6100603">
<ele>2743.33</ele>
<time>2024-10-30T15:18:50Z</time>
<hdop>5.76</hdop>
</trkpt>
<trkpt lat="47.475815" lon="13.6101777">
<ele>2730.815</ele>
<time>2024-10-30T15:20:19Z</time>
<hdop>5.35</hdop>
</trkpt>
<trkpt lat="47.475815" lon="13.6101777">
<ele>2730.388</ele>
<time>2024-10-30T15:20:49Z</time>
<hdop>6.24</hdop>
</trkpt>
<trkpt lat="47.475757" lon="13.6101599">
<ele>2729.482</ele>
<time>2024-10-30T15:21:20Z</time>
<hdop>6.21</hdop>
</trkpt>
<trkpt lat="47.4758437" lon="13.610247">
<ele>2732.928</ele>
<time>2024-10-30T15:21:50Z</time>
<hdop>11.34</hdop>
</trkpt>
<trkpt lat="47.4756531" lon="13.6102973">
<ele>2723.454</ele>
<time>2024-10-30T15:22:49Z</time>
<hdop>4.4</hdop>
</trkpt>
<trkpt lat="47.4753752" lon="13.6103275">
<ele>2707.708</ele>
<time>2024-10-30T15:23:19Z</time>
<hdop>8.93</hdop>
</trkpt>
<trkpt lat="47.4751041" lon="13.6108932">
<ele>2711.207</ele>
<time>2024-10-30T15:23:50Z</time>
<hdop>8.1</hdop>
</trkpt>
<trkpt lat="47.4749785" lon="13.6118783">
<ele>2715.366</ele>
<time>2024-10-30T15:24:49Z</time>
<hdop>5.25</hdop>
</trkpt>
<trkpt lat="47.4752743" lon="13.6120623">
<ele>2705.132</ele>
<time>2024-10-30T15:25:19Z</time>
<hdop>5.79</hdop>
</trkpt>
<trkpt lat="47.4756611" lon="13.6121301">
<ele>2706.837</ele>
<time>2024-10-30T15:25:49Z</time>
<hdop>3.79</hdop>
</trkpt>
<trkpt lat="47.4760751" lon="13.6120917">
<ele>2698.041</ele>
<time>2024-10-30T15:26:19Z</time>
<hdop>4.16</hdop>
</trkpt>
<trkpt lat="47.4762693" lon="13.6124584">
<ele>2700.534</ele>
<time>2024-10-30T15:26:49Z</time>
<hdop>3.79</hdop>
</trkpt>
<trkpt lat="47.4763011" lon="13.6128692">
<ele>2690.543</ele>
<time>2024-10-30T15:27:19Z</time>
<hdop>3.79</hdop>
</trkpt>
<trkpt lat="47.4762477" lon="13.6132809">
<ele>2688.011</ele>
<time>2024-10-30T15:27:49Z</time>
<hdop>3.79</hdop>
</trkpt>
<trkpt lat="47.4760376" lon="13.6135628">
<ele>2684.966</ele>
<time>2024-10-30T15:28:19Z</time>
<hdop>3.79</hdop>
</trkpt>
<trkpt lat="47.4758767" lon="13.6137614">
<ele>2675.072</ele>
<time>2024-10-30T15:28:49Z</time>
<hdop>3.79</hdop>
</trkpt>
<trkpt lat="47.4756092" lon="13.6140505">
<ele>2698.293</ele>
<time>2024-10-30T15:29:19Z</time>
<hdop>4.12</hdop>
</trkpt>
<trkpt lat="47.4753429" lon="13.6142929">
<ele>2647.496</ele>
<time>2024-10-30T15:29:49Z</time>
<hdop>6.86</hdop>
</trkpt>
<trkpt lat="47.4750421" lon="13.614701">
<ele>2779.599</ele>
<time>2024-10-30T15:30:19Z</time>
<hdop>3.79</hdop>
</trkpt>
<trkpt lat="47.4749876" lon="13.6153159">
<ele>2788.985</ele>
<time>2024-10-30T15:30:49Z</time>
<hdop>7.06</hdop>
</trkpt>
<trkpt lat="47.4749566" lon="13.6158808">
<ele>2663.219</ele>
<time>2024-10-30T15:31:19Z</time>
<hdop>4.25</hdop>
</trkpt>
<trkpt lat="47.474878" lon="13.616613">
<ele>2754.906</ele>
<time>2024-10-30T15:31:49Z</time>
<hdop>8.33</hdop>
</trkpt>
<trkpt lat="47.4749181" lon="13.6172783">
<ele>2623.538</ele>
<time>2024-10-30T15:32:19Z</time>
<hdop>8.92</hdop>
</trkpt>
<trkpt lat="47.4749458" lon="13.617937">
<ele>2643.607</ele>
<time>2024-10-30T15:32:49Z</time>
<hdop>10.05</hdop>
</trkpt>
<trkpt lat="47.4749689" lon="13.6185843">
<ele>2737.852</ele>
<time>2024-10-30T15:33:20Z</time>
<hdop>8.89</hdop>
</trkpt>
<trkpt lat="47.4749285" lon="13.6192977">
<ele>2545.442</ele>
<time>2024-10-30T15:33:52Z</time>
<hdop>4.35</hdop>
</trkpt>
<trkpt lat="47.4745246" lon="13.6204009">
<ele>2495.381</ele>
<time>2024-10-30T15:34:52Z</time>
<hdop>29.88</hdop>
</trkpt>
<trkpt lat="47.4741802" lon="13.6204372">
<ele>2550.983</ele>
<time>2024-10-30T15:35:23Z</time>
<hdop>44.59</hdop>
</trkpt>
<trkpt lat="47.4739038" lon="13.6217256">
<ele>2775.726</ele>
<time>2024-10-30T15:36:22Z</time>
<hdop>36.7</hdop>
</trkpt>
<trkpt lat="47.4735226" lon="13.622454">
<ele>2602.58</ele>
<time>2024-10-30T15:37:20Z</time>
<hdop>19.14</hdop>
</trkpt>
<trkpt lat="47.4731998" lon="13.623009">
<ele>2594.124</ele>
<time>2024-10-30T15:37:50Z</time>
<hdop>10.62</hdop>
</trkpt>
<trkpt lat="47.4730368" lon="13.6233533">
<ele>2600.792</ele>
<time>2024-10-30T15:38:20Z</time>
<hdop>16.61</hdop>
</trkpt>
<trkpt lat="47.472707" lon="13.6237397">
<ele>2605.738</ele>
<time>2024-10-30T15:38:50Z</time>
<hdop>8.27</hdop>
</trkpt>
<trkpt lat="47.4725326" lon="13.6238113">
<ele>2613.711</ele>
<time>2024-10-30T15:39:20Z</time>
<hdop>12.25</hdop>
</trkpt>
<trkpt lat="47.4720388" lon="13.6243118">
<ele>2609.3</ele>
<time>2024-10-30T15:40:19Z</time>
<hdop>7.18</hdop>
</trkpt>
<trkpt lat="47.4716807" lon="13.6245154">
<ele>2621.842</ele>
<time>2024-10-30T15:40:49Z</time>
<hdop>9.35</hdop>
</trkpt>
<trkpt lat="47.4713992" lon="13.6245195">
<ele>2616.018</ele>
<time>2024-10-30T15:41:19Z</time>
<hdop>10.49</hdop>
</trkpt>
<trkpt lat="47.4712224" lon="13.624457">
<ele>2609.501</ele>
<time>2024-10-30T15:41:49Z</time>
<hdop>8.39</hdop>
</trkpt>
<trkpt lat="47.4709573" lon="13.6246119">
<ele>2624.691</ele>
<time>2024-10-30T15:42:19Z</time>
<hdop>7.64</hdop>
</trkpt>
<trkpt lat="47.4707059" lon="13.6247714">
<ele>2628.44</ele>
<time>2024-10-30T15:42:49Z</time>
<hdop>7.48</hdop>
</trkpt>
<trkpt lat="47.4704742" lon="13.6250677">
<ele>2604.026</ele>
<time>2024-10-30T15:43:20Z</time>
<hdop>15.3</hdop>
</trkpt>
<trkpt lat="47.4699357" lon="13.6255886">
<ele>2638.302</ele>
<time>2024-10-30T15:44:19Z</time>
<hdop>9.31</hdop>
</trkpt>
<trkpt lat="47.4697203" lon="13.6256621">
<ele>2633.799</ele>
<time>2024-10-30T15:44:49Z</time>
<hdop>6.11</hdop>
</trkpt>
<trkpt lat="47.469542" lon="13.6255841">
<ele>2617.923</ele>
<time>2024-10-30T15:45:19Z</time>
<hdop>8.52</hdop>
</trkpt>
<trkpt lat="47.4692656" lon="13.6257464">
<ele>2651.178</ele>
<time>2024-10-30T15:45:50Z</time>
<hdop>20.28</hdop>
</trkpt>
<trkpt lat="47.4692208" lon="13.6253961">
<ele>2651.284</ele>
<time>2024-10-30T15:46:49Z</time>
<hdop>7.67</hdop>
</trkpt>
<trkpt lat="47.4690209" lon="13.625432">
<ele>2670.347</ele>
<time>2024-10-30T15:47:19Z</time>
<hdop>4.51</hdop>
</trkpt>
<trkpt lat="47.4688639" lon="13.6255702">
<ele>2658.076</ele>
<time>2024-10-30T15:47:50Z</time>
<hdop>12.58</hdop>
</trkpt>
<trkpt lat="47.4686638" lon="13.6258524">
<ele>2678.973</ele>
<time>2024-10-30T15:48:49Z</time>
<hdop>4.12</hdop>
</trkpt>
<trkpt lat="47.4684658" lon="13.6260209">
<ele>2676.797</ele>
<time>2024-10-30T15:49:19Z</time>
<hdop>4.31</hdop>
</trkpt>
<trkpt lat="47.4682619" lon="13.6262975">
<ele>2690.194</ele>
<time>2024-10-30T15:49:49Z</time>
<hdop>4.94</hdop>
</trkpt>
<trkpt lat="47.468163" lon="13.6261388">
<ele>2686.606</ele>
<time>2024-10-30T15:50:19Z</time>
<hdop>3.79</hdop>
</trkpt>
<trkpt lat="47.4680115" lon="13.6261439">
<ele>2689.034</ele>
<time>2024-10-30T15:50:49Z</time>
<hdop>3.79</hdop>
</trkpt>
<trkpt lat="47.4681778" lon="13.6260946">
<ele>2682.614</ele>
<time>2024-10-30T15:51:19Z</time>
<hdop>8.98</hdop>
</trkpt>
<trkpt lat="47.4681351" lon="13.626403">
<ele>2689.612</ele>
<time>2024-10-30T15:51:49Z</time>
<hdop>6.28</hdop>
</trkpt>
</trkseg>
</trk>
</gpx>
