<?xml version="1.0" encoding="UTF-8"?>
<gpx xmlns="http://www.topografix.com/GPX/1/1" version="1.1" creator="AlpineQuest 2.4.0c" xmlns:xsi="http://www.w3.org/2001/XMLSchema-instance" xsi:schemaLocation="http://www.topografix.com/GPX/1/1 http://www.topografix.com/GPX/1/1/gpx.xsd">
<metadata>
<desc>AlpineQuest Track 30.01.25 08:23:35</desc>
<link href="https://www.alpinequest.net" />
<time>2026-01-01T18:42:33Z</time>
</metadata>
<trk>
<name>Ski_Seekoppe</name>
<type>skimo</type>
<trkseg>
<trkpt lat="47.4598395" lon="14.2866095">
<ele>1008.028</ele>
<time>2025-01-30T07:23:35Z</time>
<hdop>9.57</hdop>
</trkpt>
<trkpt lat="47.4597463" lon="14.2865295">
<ele>1015.552</ele>
<time>2025-01-30T07:24:15Z</time>
<hdop>13.52</hdop>
</trkpt>
<trkpt lat="47.4593594" lon="14.2857311">
<ele>1028.208</ele>
<time>2025-01-30T07:25:14Z</time>
<hdop>9.17</hdop>
</trkpt>
<trkpt lat="47.4594251" lon="14.2854314">
<ele>1030.969</ele>
<time>2025-01-30T07:25:44Z</time>
<hdop>5.34</hdop>
</trkpt>
<trkpt lat="47.4594462" lon="14.2852636">
<ele>1027.862</ele>
<time>2025-01-30T07:26:14Z</time>
<hdop>16.16</hdop>
</trkpt>
<trkpt lat="47.4595092" lon="14.2848101">
<ele>1045.292</ele>
<time>2025-01-30T07:26:44Z</time>
<hdop>7.85</hdop>
</trkpt>
<trkpt lat="47.4595224" lon="14.2847199">
<ele>1053.944</ele>
<time>2025-01-30T07:27:14Z</time>
<hdop>12.48</hdop>
</trkpt>
<trkpt lat="47.4594951" lon="14.2844561">
<ele>1039.922</ele>
<time>2025-01-30T07:27:44Z</time>
<hdop>15.73</hdop>
</trkpt>
<trkpt lat="47.4595484" lon="14.2839716">
<ele>1034.437</ele>
<time>2025-01-30T07:28:14Z</time>
<hdop>10.47</hdop>
</trkpt>
<trkpt lat="47.4595486" lon="14.2837738">
<ele>1059.33</ele>
<time>2025-01-30T07:28:45Z</time>
<hdop>6.9</hdop>
</trkpt>
<trkpt lat="47.4594697" lon="14.2832923">
<ele>1075.788</ele>
<time>2025-01-30T07:29:44Z</time>
<hdop>11.63</hdop>
</trkpt>
<trkpt lat="47.4594319" lon="14.283014">
<ele>1077.085</ele>
<time>2025-01-30T07:30:14Z</time>
<hdop>13.81</hdop>
</trkpt>
<trkpt lat="47.4594491" lon="14.282699">
<ele>1084.911</ele>
<time>2025-01-30T07:30:44Z</time>
<hdop>19.34</hdop>
</trkpt>
<trkpt lat="47.4596182" lon="14.2824287">
<ele>1078.974</ele>
<time>2025-01-30T07:31:15Z</time>
<hdop>21.19</hdop>
</trkpt>
<trkpt lat="47.4594299" lon="14.2821584">
<ele>1072.164</ele>
<time>2025-01-30T07:31:45Z</time>
<hdop>10.52</hdop>
</trkpt>
<trkpt lat="47.4594849" lon="14.2820665">
<ele>1090.899</ele>
<time>2025-01-30T07:32:15Z</time>
<hdop>19.51</hdop>
</trkpt>
<trkpt lat="47.4592467" lon="14.2819938">
<ele>1155.185</ele>
<time>2025-01-30T07:32:45Z</time>
<hdop>17.4</hdop>
</trkpt>
<trkpt lat="47.4590106" lon="14.2816541">
<ele>1150.765</ele>
<time>2025-01-30T07:33:44Z</time>
<hdop>15.77</hdop>
</trkpt>
<trkpt lat="47.4591745" lon="14.2816273">
<ele>1128.137</ele>
<time>2025-01-30T07:34:15Z</time>
<hdop>15.41</hdop>
</trkpt>
<trkpt lat="47.4592107" lon="14.2815817">
<ele>1123.705</ele>
<time>2025-01-30T07:35:15Z</time>
<hdop>20.55</hdop>
</trkpt>
<trkpt lat="47.4588731" lon="14.28113">
<ele>1127.617</ele>
<time>2025-01-30T07:36:14Z</time>
<hdop>10.6</hdop>
</trkpt>
<trkpt lat="47.4588825" lon="14.2807947">
<ele>1143.302</ele>
<time>2025-01-30T07:36:44Z</time>
<hdop>16.72</hdop>
</trkpt>
<trkpt lat="47.4589975" lon="14.2808271">
<ele>1148.645</ele>
<time>2025-01-30T07:37:14Z</time>
<hdop>10.07</hdop>
</trkpt>
<trkpt lat="47.4590295" lon="14.2806005">
<ele>1135.462</ele>
<time>2025-01-30T07:37:44Z</time>
<hdop>14.84</hdop>
</trkpt>
<trkpt lat="47.4595695" lon="14.2802254">
<ele>1109.202</ele>
<time>2025-01-30T07:38:14Z</time>
<hdop>18.83</hdop>
</trkpt>
<trkpt lat="47.4593359" lon="14.2799652">
<ele>1124.101</ele>
<time>2025-01-30T07:38:45Z</time>
<hdop>17.89</hdop>
</trkpt>
<trkpt lat="47.4597555" lon="14.2791217">
<ele>1097.762</ele>
<time>2025-01-30T07:39:45Z</time>
<hdop>25.54</hdop>
</trkpt>
<trkpt lat="47.4594805" lon="14.2798324">
<ele>1156.597</ele>
<time>2025-01-30T07:40:15Z</time>
<hdop>26.18</hdop>
</trkpt>
<trkpt lat="47.4592634" lon="14.2796697">
<ele>1160.612</ele>
<time>2025-01-30T07:40:45Z</time>
<hdop>11.65</hdop>
</trkpt>
<trkpt lat="47.4589912" lon="14.2797303">
<ele>1180.315</ele>
<time>2025-01-30T07:41:15Z</time>
<hdop>23.65</hdop>
</trkpt>
<trkpt lat="47.4589452" lon="14.2798309">
<ele>1180.683</ele>
<time>2025-01-30T07:41:45Z</time>
<hdop>11.26</hdop>
</trkpt>
<trkpt lat="47.458621" lon="14.2794727">
<ele>1178.782</ele>
<time>2025-01-30T07:42:44Z</time>
<hdop>9.5</hdop>
</trkpt>
<trkpt lat="47.4582585" lon="14.2797486">
<ele>1211.794</ele>
<time>2025-01-30T07:43:15Z</time>
<hdop>11.08</hdop>
</trkpt>
<trkpt lat="47.4575729" lon="14.2791418">
<ele>1218.75</ele>
<time>2025-01-30T07:44:14Z</time>
<hdop>21.35</hdop>
</trkpt>
<trkpt lat="47.4575635" lon="14.2788024">
<ele>1172.08</ele>
<time>2025-01-30T07:44:44Z</time>
<hdop>14.11</hdop>
</trkpt>
<trkpt lat="47.4573791" lon="14.2784856">
<ele>1194.871</ele>
<time>2025-01-30T07:45:14Z</time>
<hdop>13.09</hdop>
</trkpt>
<trkpt lat="47.4572052" lon="14.2780602">
<ele>1197.218</ele>
<time>2025-01-30T07:45:44Z</time>
<hdop>7.46</hdop>
</trkpt>
<trkpt lat="47.457291" lon="14.2777525">
<ele>1206.654</ele>
<time>2025-01-30T07:46:14Z</time>
<hdop>8.84</hdop>
</trkpt>
<trkpt lat="47.4570297" lon="14.2772896">
<ele>1214.041</ele>
<time>2025-01-30T07:46:44Z</time>
<hdop>12.63</hdop>
</trkpt>
<trkpt lat="47.457114" lon="14.2771693">
<ele>1227.288</ele>
<time>2025-01-30T07:47:14Z</time>
<hdop>14.84</hdop>
</trkpt>
<trkpt lat="47.4571539" lon="14.2767252">
<ele>1145.444</ele>
<time>2025-01-30T07:47:44Z</time>
<hdop>10.32</hdop>
</trkpt>
<trkpt lat="47.4569994" lon="14.2765464">
<ele>1199.918</ele>
<time>2025-01-30T07:48:14Z</time>
<hdop>12.57</hdop>
</trkpt>
<trkpt lat="47.4567484" lon="14.2762001">
<ele>1211.798</ele>
<time>2025-01-30T07:48:44Z</time>
<hdop>13.19</hdop>
</trkpt>
<trkpt lat="47.4569437" lon="14.2759457">
<ele>1227.738</ele>
<time>2025-01-30T07:49:14Z</time>
<hdop>10.26</hdop>
</trkpt>
<trkpt lat="47.4566106" lon="14.2756083">
<ele>1234.529</ele>
<time>2025-01-30T07:49:44Z</time>
<hdop>19.77</hdop>
</trkpt>
<trkpt lat="47.4568255" lon="14.2757445">
<ele>1260.128</ele>
<time>2025-01-30T07:50:14Z</time>
<hdop>10.64</hdop>
</trkpt>
<trkpt lat="47.4570855" lon="14.2753029">
<ele>1205.136</ele>
<time>2025-01-30T07:50:44Z</time>
<hdop>9.67</hdop>
</trkpt>
<trkpt lat="47.4567652" lon="14.2752057">
<ele>1260.871</ele>
<time>2025-01-30T07:51:14Z</time>
<hdop>11.53</hdop>
</trkpt>
<trkpt lat="47.4566659" lon="14.2750829">
<ele>1274.805</ele>
<time>2025-01-30T07:51:44Z</time>
<hdop>16.09</hdop>
</trkpt>
<trkpt lat="47.4568975" lon="14.2745693">
<ele>1206.035</ele>
<time>2025-01-30T07:52:44Z</time>
<hdop>7.9</hdop>
</trkpt>
<trkpt lat="47.4568975" lon="14.2745693">
<ele>1230.501</ele>
<time>2025-01-30T07:53:14Z</time>
<hdop>9.29</hdop>
</trkpt>
<trkpt lat="47.456853" lon="14.2745707">
<ele>1219.648</ele>
<time>2025-01-30T07:53:44Z</time>
<hdop>15.88</hdop>
</trkpt>
<trkpt lat="47.4567572" lon="14.2739849">
<ele>1241.126</ele>
<time>2025-01-30T07:54:14Z</time>
<hdop>11.34</hdop>
</trkpt>
<trkpt lat="47.4565156" lon="14.2739154">
<ele>1314.351</ele>
<time>2025-01-30T07:54:44Z</time>
<hdop>18.54</hdop>
</trkpt>
<trkpt lat="47.4564051" lon="14.2736226">
<ele>1287.41</ele>
<time>2025-01-30T07:55:14Z</time>
<hdop>12.57</hdop>
</trkpt>
<trkpt lat="47.4561536" lon="14.2734028">
<ele>1299.385</ele>
<time>2025-01-30T07:55:44Z</time>
<hdop>10.04</hdop>
</trkpt>
<trkpt lat="47.455989" lon="14.273114">
<ele>1343.484</ele>
<time>2025-01-30T07:56:15Z</time>
<hdop>24.72</hdop>
</trkpt>
<trkpt lat="47.455745" lon="14.2721092">
<ele>1277.679</ele>
<time>2025-01-30T07:57:14Z</time>
<hdop>13.47</hdop>
</trkpt>
<trkpt lat="47.4558347" lon="14.2718374">
<ele>1237.043</ele>
<time>2025-01-30T07:57:44Z</time>
<hdop>10.19</hdop>
</trkpt>
<trkpt lat="47.4558856" lon="14.2716782">
<ele>1290.941</ele>
<time>2025-01-30T07:58:14Z</time>
<hdop>15.25</hdop>
</trkpt>
<trkpt lat="47.4559764" lon="14.2714261">
<ele>1266.698</ele>
<time>2025-01-30T07:58:44Z</time>
<hdop>11.2</hdop>
</trkpt>
<trkpt lat="47.4556747" lon="14.2714135">
<ele>1282.694</ele>
<time>2025-01-30T07:59:14Z</time>
<hdop>10.02</hdop>
</trkpt>
<trkpt lat="47.4556096" lon="14.2712046">
<ele>1292.97</ele>
<time>2025-01-30T07:59:44Z</time>
<hdop>4.69</hdop>
</trkpt>
<trkpt lat="47.4554452" lon="14.2707389">
<ele>1270.095</ele>
<time>2025-01-30T08:00:14Z</time>
<hdop>11.49</hdop>
</trkpt>
<trkpt lat="47.4553923" lon="14.2702901">
<ele>1301.901</ele>
<time>2025-01-30T08:00:44Z</time>
<hdop>11.88</hdop>
</trkpt>
<trkpt lat="47.4553251" lon="14.2699513">
<ele>1300.899</ele>
<time>2025-01-30T08:01:14Z</time>
<hdop>5.18</hdop>
</trkpt>
<trkpt lat="47.4552713" lon="14.2697011">
<ele>1313.177</ele>
<time>2025-01-30T08:01:44Z</time>
<hdop>14.18</hdop>
</trkpt>
<trkpt lat="47.4550381" lon="14.2694381">
<ele>1336.897</ele>
<time>2025-01-30T08:02:14Z</time>
<hdop>14.23</hdop>
</trkpt>
<trkpt lat="47.4548795" lon="14.269255">
<ele>1304.66</ele>
<time>2025-01-30T08:02:44Z</time>
<hdop>11.07</hdop>
</trkpt>
<trkpt lat="47.455154" lon="14.2687586">
<ele>1295.412</ele>
<time>2025-01-30T08:03:15Z</time>
<hdop>18.69</hdop>
</trkpt>
<trkpt lat="47.4547623" lon="14.2685829">
<ele>1346.827</ele>
<time>2025-01-30T08:04:14Z</time>
<hdop>16.68</hdop>
</trkpt>
<trkpt lat="47.4545722" lon="14.2683283">
<ele>1356.872</ele>
<time>2025-01-30T08:04:44Z</time>
<hdop>14.48</hdop>
</trkpt>
<trkpt lat="47.4542876" lon="14.2679542">
<ele>1318.6</ele>
<time>2025-01-30T08:05:14Z</time>
<hdop>8.61</hdop>
</trkpt>
<trkpt lat="47.4543184" lon="14.2678399">
<ele>1333.05</ele>
<time>2025-01-30T08:05:44Z</time>
<hdop>5.95</hdop>
</trkpt>
<trkpt lat="47.4543302" lon="14.2675653">
<ele>1337.419</ele>
<time>2025-01-30T08:06:17Z</time>
<hdop>9.34</hdop>
</trkpt>
<trkpt lat="47.4542598" lon="14.2673421">
<ele>1357.712</ele>
<time>2025-01-30T08:06:47Z</time>
<hdop>11.19</hdop>
</trkpt>
<trkpt lat="47.4540322" lon="14.2671242">
<ele>1330.331</ele>
<time>2025-01-30T08:07:18Z</time>
<hdop>16.86</hdop>
</trkpt>
<trkpt lat="47.4538931" lon="14.267139">
<ele>1390.489</ele>
<time>2025-01-30T08:07:48Z</time>
<hdop>20.62</hdop>
</trkpt>
<trkpt lat="47.4538444" lon="14.2669648">
<ele>1371.715</ele>
<time>2025-01-30T08:08:19Z</time>
<hdop>16.11</hdop>
</trkpt>
<trkpt lat="47.4535933" lon="14.2665323">
<ele>1375.843</ele>
<time>2025-01-30T08:09:18Z</time>
<hdop>15.07</hdop>
</trkpt>
<trkpt lat="47.4533019" lon="14.2659464">
<ele>1367.506</ele>
<time>2025-01-30T08:09:48Z</time>
<hdop>7.41</hdop>
</trkpt>
<trkpt lat="47.4532238" lon="14.26551">
<ele>1374.509</ele>
<time>2025-01-30T08:10:48Z</time>
<hdop>8.06</hdop>
</trkpt>
<trkpt lat="47.4530306" lon="14.2652529">
<ele>1362.488</ele>
<time>2025-01-30T08:11:19Z</time>
<hdop>14.22</hdop>
</trkpt>
<trkpt lat="47.4526864" lon="14.2651567">
<ele>1388.024</ele>
<time>2025-01-30T08:12:18Z</time>
<hdop>7.16</hdop>
</trkpt>
<trkpt lat="47.4526697" lon="14.264824">
<ele>1406.2</ele>
<time>2025-01-30T08:12:48Z</time>
<hdop>9.46</hdop>
</trkpt>
<trkpt lat="47.4525384" lon="14.2645331">
<ele>1382.636</ele>
<time>2025-01-30T08:13:18Z</time>
<hdop>17.5</hdop>
</trkpt>
<trkpt lat="47.4522501" lon="14.2643532">
<ele>1355.342</ele>
<time>2025-01-30T08:13:48Z</time>
<hdop>6.88</hdop>
</trkpt>
<trkpt lat="47.4521084" lon="14.2642893">
<ele>1441.733</ele>
<time>2025-01-30T08:14:18Z</time>
<hdop>11.97</hdop>
</trkpt>
<trkpt lat="47.4520563" lon="14.2641246">
<ele>1422.948</ele>
<time>2025-01-30T08:14:48Z</time>
<hdop>11.49</hdop>
</trkpt>
<trkpt lat="47.4519236" lon="14.2639801">
<ele>1407.61</ele>
<time>2025-01-30T08:15:18Z</time>
<hdop>11.79</hdop>
</trkpt>
<trkpt lat="47.4517959" lon="14.2637043">
<ele>1454.72</ele>
<time>2025-01-30T08:15:48Z</time>
<hdop>7.97</hdop>
</trkpt>
<trkpt lat="47.4516603" lon="14.2636978">
<ele>1410.913</ele>
<time>2025-01-30T08:16:18Z</time>
<hdop>7.5</hdop>
</trkpt>
<trkpt lat="47.4515593" lon="14.2632456">
<ele>1391.383</ele>
<time>2025-01-30T08:16:49Z</time>
<hdop>16.77</hdop>
</trkpt>
<trkpt lat="47.4516572" lon="14.2631955">
<ele>1405.978</ele>
<time>2025-01-30T08:17:19Z</time>
<hdop>11.81</hdop>
</trkpt>
<trkpt lat="47.4514876" lon="14.2628656">
<ele>1394.419</ele>
<time>2025-01-30T08:17:49Z</time>
<hdop>10.64</hdop>
</trkpt>
<trkpt lat="47.4519107" lon="14.2631595">
<ele>1371.51</ele>
<time>2025-01-30T08:18:19Z</time>
<hdop>28.26</hdop>
</trkpt>
<trkpt lat="47.4514331" lon="14.2625236">
<ele>1443.066</ele>
<time>2025-01-30T08:18:49Z</time>
<hdop>10.7</hdop>
</trkpt>
<trkpt lat="47.4513122" lon="14.2623283">
<ele>1449.054</ele>
<time>2025-01-30T08:19:19Z</time>
<hdop>10.02</hdop>
</trkpt>
<trkpt lat="47.4513632" lon="14.2620447">
<ele>1436.344</ele>
<time>2025-01-30T08:20:19Z</time>
<hdop>16.02</hdop>
</trkpt>
<trkpt lat="47.4512358" lon="14.2612174">
<ele>1496.773</ele>
<time>2025-01-30T08:21:19Z</time>
<hdop>9.9</hdop>
</trkpt>
<trkpt lat="47.4511363" lon="14.2612092">
<ele>1479.762</ele>
<time>2025-01-30T08:22:18Z</time>
<hdop>16.46</hdop>
</trkpt>
<trkpt lat="47.4511026" lon="14.2611897">
<ele>1476.196</ele>
<time>2025-01-30T08:22:48Z</time>
<hdop>7.77</hdop>
</trkpt>
<trkpt lat="47.4507015" lon="14.2612142">
<ele>1498.269</ele>
<time>2025-01-30T08:23:19Z</time>
<hdop>16.83</hdop>
</trkpt>
<trkpt lat="47.4507206" lon="14.2608869">
<ele>1456.926</ele>
<time>2025-01-30T08:23:49Z</time>
<hdop>19.93</hdop>
</trkpt>
<trkpt lat="47.4505581" lon="14.2610344">
<ele>1502.603</ele>
<time>2025-01-30T08:24:19Z</time>
<hdop>20.97</hdop>
</trkpt>
<trkpt lat="47.4501569" lon="14.2608303">
<ele>1478.207</ele>
<time>2025-01-30T08:25:18Z</time>
<hdop>10.92</hdop>
</trkpt>
<trkpt lat="47.4504094" lon="14.2608249">
<ele>1538.529</ele>
<time>2025-01-30T08:25:49Z</time>
<hdop>8.97</hdop>
</trkpt>
<trkpt lat="47.4506294" lon="14.2605965">
<ele>1476.68</ele>
<time>2025-01-30T08:26:19Z</time>
<hdop>13.04</hdop>
</trkpt>
<trkpt lat="47.4506861" lon="14.2601024">
<ele>1512.81</ele>
<time>2025-01-30T08:26:49Z</time>
<hdop>13.9</hdop>
</trkpt>
<trkpt lat="47.4503559" lon="14.2603948">
<ele>1514.705</ele>
<time>2025-01-30T08:27:19Z</time>
<hdop>7.77</hdop>
</trkpt>
<trkpt lat="47.4501724" lon="14.2603285">
<ele>1507.564</ele>
<time>2025-01-30T08:27:49Z</time>
<hdop>7.89</hdop>
</trkpt>
<trkpt lat="47.4499607" lon="14.2601357">
<ele>1500.152</ele>
<time>2025-01-30T08:28:19Z</time>
<hdop>11.42</hdop>
</trkpt>
<trkpt lat="47.4499718" lon="14.2599296">
<ele>1498.726</ele>
<time>2025-01-30T08:28:50Z</time>
<hdop>19.95</hdop>
</trkpt>
<trkpt lat="47.4498096" lon="14.2596566">
<ele>1464.904</ele>
<time>2025-01-30T08:29:48Z</time>
<hdop>18.15</hdop>
</trkpt>
<trkpt lat="47.449818" lon="14.2594353">
<ele>1502.487</ele>
<time>2025-01-30T08:30:18Z</time>
<hdop>8.36</hdop>
</trkpt>
<trkpt lat="47.4495853" lon="14.2585743">
<ele>1485.318</ele>
<time>2025-01-30T08:31:19Z</time>
<hdop>16.62</hdop>
</trkpt>
<trkpt lat="47.449149" lon="14.2588396">
<ele>1559.387</ele>
<time>2025-01-30T08:32:19Z</time>
<hdop>12.52</hdop>
</trkpt>
<trkpt lat="47.4491007" lon="14.2585847">
<ele>1559.321</ele>
<time>2025-01-30T08:32:49Z</time>
<hdop>6.83</hdop>
</trkpt>
<trkpt lat="47.4487732" lon="14.2583576">
<ele>1590.916</ele>
<time>2025-01-30T08:33:49Z</time>
<hdop>8.5</hdop>
</trkpt>
<trkpt lat="47.448258" lon="14.2583508">
<ele>1519.276</ele>
<time>2025-01-30T08:34:47Z</time>
<hdop>7.62</hdop>
</trkpt>
<trkpt lat="47.4479422" lon="14.2583645">
<ele>1566.842</ele>
<time>2025-01-30T08:35:18Z</time>
<hdop>3.79</hdop>
</trkpt>
<trkpt lat="47.4477296" lon="14.2583276">
<ele>1566.418</ele>
<time>2025-01-30T08:35:48Z</time>
<hdop>3.79</hdop>
</trkpt>
<trkpt lat="47.4476113" lon="14.2582772">
<ele>1568.549</ele>
<time>2025-01-30T08:36:18Z</time>
<hdop>3.79</hdop>
</trkpt>
<trkpt lat="47.4474607" lon="14.2582812">
<ele>1574.509</ele>
<time>2025-01-30T08:36:48Z</time>
<hdop>3.79</hdop>
</trkpt>
<trkpt lat="47.4472999" lon="14.2582772">
<ele>1576.414</ele>
<time>2025-01-30T08:37:18Z</time>
<hdop>4.2</hdop>
</trkpt>
<trkpt lat="47.4472271" lon="14.2582682">
<ele>1576.303</ele>
<time>2025-01-30T08:37:48Z</time>
<hdop>5.0</hdop>
</trkpt>
<trkpt lat="47.4471468" lon="14.2582437">
<ele>1578.87</ele>
<time>2025-01-30T08:38:18Z</time>
<hdop>4.41</hdop>
</trkpt>
<trkpt lat="47.4468582" lon="14.2582209">
<ele>1576.691</ele>
<time>2025-01-30T08:38:48Z</time>
<hdop>4.12</hdop>
</trkpt>
<trkpt lat="47.4465526" lon="14.2583386">
<ele>1571.745</ele>
<time>2025-01-30T08:39:18Z</time>
<hdop>4.1</hdop>
</trkpt>
<trkpt lat="47.4463089" lon="14.2584976">
<ele>1570.887</ele>
<time>2025-01-30T08:39:48Z</time>
<hdop>4.34</hdop>
</trkpt>
<trkpt lat="47.446001" lon="14.2587527">
<ele>1589.551</ele>
<time>2025-01-30T08:40:20Z</time>
<hdop>9.49</hdop>
</trkpt>
<trkpt lat="47.4459162" lon="14.2587563">
<ele>1580.344</ele>
<time>2025-01-30T08:40:50Z</time>
<hdop>15.62</hdop>
</trkpt>
<trkpt lat="47.4458" lon="14.2586986">
<ele>1583.527</ele>
<time>2025-01-30T08:41:20Z</time>
<hdop>10.93</hdop>
</trkpt>
<trkpt lat="47.4454463" lon="14.2584306">
<ele>1574.191</ele>
<time>2025-01-30T08:42:19Z</time>
<hdop>8.89</hdop>
</trkpt>
<trkpt lat="47.4453474" lon="14.2583633">
<ele>1604.802</ele>
<time>2025-01-30T08:42:49Z</time>
<hdop>8.22</hdop>
</trkpt>
<trkpt lat="47.4451252" lon="14.2584251">
<ele>1617.49</ele>
<time>2025-01-30T08:43:21Z</time>
<hdop>21.17</hdop>
</trkpt>
<trkpt lat="47.4447771" lon="14.2582402">
<ele>1618.917</ele>
<time>2025-01-30T08:44:21Z</time>
<hdop>15.66</hdop>
</trkpt>
<trkpt lat="47.4444292" lon="14.2581426">
<ele>1619.932</ele>
<time>2025-01-30T08:45:17Z</time>
<hdop>6.53</hdop>
</trkpt>
<trkpt lat="47.4443604" lon="14.2579965">
<ele>1643.214</ele>
<time>2025-01-30T08:45:47Z</time>
<hdop>7.47</hdop>
</trkpt>
<trkpt lat="47.4442079" lon="14.2577877">
<ele>1613.405</ele>
<time>2025-01-30T08:46:17Z</time>
<hdop>8.9</hdop>
</trkpt>
<trkpt lat="47.4442079" lon="14.2577877">
<ele>1630.624</ele>
<time>2025-01-30T08:46:47Z</time>
<hdop>6.06</hdop>
</trkpt>
<trkpt lat="47.4441776" lon="14.2578633">
<ele>1621.722</ele>
<time>2025-01-30T08:47:17Z</time>
<hdop>9.62</hdop>
</trkpt>
<trkpt lat="47.4438579" lon="14.258206">
<ele>1656.153</ele>
<time>2025-01-30T08:47:47Z</time>
<hdop>7.61</hdop>
</trkpt>
<trkpt lat="47.4437512" lon="14.2579925">
<ele>1647.547</ele>
<time>2025-01-30T08:48:17Z</time>
<hdop>10.36</hdop>
</trkpt>
<trkpt lat="47.4435101" lon="14.2581137">
<ele>1666.876</ele>
<time>2025-01-30T08:48:47Z</time>
<hdop>5.82</hdop>
</trkpt>
<trkpt lat="47.4433755" lon="14.2578518">
<ele>1662.817</ele>
<time>2025-01-30T08:49:17Z</time>
<hdop>5.76</hdop>
</trkpt>
<trkpt lat="47.4431221" lon="14.2576855">
<ele>1640.366</ele>
<time>2025-01-30T08:49:47Z</time>
<hdop>7.23</hdop>
</trkpt>
<trkpt lat="47.4427058" lon="14.2576428">
<ele>1657.835</ele>
<time>2025-01-30T08:50:17Z</time>
<hdop>6.63</hdop>
</trkpt>
<trkpt lat="47.4425119" lon="14.2574354">
<ele>1630.198</ele>
<time>2025-01-30T08:50:47Z</time>
<hdop>4.65</hdop>
</trkpt>
<trkpt lat="47.4422655" lon="14.2574183">
<ele>1661.806</ele>
<time>2025-01-30T08:51:17Z</time>
<hdop>6.21</hdop>
</trkpt>
<trkpt lat="47.4420359" lon="14.2574644">
<ele>1659.034</ele>
<time>2025-01-30T08:51:47Z</time>
<hdop>6.03</hdop>
</trkpt>
<trkpt lat="47.4419118" lon="14.2572972">
<ele>1674.666</ele>
<time>2025-01-30T08:52:17Z</time>
<hdop>4.9</hdop>
</trkpt>
<trkpt lat="47.4416972" lon="14.2572957">
<ele>1672.395</ele>
<time>2025-01-30T08:52:48Z</time>
<hdop>6.21</hdop>
</trkpt>
<trkpt lat="47.4413249" lon="14.2573831">
<ele>1673.358</ele>
<time>2025-01-30T08:53:47Z</time>
<hdop>8.35</hdop>
</trkpt>
<trkpt lat="47.4410911" lon="14.25779">
<ele>1688.847</ele>
<time>2025-01-30T08:54:17Z</time>
<hdop>8.35</hdop>
</trkpt>
<trkpt lat="47.4407363" lon="14.2580948">
<ele>1692.253</ele>
<time>2025-01-30T08:54:48Z</time>
<hdop>15.95</hdop>
</trkpt>
<trkpt lat="47.4410069" lon="14.2580163">
<ele>1714.577</ele>
<time>2025-01-30T08:55:48Z</time>
<hdop>13.45</hdop>
</trkpt>
<trkpt lat="47.4409048" lon="14.2578905">
<ele>1682.051</ele>
<time>2025-01-30T08:56:47Z</time>
<hdop>4.82</hdop>
</trkpt>
<trkpt lat="47.440848" lon="14.2579393">
<ele>1700.634</ele>
<time>2025-01-30T08:57:17Z</time>
<hdop>5.16</hdop>
</trkpt>
<trkpt lat="47.4408165" lon="14.2579341">
<ele>1711.492</ele>
<time>2025-01-30T08:57:47Z</time>
<hdop>6.58</hdop>
</trkpt>
<trkpt lat="47.4405835" lon="14.257765">
<ele>1713.563</ele>
<time>2025-01-30T08:58:17Z</time>
<hdop>4.29</hdop>
</trkpt>
<trkpt lat="47.4404374" lon="14.2577205">
<ele>1690.964</ele>
<time>2025-01-30T08:58:47Z</time>
<hdop>6.2</hdop>
</trkpt>
<trkpt lat="47.440417" lon="14.2577809">
<ele>1704.063</ele>
<time>2025-01-30T08:59:17Z</time>
<hdop>5.34</hdop>
</trkpt>
<trkpt lat="47.4402502" lon="14.257797">
<ele>1723.821</ele>
<time>2025-01-30T08:59:47Z</time>
<hdop>4.15</hdop>
</trkpt>
<trkpt lat="47.4402326" lon="14.2578438">
<ele>1718.598</ele>
<time>2025-01-30T09:00:18Z</time>
<hdop>8.48</hdop>
</trkpt>
<trkpt lat="47.4403573" lon="14.2582347">
<ele>1742.226</ele>
<time>2025-01-30T09:01:19Z</time>
<hdop>17.71</hdop>
</trkpt>
<trkpt lat="47.439978" lon="14.2584615">
<ele>1742.927</ele>
<time>2025-01-30T09:02:18Z</time>
<hdop>8.44</hdop>
</trkpt>
<trkpt lat="47.4397506" lon="14.25855">
<ele>1750.278</ele>
<time>2025-01-30T09:03:18Z</time>
<hdop>9.34</hdop>
</trkpt>
<trkpt lat="47.439481" lon="14.2586289">
<ele>1754.227</ele>
<time>2025-01-30T09:04:17Z</time>
<hdop>5.7</hdop>
</trkpt>
<trkpt lat="47.4393111" lon="14.2586226">
<ele>1771.547</ele>
<time>2025-01-30T09:04:47Z</time>
<hdop>6.82</hdop>
</trkpt>
<trkpt lat="47.4391878" lon="14.2586196">
<ele>1777.822</ele>
<time>2025-01-30T09:05:17Z</time>
<hdop>4.87</hdop>
</trkpt>
<trkpt lat="47.4391458" lon="14.2583388">
<ele>1728.517</ele>
<time>2025-01-30T09:05:47Z</time>
<hdop>4.68</hdop>
</trkpt>
<trkpt lat="47.4389131" lon="14.2584619">
<ele>1763.206</ele>
<time>2025-01-30T09:06:18Z</time>
<hdop>8.93</hdop>
</trkpt>
<trkpt lat="47.4390488" lon="14.2583525">
<ele>1614.192</ele>
<time>2025-01-30T09:06:48Z</time>
<hdop>17.34</hdop>
</trkpt>
<trkpt lat="47.4388868" lon="14.2585573">
<ele>1755.527</ele>
<time>2025-01-30T09:07:18Z</time>
<hdop>11.14</hdop>
</trkpt>
<trkpt lat="47.4386606" lon="14.2583277">
<ele>1764.113</ele>
<time>2025-01-30T09:08:17Z</time>
<hdop>8.35</hdop>
</trkpt>
<trkpt lat="47.4384781" lon="14.2582856">
<ele>1738.204</ele>
<time>2025-01-30T09:08:47Z</time>
<hdop>6.89</hdop>
</trkpt>
<trkpt lat="47.4384317" lon="14.2580784">
<ele>1774.387</ele>
<time>2025-01-30T09:09:17Z</time>
<hdop>8.13</hdop>
</trkpt>
<trkpt lat="47.4383724" lon="14.258078">
<ele>1776.477</ele>
<time>2025-01-30T09:09:47Z</time>
<hdop>7.94</hdop>
</trkpt>
<trkpt lat="47.4383441" lon="14.2578012">
<ele>1802.966</ele>
<time>2025-01-30T09:10:18Z</time>
<hdop>8.23</hdop>
</trkpt>
<trkpt lat="47.4383785" lon="14.2576442">
<ele>1803.177</ele>
<time>2025-01-30T09:10:48Z</time>
<hdop>15.01</hdop>
</trkpt>
<trkpt lat="47.4383976" lon="14.2573645">
<ele>1804.81</ele>
<time>2025-01-30T09:11:47Z</time>
<hdop>7.0</hdop>
</trkpt>
<trkpt lat="47.438289" lon="14.257236">
<ele>1814.426</ele>
<time>2025-01-30T09:12:18Z</time>
<hdop>6.45</hdop>
</trkpt>
<trkpt lat="47.4381084" lon="14.2573643">
<ele>1835.365</ele>
<time>2025-01-30T09:12:48Z</time>
<hdop>11.06</hdop>
</trkpt>
<trkpt lat="47.4381084" lon="14.2573643">
<ele>1850.907</ele>
<time>2025-01-30T09:13:18Z</time>
<hdop>13.47</hdop>
</trkpt>
<trkpt lat="47.4381571" lon="14.2573927">
<ele>1838.019</ele>
<time>2025-01-30T09:13:48Z</time>
<hdop>5.74</hdop>
</trkpt>
<trkpt lat="47.4379064" lon="14.2575465">
<ele>1834.662</ele>
<time>2025-01-30T09:14:48Z</time>
<hdop>9.28</hdop>
</trkpt>
<trkpt lat="47.437847" lon="14.2577328">
<ele>1838.616</ele>
<time>2025-01-30T09:15:47Z</time>
<hdop>10.15</hdop>
</trkpt>
<trkpt lat="47.4375643" lon="14.2577889">
<ele>1866.261</ele>
<time>2025-01-30T09:17:18Z</time>
<hdop>7.72</hdop>
</trkpt>
<trkpt lat="47.4375279" lon="14.2577045">
<ele>1872.056</ele>
<time>2025-01-30T09:17:48Z</time>
<hdop>9.11</hdop>
</trkpt>
<trkpt lat="47.4373708" lon="14.2578435">
<ele>1879.654</ele>
<time>2025-01-30T09:18:48Z</time>
<hdop>7.82</hdop>
</trkpt>
<trkpt lat="47.4373198" lon="14.2577179">
<ele>1847.179</ele>
<time>2025-01-30T09:19:18Z</time>
<hdop>15.06</hdop>
</trkpt>
<trkpt lat="47.4371085" lon="14.2577285">
<ele>1871.294</ele>
<time>2025-01-30T09:19:48Z</time>
<hdop>11.54</hdop>
</trkpt>
<trkpt lat="47.4370104" lon="14.2577667">
<ele>1893.888</ele>
<time>2025-01-30T09:20:18Z</time>
<hdop>9.25</hdop>
</trkpt>
<trkpt lat="47.4369662" lon="14.2579126">
<ele>1897.482</ele>
<time>2025-01-30T09:20:48Z</time>
<hdop>5.92</hdop>
</trkpt>
<trkpt lat="47.4368502" lon="14.2582428">
<ele>1887.388</ele>
<time>2025-01-30T09:21:18Z</time>
<hdop>8.84</hdop>
</trkpt>
<trkpt lat="47.4367284" lon="14.25806">
<ele>1908.596</ele>
<time>2025-01-30T09:22:17Z</time>
<hdop>6.66</hdop>
</trkpt>
<trkpt lat="47.4366525" lon="14.2582683">
<ele>1874.462</ele>
<time>2025-01-30T09:22:48Z</time>
<hdop>8.19</hdop>
</trkpt>
<trkpt lat="47.4366791" lon="14.2582884">
<ele>1909.704</ele>
<time>2025-01-30T09:23:47Z</time>
<hdop>5.35</hdop>
</trkpt>
<trkpt lat="47.4367038" lon="14.2582873">
<ele>1909.463</ele>
<time>2025-01-30T09:24:17Z</time>
<hdop>7.29</hdop>
</trkpt>
<trkpt lat="47.4367119" lon="14.2582948">
<ele>1910.571</ele>
<time>2025-01-30T09:24:47Z</time>
<hdop>6.79</hdop>
</trkpt>
<trkpt lat="47.4367119" lon="14.2582948">
<ele>1911.094</ele>
<time>2025-01-30T09:25:17Z</time>
<hdop>9.18</hdop>
</trkpt>
<trkpt lat="47.4367119" lon="14.2582948">
<ele>1911.093</ele>
<time>2025-01-30T09:25:47Z</time>
<hdop>5.97</hdop>
</trkpt>
<trkpt lat="47.4367119" lon="14.2582948">
<ele>1911.219</ele>
<time>2025-01-30T09:26:17Z</time>
<hdop>9.91</hdop>
</trkpt>
<trkpt lat="47.4367083" lon="14.2583023">
<ele>1912.218</ele>
<time>2025-01-30T09:26:47Z</time>
<hdop>7.14</hdop>
</trkpt>
<trkpt lat="47.4366338" lon="14.2585947">
<ele>1913.784</ele>
<time>2025-01-30T09:27:17Z</time>
<hdop>4.33</hdop>
</trkpt>
<trkpt lat="47.4366866" lon="14.2587065">
<ele>1909.907</ele>
<time>2025-01-30T09:27:47Z</time>
<hdop>5.73</hdop>
</trkpt>
<trkpt lat="47.4366251" lon="14.2587225">
<ele>1914.774</ele>
<time>2025-01-30T09:28:17Z</time>
<hdop>6.17</hdop>
</trkpt>
<trkpt lat="47.4365706" lon="14.2587315">
<ele>1932.944</ele>
<time>2025-01-30T09:28:48Z</time>
<hdop>10.68</hdop>
</trkpt>
<trkpt lat="47.4365595" lon="14.2589118">
<ele>1951.591</ele>
<time>2025-01-30T09:29:47Z</time>
<hdop>4.27</hdop>
</trkpt>
<trkpt lat="47.436598" lon="14.2590621">
<ele>1938.641</ele>
<time>2025-01-30T09:30:17Z</time>
<hdop>6.95</hdop>
</trkpt>
<trkpt lat="47.436664" lon="14.2590754">
<ele>1940.888</ele>
<time>2025-01-30T09:30:47Z</time>
<hdop>4.36</hdop>
</trkpt>
<trkpt lat="47.4365904" lon="14.2591247">
<ele>1962.262</ele>
<time>2025-01-30T09:31:17Z</time>
<hdop>7.79</hdop>
</trkpt>
<trkpt lat="47.4364736" lon="14.2591372">
<ele>1950.344</ele>
<time>2025-01-30T09:31:48Z</time>
<hdop>4.44</hdop>
</trkpt>
<trkpt lat="47.4365516" lon="14.259375">
<ele>1964.804</ele>
<time>2025-01-30T09:32:47Z</time>
<hdop>10.1</hdop>
</trkpt>
<trkpt lat="47.436615" lon="14.2592853">
<ele>1990.837</ele>
<time>2025-01-30T09:33:18Z</time>
<hdop>15.77</hdop>
</trkpt>
<trkpt lat="47.4364396" lon="14.2591719">
<ele>1954.401</ele>
<time>2025-01-30T09:33:48Z</time>
<hdop>14.93</hdop>
</trkpt>
<trkpt lat="47.4360944" lon="14.2591733">
<ele>1962.296</ele>
<time>2025-01-30T09:34:48Z</time>
<hdop>10.49</hdop>
</trkpt>
<trkpt lat="47.436255" lon="14.2592956">
<ele>1966.663</ele>
<time>2025-01-30T09:35:18Z</time>
<hdop>7.03</hdop>
</trkpt>
<trkpt lat="47.4362831" lon="14.2593578">
<ele>1972.106</ele>
<time>2025-01-30T09:35:48Z</time>
<hdop>8.69</hdop>
</trkpt>
<trkpt lat="47.4363025" lon="14.2593991">
<ele>1978.842</ele>
<time>2025-01-30T09:36:18Z</time>
<hdop>7.04</hdop>
</trkpt>
<trkpt lat="47.4364197" lon="14.2597048">
<ele>1979.998</ele>
<time>2025-01-30T09:37:17Z</time>
<hdop>6.56</hdop>
</trkpt>
<trkpt lat="47.4364243" lon="14.2597055">
<ele>1979.516</ele>
<time>2025-01-30T09:37:48Z</time>
<hdop>7.63</hdop>
</trkpt>
<trkpt lat="47.4362785" lon="14.2598941">
<ele>1983.08</ele>
<time>2025-01-30T09:38:18Z</time>
<hdop>10.39</hdop>
</trkpt>
<trkpt lat="47.4362785" lon="14.2598941">
<ele>1985.16</ele>
<time>2025-01-30T09:39:17Z</time>
<hdop>7.18</hdop>
</trkpt>
<trkpt lat="47.4362785" lon="14.2598941">
<ele>1990.817</ele>
<time>2025-01-30T09:39:48Z</time>
<hdop>5.11</hdop>
</trkpt>
<trkpt lat="47.4362637" lon="14.2599464">
<ele>2002.172</ele>
<time>2025-01-30T09:40:47Z</time>
<hdop>5.91</hdop>
</trkpt>
<trkpt lat="47.4361494" lon="14.2601353">
<ele>2001.408</ele>
<time>2025-01-30T09:41:17Z</time>
<hdop>5.77</hdop>
</trkpt>
<trkpt lat="47.4361016" lon="14.2604">
<ele>2005.409</ele>
<time>2025-01-30T09:41:56Z</time>
<hdop>8.66</hdop>
</trkpt>
<trkpt lat="47.435748" lon="14.2601864">
<ele>2029.154</ele>
<time>2025-01-30T09:42:55Z</time>
<hdop>7.53</hdop>
</trkpt>
<trkpt lat="47.4356996" lon="14.2600585">
<ele>1952.474</ele>
<time>2025-01-30T09:43:25Z</time>
<hdop>9.66</hdop>
</trkpt>
<trkpt lat="47.4358871" lon="14.2601153">
<ele>2020.327</ele>
<time>2025-01-30T09:43:56Z</time>
<hdop>4.41</hdop>
</trkpt>
<trkpt lat="47.4358871" lon="14.2601153">
<ele>2029.885</ele>
<time>2025-01-30T09:44:34Z</time>
<hdop>6.48</hdop>
</trkpt>
<trkpt lat="47.4358871" lon="14.2601153">
<ele>2028.714</ele>
<time>2025-01-30T09:45:08Z</time>
<hdop>8.29</hdop>
</trkpt>
<trkpt lat="47.4358927" lon="14.2600075">
<ele>2026.278</ele>
<time>2025-01-30T09:45:49Z</time>
<hdop>7.79</hdop>
</trkpt>
<trkpt lat="47.4358921" lon="14.2600167">
<ele>1890.808</ele>
<time>2025-01-30T09:46:40Z</time>
<hdop>17.73</hdop>
</trkpt>
<trkpt lat="47.4358884" lon="14.2600177">
<ele>2018.079</ele>
<time>2025-01-30T09:47:39Z</time>
<hdop>6.4</hdop>
</trkpt>
<trkpt lat="47.4358872" lon="14.2600179">
<ele>2024.015</ele>
<time>2025-01-30T09:48:40Z</time>
<hdop>11.43</hdop>
</trkpt>
<trkpt lat="47.4358853" lon="14.2600138">
<ele>2023.546</ele>
<time>2025-01-30T09:49:39Z</time>
<hdop>5.99</hdop>
</trkpt>
<trkpt lat="47.4358853" lon="14.2600134">
<ele>2023.629</ele>
<time>2025-01-30T09:50:09Z</time>
<hdop>5.9</hdop>
</trkpt>
<trkpt lat="47.4358862" lon="14.2600122">
<ele>2023.301</ele>
<time>2025-01-30T09:50:39Z</time>
<hdop>9.87</hdop>
</trkpt>
<trkpt lat="47.4358862" lon="14.2600122">
<ele>2023.081</ele>
<time>2025-01-30T09:51:10Z</time>
<hdop>11.9</hdop>
</trkpt>
<trkpt lat="47.4358867" lon="14.2600135">
<ele>2022.672</ele>
<time>2025-01-30T09:51:40Z</time>
<hdop>10.33</hdop>
</trkpt>
<trkpt lat="47.4358863" lon="14.2600154">
<ele>2022.697</ele>
<time>2025-01-30T09:52:10Z</time>
<hdop>9.33</hdop>
</trkpt>
<trkpt lat="47.4358843" lon="14.2600115">
<ele>1856.415</ele>
<time>2025-01-30T09:53:09Z</time>
<hdop>9.63</hdop>
</trkpt>
<trkpt lat="47.4358246" lon="14.2600221">
<ele>2021.896</ele>
<time>2025-01-30T09:53:40Z</time>
<hdop>7.47</hdop>
</trkpt>
<trkpt lat="47.4354012" lon="14.2598754">
<ele>2022.512</ele>
<time>2025-01-30T09:54:39Z</time>
<hdop>7.55</hdop>
</trkpt>
<trkpt lat="47.4351822" lon="14.2598443">
<ele>2012.687</ele>
<time>2025-01-30T09:55:10Z</time>
<hdop>3.89</hdop>
</trkpt>
<trkpt lat="47.4351822" lon="14.2598443">
<ele>2014.616</ele>
<time>2025-01-30T09:56:10Z</time>
<hdop>10.81</hdop>
</trkpt>
<trkpt lat="47.4351822" lon="14.2598443">
<ele>2017.569</ele>
<time>2025-01-30T09:57:10Z</time>
<hdop>6.44</hdop>
</trkpt>
<trkpt lat="47.435192" lon="14.2600161">
<ele>2017.815</ele>
<time>2025-01-30T09:57:43Z</time>
<hdop>4.16</hdop>
</trkpt>
<trkpt lat="47.4348614" lon="14.2619849">
<ele>1949.839</ele>
<time>2025-01-30T09:58:44Z</time>
<hdop>13.52</hdop>
</trkpt>
<trkpt lat="47.4355489" lon="14.2639271">
<ele>1861.435</ele>
<time>2025-01-30T09:59:43Z</time>
<hdop>7.57</hdop>
</trkpt>
<trkpt lat="47.4356396" lon="14.2669617">
<ele>1804.827</ele>
<time>2025-01-30T10:00:42Z</time>
<hdop>6.7</hdop>
</trkpt>
<trkpt lat="47.4357398" lon="14.2665872">
<ele>1777.555</ele>
<time>2025-01-30T10:01:17Z</time>
<hdop>47.9</hdop>
</trkpt>
<trkpt lat="47.4359501" lon="14.2666786">
<ele>1789.445</ele>
<time>2025-01-30T10:02:13Z</time>
<hdop>9.12</hdop>
</trkpt>
<trkpt lat="47.4357746" lon="14.2663502">
<ele>1782.821</ele>
<time>2025-01-30T10:02:43Z</time>
<hdop>17.28</hdop>
</trkpt>
<trkpt lat="47.4357746" lon="14.2663502">
<ele>1777.768</ele>
<time>2025-01-30T10:03:15Z</time>
<hdop>32.48</hdop>
</trkpt>
<trkpt lat="47.4357746" lon="14.2663502">
<ele>1794.698</ele>
<time>2025-01-30T10:04:13Z</time>
<hdop>11.65</hdop>
</trkpt>
<trkpt lat="47.4357746" lon="14.2663502">
<ele>1792.861</ele>
<time>2025-01-30T10:04:44Z</time>
<hdop>26.79</hdop>
</trkpt>
<trkpt lat="47.4358464" lon="14.2664549">
<ele>1803.901</ele>
<time>2025-01-30T10:05:17Z</time>
<hdop>50.68</hdop>
</trkpt>
<trkpt lat="47.4358774" lon="14.2665395">
<ele>1844.877</ele>
<time>2025-01-30T10:06:15Z</time>
<hdop>27.88</hdop>
</trkpt>
<trkpt lat="47.4359725" lon="14.2667103">
<ele>1807.472</ele>
<time>2025-01-30T10:06:45Z</time>
<hdop>27.84</hdop>
</trkpt>
<trkpt lat="47.4360034" lon="14.2663325">
<ele>1767.324</ele>
<time>2025-01-30T10:07:44Z</time>
<hdop>30.91</hdop>
</trkpt>
<trkpt lat="47.4359807" lon="14.266331">
<ele>1768.5</ele>
<time>2025-01-30T10:08:16Z</time>
<hdop>25.82</hdop>
</trkpt>
<trkpt lat="47.435972" lon="14.2663486">
<ele>1931.285</ele>
<time>2025-01-30T10:08:46Z</time>
<hdop>30.91</hdop>
</trkpt>
<trkpt lat="47.4360031" lon="14.2662996">
<ele>1782.531</ele>
<time>2025-01-30T10:09:44Z</time>
<hdop>26.77</hdop>
</trkpt>
<trkpt lat="47.4360111" lon="14.2662962">
<ele>1955.23</ele>
<time>2025-01-30T10:10:14Z</time>
<hdop>30.47</hdop>
</trkpt>
<trkpt lat="47.4359786" lon="14.2663343">
<ele>1796.568</ele>
<time>2025-01-30T10:10:44Z</time>
<hdop>23.3</hdop>
</trkpt>
<trkpt lat="47.4359749" lon="14.266344">
<ele>1783.226</ele>
<time>2025-01-30T10:11:14Z</time>
<hdop>29.28</hdop>
</trkpt>
<trkpt lat="47.4359832" lon="14.2663473">
<ele>1781.68</ele>
<time>2025-01-30T10:11:44Z</time>
<hdop>25.66</hdop>
</trkpt>
<trkpt lat="47.4359878" lon="14.2663437">
<ele>1817.03</ele>
<time>2025-01-30T10:12:16Z</time>
<hdop>31.68</hdop>
</trkpt>
<trkpt lat="47.4359771" lon="14.2663499">
<ele>1859.38</ele>
<time>2025-01-30T10:13:14Z</time>
<hdop>22.56</hdop>
</trkpt>
<trkpt lat="47.4360148" lon="14.2663595">
<ele>1864.061</ele>
<time>2025-01-30T10:13:45Z</time>
<hdop>20.33</hdop>
</trkpt>
<trkpt lat="47.4360025" lon="14.2663795">
<ele>1792.966</ele>
<time>2025-01-30T10:14:43Z</time>
<hdop>19.85</hdop>
</trkpt>
<trkpt lat="47.4359991" lon="14.2663889">
<ele>1783.779</ele>
<time>2025-01-30T10:15:13Z</time>
<hdop>19.81</hdop>
</trkpt>
<trkpt lat="47.4359967" lon="14.2663904">
<ele>1829.528</ele>
<time>2025-01-30T10:15:44Z</time>
<hdop>30.43</hdop>
</trkpt>
<trkpt lat="47.4359967" lon="14.2663904">
<ele>1801.588</ele>
<time>2025-01-30T10:16:45Z</time>
<hdop>37.47</hdop>
</trkpt>
<trkpt lat="47.4359932" lon="14.2663762">
<ele>1804.318</ele>
<time>2025-01-30T10:17:43Z</time>
<hdop>15.94</hdop>
</trkpt>
<trkpt lat="47.4359901" lon="14.2663718">
<ele>1788.281</ele>
<time>2025-01-30T10:18:13Z</time>
<hdop>11.67</hdop>
</trkpt>
<trkpt lat="47.435975" lon="14.2663391">
<ele>1783.815</ele>
<time>2025-01-30T10:18:43Z</time>
<hdop>7.9</hdop>
</trkpt>
<trkpt lat="47.4358541" lon="14.2657719">
<ele>1817.884</ele>
<time>2025-01-30T10:19:42Z</time>
<hdop>8.59</hdop>
</trkpt>
<trkpt lat="47.435636" lon="14.2656888">
<ele>1797.637</ele>
<time>2025-01-30T10:20:12Z</time>
<hdop>8.05</hdop>
</trkpt>
<trkpt lat="47.4355572" lon="14.2654382">
<ele>1794.566</ele>
<time>2025-01-30T10:20:42Z</time>
<hdop>10.28</hdop>
</trkpt>
<trkpt lat="47.4356115" lon="14.2652774">
<ele>1782.127</ele>
<time>2025-01-30T10:21:12Z</time>
<hdop>7.89</hdop>
</trkpt>
<trkpt lat="47.4355624" lon="14.2650943">
<ele>1852.323</ele>
<time>2025-01-30T10:21:42Z</time>
<hdop>9.07</hdop>
</trkpt>
<trkpt lat="47.4353949" lon="14.2648776">
<ele>1820.894</ele>
<time>2025-01-30T10:22:13Z</time>
<hdop>7.61</hdop>
</trkpt>
<trkpt lat="47.4353565" lon="14.2645673">
<ele>1808.458</ele>
<time>2025-01-30T10:22:43Z</time>
<hdop>8.81</hdop>
</trkpt>
<trkpt lat="47.4352931" lon="14.2647348">
<ele>1912.843</ele>
<time>2025-01-30T10:23:13Z</time>
<hdop>8.65</hdop>
</trkpt>
<trkpt lat="47.4355332" lon="14.2644439">
<ele>1888.873</ele>
<time>2025-01-30T10:24:13Z</time>
<hdop>13.44</hdop>
</trkpt>
<trkpt lat="47.4353592" lon="14.2645029">
<ele>1902.386</ele>
<time>2025-01-30T10:24:43Z</time>
<hdop>16.0</hdop>
</trkpt>
<trkpt lat="47.4356043" lon="14.2644825">
<ele>1849.055</ele>
<time>2025-01-30T10:25:13Z</time>
<hdop>11.07</hdop>
</trkpt>
<trkpt lat="47.4356024" lon="14.2644326">
<ele>1851.641</ele>
<time>2025-01-30T10:25:43Z</time>
<hdop>11.82</hdop>
</trkpt>
<trkpt lat="47.435548" lon="14.264255">
<ele>1842.806</ele>
<time>2025-01-30T10:26:13Z</time>
<hdop>5.24</hdop>
</trkpt>
<trkpt lat="47.4354501" lon="14.2638246">
<ele>1847.978</ele>
<time>2025-01-30T10:27:12Z</time>
<hdop>9.94</hdop>
</trkpt>
<trkpt lat="47.4352909" lon="14.2637913">
<ele>1861.724</ele>
<time>2025-01-30T10:27:43Z</time>
<hdop>10.39</hdop>
</trkpt>
<trkpt lat="47.4354343" lon="14.2638232">
<ele>1877.713</ele>
<time>2025-01-30T10:28:13Z</time>
<hdop>11.53</hdop>
</trkpt>
<trkpt lat="47.4354045" lon="14.2635373">
<ele>1870.333</ele>
<time>2025-01-30T10:29:13Z</time>
<hdop>7.82</hdop>
</trkpt>
<trkpt lat="47.435423" lon="14.2632891">
<ele>1868.548</ele>
<time>2025-01-30T10:29:43Z</time>
<hdop>12.47</hdop>
</trkpt>
<trkpt lat="47.4352309" lon="14.263161">
<ele>1908.039</ele>
<time>2025-01-30T10:30:43Z</time>
<hdop>9.81</hdop>
</trkpt>
<trkpt lat="47.435334" lon="14.2629542">
<ele>1884.472</ele>
<time>2025-01-30T10:31:14Z</time>
<hdop>12.81</hdop>
</trkpt>
<trkpt lat="47.4353866" lon="14.2626094">
<ele>1896.402</ele>
<time>2025-01-30T10:32:12Z</time>
<hdop>7.45</hdop>
</trkpt>
<trkpt lat="47.4354286" lon="14.2626032">
<ele>1878.19</ele>
<time>2025-01-30T10:32:42Z</time>
<hdop>8.74</hdop>
</trkpt>
<trkpt lat="47.4354286" lon="14.2626032">
<ele>1871.762</ele>
<time>2025-01-30T10:33:14Z</time>
<hdop>20.9</hdop>
</trkpt>
<trkpt lat="47.4353667" lon="14.2625546">
<ele>1881.547</ele>
<time>2025-01-30T10:34:13Z</time>
<hdop>13.08</hdop>
</trkpt>
<trkpt lat="47.4356071" lon="14.2622691">
<ele>1916.574</ele>
<time>2025-01-30T10:34:43Z</time>
<hdop>6.01</hdop>
</trkpt>
<trkpt lat="47.4356619" lon="14.2622479">
<ele>1907.529</ele>
<time>2025-01-30T10:35:13Z</time>
<hdop>17.57</hdop>
</trkpt>
<trkpt lat="47.4357298" lon="14.2622018">
<ele>1945.585</ele>
<time>2025-01-30T10:36:13Z</time>
<hdop>11.16</hdop>
</trkpt>
<trkpt lat="47.4358005" lon="14.2621048">
<ele>1922.954</ele>
<time>2025-01-30T10:36:43Z</time>
<hdop>12.33</hdop>
</trkpt>
<trkpt lat="47.4358136" lon="14.2619877">
<ele>1928.017</ele>
<time>2025-01-30T10:37:43Z</time>
<hdop>13.29</hdop>
</trkpt>
<trkpt lat="47.435812" lon="14.2619746">
<ele>1928.033</ele>
<time>2025-01-30T10:38:13Z</time>
<hdop>15.83</hdop>
</trkpt>
<trkpt lat="47.4358809" lon="14.2619254">
<ele>1933.013</ele>
<time>2025-01-30T10:38:43Z</time>
<hdop>12.44</hdop>
</trkpt>
<trkpt lat="47.4360788" lon="14.2619061">
<ele>1933.744</ele>
<time>2025-01-30T10:39:13Z</time>
<hdop>10.82</hdop>
</trkpt>
<trkpt lat="47.4360582" lon="14.2619932">
<ele>1947.714</ele>
<time>2025-01-30T10:39:43Z</time>
<hdop>18.54</hdop>
</trkpt>
<trkpt lat="47.4361447" lon="14.2619572">
<ele>1968.134</ele>
<time>2025-01-30T10:40:43Z</time>
<hdop>11.69</hdop>
</trkpt>
<trkpt lat="47.4361607" lon="14.261948">
<ele>1966.566</ele>
<time>2025-01-30T10:41:13Z</time>
<hdop>11.79</hdop>
</trkpt>
<trkpt lat="47.4362823" lon="14.2620222">
<ele>1975.217</ele>
<time>2025-01-30T10:41:43Z</time>
<hdop>9.98</hdop>
</trkpt>
<trkpt lat="47.4361609" lon="14.2615692">
<ele>1971.425</ele>
<time>2025-01-30T10:42:43Z</time>
<hdop>6.73</hdop>
</trkpt>
<trkpt lat="47.4361914" lon="14.2616395">
<ele>1966.154</ele>
<time>2025-01-30T10:43:13Z</time>
<hdop>9.34</hdop>
</trkpt>
<trkpt lat="47.4364777" lon="14.2617285">
<ele>1994.077</ele>
<time>2025-01-30T10:44:12Z</time>
<hdop>6.1</hdop>
</trkpt>
<trkpt lat="47.4363834" lon="14.2615689">
<ele>2019.091</ele>
<time>2025-01-30T10:44:42Z</time>
<hdop>7.73</hdop>
</trkpt>
<trkpt lat="47.4364343" lon="14.2616343">
<ele>1972.393</ele>
<time>2025-01-30T10:45:12Z</time>
<hdop>3.87</hdop>
</trkpt>
<trkpt lat="47.4364788" lon="14.2615646">
<ele>1991.635</ele>
<time>2025-01-30T10:45:42Z</time>
<hdop>10.05</hdop>
</trkpt>
<trkpt lat="47.4364387" lon="14.2610292">
<ele>1966.265</ele>
<time>2025-01-30T10:46:13Z</time>
<hdop>16.91</hdop>
</trkpt>
<trkpt lat="47.436238" lon="14.2609428">
<ele>1986.803</ele>
<time>2025-01-30T10:46:43Z</time>
<hdop>8.17</hdop>
</trkpt>
<trkpt lat="47.4361096" lon="14.2608484">
<ele>1981.654</ele>
<time>2025-01-30T10:47:13Z</time>
<hdop>7.78</hdop>
</trkpt>
<trkpt lat="47.4360706" lon="14.2607494">
<ele>2005.284</ele>
<time>2025-01-30T10:47:43Z</time>
<hdop>6.5</hdop>
</trkpt>
<trkpt lat="47.4360412" lon="14.2606267">
<ele>2009.968</ele>
<time>2025-01-30T10:48:43Z</time>
<hdop>9.38</hdop>
</trkpt>
<trkpt lat="47.4359942" lon="14.2601935">
<ele>2000.729</ele>
<time>2025-01-30T10:49:13Z</time>
<hdop>10.68</hdop>
</trkpt>
<trkpt lat="47.4357768" lon="14.2601436">
<ele>2016.521</ele>
<time>2025-01-30T10:50:12Z</time>
<hdop>7.29</hdop>
</trkpt>
<trkpt lat="47.435449" lon="14.2599141">
<ele>2005.364</ele>
<time>2025-01-30T10:50:42Z</time>
<hdop>3.97</hdop>
</trkpt>
<trkpt lat="47.4352067" lon="14.2597718">
<ele>2014.91</ele>
<time>2025-01-30T10:51:12Z</time>
<hdop>3.85</hdop>
</trkpt>
<trkpt lat="47.4351835" lon="14.2597224">
<ele>2014.313</ele>
<time>2025-01-30T10:51:42Z</time>
<hdop>5.0</hdop>
</trkpt>
<trkpt lat="47.4353966" lon="14.2595713">
<ele>2023.124</ele>
<time>2025-01-30T10:52:13Z</time>
<hdop>13.31</hdop>
</trkpt>
<trkpt lat="47.4352004" lon="14.2596165">
<ele>2002.763</ele>
<time>2025-01-30T10:53:13Z</time>
<hdop>13.2</hdop>
</trkpt>
<trkpt lat="47.4351865" lon="14.2596392">
<ele>2006.827</ele>
<time>2025-01-30T10:54:12Z</time>
<hdop>9.03</hdop>
</trkpt>
<trkpt lat="47.4351742" lon="14.2596474">
<ele>2006.418</ele>
<time>2025-01-30T10:54:43Z</time>
<hdop>8.86</hdop>
</trkpt>
<trkpt lat="47.4351663" lon="14.2596409">
<ele>2007.826</ele>
<time>2025-01-30T10:55:13Z</time>
<hdop>12.47</hdop>
</trkpt>
<trkpt lat="47.4351678" lon="14.2596526">
<ele>2008.985</ele>
<time>2025-01-30T10:55:43Z</time>
<hdop>15.75</hdop>
</trkpt>
<trkpt lat="47.4351664" lon="14.2596579">
<ele>2008.282</ele>
<time>2025-01-30T10:56:13Z</time>
<hdop>11.35</hdop>
</trkpt>
<trkpt lat="47.4347507" lon="14.2594583">
<ele>2020.033</ele>
<time>2025-01-30T10:57:12Z</time>
<hdop>8.83</hdop>
</trkpt>
<trkpt lat="47.4346141" lon="14.2591027">
<ele>2002.681</ele>
<time>2025-01-30T10:57:42Z</time>
<hdop>4.44</hdop>
</trkpt>
<trkpt lat="47.4344027" lon="14.2591504">
<ele>1976.21</ele>
<time>2025-01-30T10:58:12Z</time>
<hdop>7.06</hdop>
</trkpt>
<trkpt lat="47.4338525" lon="14.2593586">
<ele>1968.762</ele>
<time>2025-01-30T10:58:43Z</time>
<hdop>6.72</hdop>
</trkpt>
<trkpt lat="47.4328892" lon="14.2570292">
<ele>1907.485</ele>
<time>2025-01-30T10:59:42Z</time>
<hdop>4.17</hdop>
</trkpt>
<trkpt lat="47.4326406" lon="14.2561029">
<ele>1883.49</ele>
<time>2025-01-30T11:00:12Z</time>
<hdop>4.13</hdop>
</trkpt>
<trkpt lat="47.4317615" lon="14.255028">
<ele>1847.571</ele>
<time>2025-01-30T11:00:43Z</time>
<hdop>8.0</hdop>
</trkpt>
<trkpt lat="47.4311581" lon="14.2563095">
<ele>1822.155</ele>
<time>2025-01-30T11:01:13Z</time>
<hdop>9.9</hdop>
</trkpt>
<trkpt lat="47.4310847" lon="14.2563269">
<ele>1820.692</ele>
<time>2025-01-30T11:01:43Z</time>
<hdop>13.47</hdop>
</trkpt>
<trkpt lat="47.4310847" lon="14.2563269">
<ele>1821.856</ele>
<time>2025-01-30T11:02:13Z</time>
<hdop>17.01</hdop>
</trkpt>
<trkpt lat="47.4310847" lon="14.2563269">
<ele>1833.679</ele>
<time>2025-01-30T11:02:47Z</time>
<hdop>10.1</hdop>
</trkpt>
<trkpt lat="47.4310847" lon="14.2563269">
<ele>1836.697</ele>
<time>2025-01-30T11:03:42Z</time>
<hdop>19.63</hdop>
</trkpt>
<trkpt lat="47.4310847" lon="14.2563269">
<ele>1834.84</ele>
<time>2025-01-30T11:04:12Z</time>
<hdop>19.67</hdop>
</trkpt>
<trkpt lat="47.4310847" lon="14.2563269">
<ele>1833.439</ele>
<time>2025-01-30T11:04:42Z</time>
<hdop>12.19</hdop>
</trkpt>
<trkpt lat="47.4311039" lon="14.2563557">
<ele>1831.455</ele>
<time>2025-01-30T11:05:12Z</time>
<hdop>17.04</hdop>
</trkpt>
<trkpt lat="47.4311421" lon="14.2565292">
<ele>1829.0</ele>
<time>2025-01-30T11:05:43Z</time>
<hdop>11.82</hdop>
</trkpt>
<trkpt lat="47.4311412" lon="14.2564849">
<ele>1827.625</ele>
<time>2025-01-30T11:06:13Z</time>
<hdop>13.41</hdop>
</trkpt>
<trkpt lat="47.4311151" lon="14.256462">
<ele>1828.565</ele>
<time>2025-01-30T11:06:43Z</time>
<hdop>19.31</hdop>
</trkpt>
<trkpt lat="47.4311141" lon="14.2564371">
<ele>1829.64</ele>
<time>2025-01-30T11:07:13Z</time>
<hdop>19.66</hdop>
</trkpt>
<trkpt lat="47.4310629" lon="14.2559176">
<ele>1847.254</ele>
<time>2025-01-30T11:07:45Z</time>
<hdop>7.18</hdop>
</trkpt>
<trkpt lat="47.43122" lon="14.2558224">
<ele>1838.894</ele>
<time>2025-01-30T11:08:15Z</time>
<hdop>12.09</hdop>
</trkpt>
<trkpt lat="47.4311844" lon="14.2554429">
<ele>1830.29</ele>
<time>2025-01-30T11:09:14Z</time>
<hdop>3.85</hdop>
</trkpt>
<trkpt lat="47.4311815" lon="14.2554287">
<ele>1856.326</ele>
<time>2025-01-30T11:09:46Z</time>
<hdop>20.2</hdop>
</trkpt>
<trkpt lat="47.4311782" lon="14.2549037">
<ele>1858.188</ele>
<time>2025-01-30T11:10:45Z</time>
<hdop>8.24</hdop>
</trkpt>
<trkpt lat="47.4312887" lon="14.2547873">
<ele>1865.404</ele>
<time>2025-01-30T11:11:16Z</time>
<hdop>7.92</hdop>
</trkpt>
<trkpt lat="47.4313403" lon="14.2545978">
<ele>1857.077</ele>
<time>2025-01-30T11:11:46Z</time>
<hdop>7.6</hdop>
</trkpt>
<trkpt lat="47.4314455" lon="14.254538">
<ele>1862.869</ele>
<time>2025-01-30T11:12:16Z</time>
<hdop>10.64</hdop>
</trkpt>
<trkpt lat="47.4315385" lon="14.2539259">
<ele>1856.087</ele>
<time>2025-01-30T11:13:15Z</time>
<hdop>4.68</hdop>
</trkpt>
<trkpt lat="47.4314468" lon="14.2536563">
<ele>1886.831</ele>
<time>2025-01-30T11:13:45Z</time>
<hdop>5.76</hdop>
</trkpt>
<trkpt lat="47.4315454" lon="14.2529854">
<ele>1894.679</ele>
<time>2025-01-30T11:14:45Z</time>
<hdop>7.96</hdop>
</trkpt>
<trkpt lat="47.4316484" lon="14.2529693">
<ele>1891.5</ele>
<time>2025-01-30T11:15:15Z</time>
<hdop>3.98</hdop>
</trkpt>
<trkpt lat="47.4314857" lon="14.2528984">
<ele>1888.089</ele>
<time>2025-01-30T11:15:45Z</time>
<hdop>4.01</hdop>
</trkpt>
<trkpt lat="47.4315069" lon="14.2526832">
<ele>1884.024</ele>
<time>2025-01-30T11:16:16Z</time>
<hdop>9.04</hdop>
</trkpt>
<trkpt lat="47.4315438" lon="14.2525015">
<ele>2002.724</ele>
<time>2025-01-30T11:16:47Z</time>
<hdop>11.98</hdop>
</trkpt>
<trkpt lat="47.4317888" lon="14.2524078">
<ele>1901.834</ele>
<time>2025-01-30T11:17:45Z</time>
<hdop>11.64</hdop>
</trkpt>
<trkpt lat="47.4316736" lon="14.252203">
<ele>1977.778</ele>
<time>2025-01-30T11:18:16Z</time>
<hdop>6.75</hdop>
</trkpt>
<trkpt lat="47.4316523" lon="14.2520622">
<ele>1836.401</ele>
<time>2025-01-30T11:19:16Z</time>
<hdop>10.96</hdop>
</trkpt>
<trkpt lat="47.4317509" lon="14.2518478">
<ele>1929.474</ele>
<time>2025-01-30T11:19:46Z</time>
<hdop>9.88</hdop>
</trkpt>
<trkpt lat="47.4319471" lon="14.2514576">
<ele>1926.61</ele>
<time>2025-01-30T11:20:46Z</time>
<hdop>17.41</hdop>
</trkpt>
<trkpt lat="47.4324806" lon="14.2515952">
<ele>1919.895</ele>
<time>2025-01-30T11:21:46Z</time>
<hdop>5.93</hdop>
</trkpt>
<trkpt lat="47.4328825" lon="14.2515889">
<ele>1949.509</ele>
<time>2025-01-30T11:22:46Z</time>
<hdop>17.48</hdop>
</trkpt>
<trkpt lat="47.4331816" lon="14.2518724">
<ele>1926.309</ele>
<time>2025-01-30T11:23:46Z</time>
<hdop>20.45</hdop>
</trkpt>
<trkpt lat="47.4333545" lon="14.252037">
<ele>1920.189</ele>
<time>2025-01-30T11:24:16Z</time>
<hdop>20.69</hdop>
</trkpt>
<trkpt lat="47.4334308" lon="14.2518644">
<ele>1951.884</ele>
<time>2025-01-30T11:24:47Z</time>
<hdop>10.74</hdop>
</trkpt>
<trkpt lat="47.43357" lon="14.2513669">
<ele>1966.639</ele>
<time>2025-01-30T11:25:45Z</time>
<hdop>8.14</hdop>
</trkpt>
<trkpt lat="47.4336835" lon="14.251258">
<ele>1967.941</ele>
<time>2025-01-30T11:26:16Z</time>
<hdop>14.04</hdop>
</trkpt>
<trkpt lat="47.4338436" lon="14.2517309">
<ele>1952.15</ele>
<time>2025-01-30T11:27:16Z</time>
<hdop>12.63</hdop>
</trkpt>
<trkpt lat="47.4338033" lon="14.2522418">
<ele>1995.632</ele>
<time>2025-01-30T11:28:15Z</time>
<hdop>7.43</hdop>
</trkpt>
<trkpt lat="47.4339839" lon="14.2525702">
<ele>1945.346</ele>
<time>2025-01-30T11:28:46Z</time>
<hdop>18.45</hdop>
</trkpt>
<trkpt lat="47.4340936" lon="14.2523325">
<ele>1984.771</ele>
<time>2025-01-30T11:29:46Z</time>
<hdop>9.81</hdop>
</trkpt>
<trkpt lat="47.4343765" lon="14.2531395">
<ele>2046.3</ele>
<time>2025-01-30T11:30:18Z</time>
<hdop>29.25</hdop>
</trkpt>
<trkpt lat="47.4344819" lon="14.2521519">
<ele>2011.317</ele>
<time>2025-01-30T11:31:16Z</time>
<hdop>13.51</hdop>
</trkpt>
<trkpt lat="47.4347217" lon="14.2516875">
<ele>2006.813</ele>
<time>2025-01-30T11:32:15Z</time>
<hdop>7.71</hdop>
</trkpt>
<trkpt lat="47.4346924" lon="14.2516867">
<ele>1969.592</ele>
<time>2025-01-30T11:32:45Z</time>
<hdop>9.44</hdop>
</trkpt>
<trkpt lat="47.434753" lon="14.2514384">
<ele>2008.722</ele>
<time>2025-01-30T11:33:15Z</time>
<hdop>4.38</hdop>
</trkpt>
<trkpt lat="47.434889" lon="14.2514658">
<ele>2020.178</ele>
<time>2025-01-30T11:33:45Z</time>
<hdop>7.4</hdop>
</trkpt>
<trkpt lat="47.4349564" lon="14.2513594">
<ele>2020.391</ele>
<time>2025-01-30T11:34:15Z</time>
<hdop>4.64</hdop>
</trkpt>
<trkpt lat="47.4349411" lon="14.2513419">
<ele>2023.039</ele>
<time>2025-01-30T11:34:45Z</time>
<hdop>7.71</hdop>
</trkpt>
<trkpt lat="47.4349176" lon="14.2513304">
<ele>2025.818</ele>
<time>2025-01-30T11:35:18Z</time>
<hdop>6.59</hdop>
</trkpt>
<trkpt lat="47.4349131" lon="14.251323">
<ele>1999.465</ele>
<time>2025-01-30T11:36:07Z</time>
<hdop>6.09</hdop>
</trkpt>
<trkpt lat="47.4349029" lon="14.2513012">
<ele>1970.588</ele>
<time>2025-01-30T11:36:37Z</time>
<hdop>5.97</hdop>
</trkpt>
<trkpt lat="47.4346819" lon="14.2510201">
<ele>2043.378</ele>
<time>2025-01-30T11:37:09Z</time>
<hdop>4.06</hdop>
</trkpt>
<trkpt lat="47.4347538" lon="14.2508921">
<ele>2038.555</ele>
<time>2025-01-30T11:38:07Z</time>
<hdop>6.26</hdop>
</trkpt>
<trkpt lat="47.434737" lon="14.2508264">
<ele>2047.758</ele>
<time>2025-01-30T11:38:37Z</time>
<hdop>10.0</hdop>
</trkpt>
<trkpt lat="47.4347129" lon="14.2505975">
<ele>2057.469</ele>
<time>2025-01-30T11:39:07Z</time>
<hdop>5.02</hdop>
</trkpt>
<trkpt lat="47.4346738" lon="14.2506625">
<ele>1767.252</ele>
<time>2025-01-30T11:39:37Z</time>
<hdop>6.11</hdop>
</trkpt>
<trkpt lat="47.434674" lon="14.2506414">
<ele>2062.763</ele>
<time>2025-01-30T11:40:07Z</time>
<hdop>4.36</hdop>
</trkpt>
<trkpt lat="47.4346518" lon="14.2505687">
<ele>2050.699</ele>
<time>2025-01-30T11:40:38Z</time>
<hdop>11.1</hdop>
</trkpt>
<trkpt lat="47.434518" lon="14.2503513">
<ele>2048.166</ele>
<time>2025-01-30T11:41:37Z</time>
<hdop>5.89</hdop>
</trkpt>
<trkpt lat="47.434518" lon="14.2503513">
<ele>2047.834</ele>
<time>2025-01-30T11:42:07Z</time>
<hdop>8.56</hdop>
</trkpt>
<trkpt lat="47.4345742" lon="14.2503513">
<ele>2037.758</ele>
<time>2025-01-30T11:42:37Z</time>
<hdop>9.14</hdop>
</trkpt>
<trkpt lat="47.4348399" lon="14.250288">
<ele>2045.795</ele>
<time>2025-01-30T11:43:07Z</time>
<hdop>7.37</hdop>
</trkpt>
<trkpt lat="47.4347785" lon="14.2502005">
<ele>2070.118</ele>
<time>2025-01-30T11:43:37Z</time>
<hdop>3.79</hdop>
</trkpt>
<trkpt lat="47.4346606" lon="14.2502214">
<ele>2087.961</ele>
<time>2025-01-30T11:44:07Z</time>
<hdop>4.23</hdop>
</trkpt>
<trkpt lat="47.4347968" lon="14.2501317">
<ele>2090.2</ele>
<time>2025-01-30T11:44:37Z</time>
<hdop>5.36</hdop>
</trkpt>
<trkpt lat="47.4347641" lon="14.250012">
<ele>2069.938</ele>
<time>2025-01-30T11:45:07Z</time>
<hdop>7.97</hdop>
</trkpt>
<trkpt lat="47.4349932" lon="14.2499548">
<ele>2095.235</ele>
<time>2025-01-30T11:45:37Z</time>
<hdop>6.32</hdop>
</trkpt>
<trkpt lat="47.434929" lon="14.2500024">
<ele>2081.673</ele>
<time>2025-01-30T11:46:07Z</time>
<hdop>3.79</hdop>
</trkpt>
<trkpt lat="47.4349163" lon="14.2500092">
<ele>2082.904</ele>
<time>2025-01-30T11:46:37Z</time>
<hdop>4.75</hdop>
</trkpt>
<trkpt lat="47.4349113" lon="14.2499948">
<ele>2083.614</ele>
<time>2025-01-30T11:47:07Z</time>
<hdop>5.25</hdop>
</trkpt>
<trkpt lat="47.4348974" lon="14.2499577">
<ele>2086.257</ele>
<time>2025-01-30T11:47:37Z</time>
<hdop>3.99</hdop>
</trkpt>
<trkpt lat="47.4348841" lon="14.2496395">
<ele>2083.449</ele>
<time>2025-01-30T11:48:07Z</time>
<hdop>4.58</hdop>
</trkpt>
<trkpt lat="47.4347301" lon="14.2495934">
<ele>2103.775</ele>
<time>2025-01-30T11:48:37Z</time>
<hdop>4.43</hdop>
</trkpt>
<trkpt lat="47.4347183" lon="14.2495581">
<ele>2116.607</ele>
<time>2025-01-30T11:49:07Z</time>
<hdop>9.92</hdop>
</trkpt>
<trkpt lat="47.4348033" lon="14.2492598">
<ele>2093.706</ele>
<time>2025-01-30T11:49:38Z</time>
<hdop>10.8</hdop>
</trkpt>
<trkpt lat="47.4350206" lon="14.2492241">
<ele>2095.087</ele>
<time>2025-01-30T11:50:37Z</time>
<hdop>7.65</hdop>
</trkpt>
<trkpt lat="47.4349651" lon="14.2491791">
<ele>2109.612</ele>
<time>2025-01-30T11:51:07Z</time>
<hdop>4.83</hdop>
</trkpt>
<trkpt lat="47.4348385" lon="14.2490279">
<ele>2115.099</ele>
<time>2025-01-30T11:51:37Z</time>
<hdop>3.79</hdop>
</trkpt>
<trkpt lat="47.4347683" lon="14.2488857">
<ele>2118.47</ele>
<time>2025-01-30T11:52:07Z</time>
<hdop>3.82</hdop>
</trkpt>
<trkpt lat="47.434759" lon="14.2486742">
<ele>2119.405</ele>
<time>2025-01-30T11:52:37Z</time>
<hdop>4.24</hdop>
</trkpt>
<trkpt lat="47.4347359" lon="14.2485036">
<ele>2118.726</ele>
<time>2025-01-30T11:53:07Z</time>
<hdop>3.95</hdop>
</trkpt>
<trkpt lat="47.4347143" lon="14.2484925">
<ele>2118.182</ele>
<time>2025-01-30T11:53:37Z</time>
<hdop>3.99</hdop>
</trkpt>
<trkpt lat="47.4347143" lon="14.2484925">
<ele>2119.078</ele>
<time>2025-01-30T11:54:07Z</time>
<hdop>8.96</hdop>
</trkpt>
<trkpt lat="47.4347303" lon="14.2485052">
<ele>2117.191</ele>
<time>2025-01-30T11:54:37Z</time>
<hdop>5.38</hdop>
</trkpt>
<trkpt lat="47.4347679" lon="14.2485135">
<ele>2116.536</ele>
<time>2025-01-30T11:55:08Z</time>
<hdop>13.02</hdop>
</trkpt>
<trkpt lat="47.4349887" lon="14.2481215">
<ele>2121.566</ele>
<time>2025-01-30T11:55:38Z</time>
<hdop>10.94</hdop>
</trkpt>
<trkpt lat="47.4349743" lon="14.2480786">
<ele>2126.751</ele>
<time>2025-01-30T11:56:08Z</time>
<hdop>8.16</hdop>
</trkpt>
<trkpt lat="47.4351875" lon="14.2482233">
<ele>2141.727</ele>
<time>2025-01-30T11:57:07Z</time>
<hdop>4.7</hdop>
</trkpt>
<trkpt lat="47.4353568" lon="14.2484468">
<ele>2140.003</ele>
<time>2025-01-30T11:57:37Z</time>
<hdop>6.47</hdop>
</trkpt>
<trkpt lat="47.4353568" lon="14.2484468">
<ele>2139.777</ele>
<time>2025-01-30T11:58:07Z</time>
<hdop>5.97</hdop>
</trkpt>
<trkpt lat="47.4353568" lon="14.2484468">
<ele>2142.649</ele>
<time>2025-01-30T11:58:37Z</time>
<hdop>4.09</hdop>
</trkpt>
<trkpt lat="47.4353568" lon="14.2484468">
<ele>2110.1</ele>
<time>2025-01-30T11:59:07Z</time>
<hdop>5.34</hdop>
</trkpt>
<trkpt lat="47.4353568" lon="14.2484468">
<ele>2149.393</ele>
<time>2025-01-30T11:59:37Z</time>
<hdop>3.79</hdop>
</trkpt>
<trkpt lat="47.4353568" lon="14.2484468">
<ele>2150.059</ele>
<time>2025-01-30T12:00:07Z</time>
<hdop>6.1</hdop>
</trkpt>
<trkpt lat="47.4354199" lon="14.2483395">
<ele>2149.904</ele>
<time>2025-01-30T12:00:37Z</time>
<hdop>5.23</hdop>
</trkpt>
<trkpt lat="47.4354228" lon="14.2483375">
<ele>2150.111</ele>
<time>2025-01-30T12:01:07Z</time>
<hdop>4.77</hdop>
</trkpt>
<trkpt lat="47.4354287" lon="14.2483338">
<ele>2149.932</ele>
<time>2025-01-30T12:01:37Z</time>
<hdop>3.79</hdop>
</trkpt>
<trkpt lat="47.4354295" lon="14.2483325">
<ele>2150.863</ele>
<time>2025-01-30T12:02:07Z</time>
<hdop>3.99</hdop>
</trkpt>
<trkpt lat="47.4354302" lon="14.2483308">
<ele>2014.545</ele>
<time>2025-01-30T12:02:37Z</time>
<hdop>7.69</hdop>
</trkpt>
<trkpt lat="47.4354303" lon="14.248331">
<ele>2107.795</ele>
<time>2025-01-30T12:03:07Z</time>
<hdop>7.73</hdop>
</trkpt>
<trkpt lat="47.435432" lon="14.2483303">
<ele>2144.849</ele>
<time>2025-01-30T12:03:37Z</time>
<hdop>4.82</hdop>
</trkpt>
<trkpt lat="47.4354322" lon="14.2483275">
<ele>2148.848</ele>
<time>2025-01-30T12:04:08Z</time>
<hdop>8.51</hdop>
</trkpt>
<trkpt lat="47.4354345" lon="14.2483251">
<ele>2129.798</ele>
<time>2025-01-30T12:05:07Z</time>
<hdop>10.2</hdop>
</trkpt>
<trkpt lat="47.4354353" lon="14.2483258">
<ele>2146.075</ele>
<time>2025-01-30T12:05:37Z</time>
<hdop>7.36</hdop>
</trkpt>
<trkpt lat="47.4354352" lon="14.2483211">
<ele>2075.752</ele>
<time>2025-01-30T12:06:07Z</time>
<hdop>5.15</hdop>
</trkpt>
<trkpt lat="47.4354607" lon="14.2484137">
<ele>2154.797</ele>
<time>2025-01-30T12:06:38Z</time>
<hdop>8.3</hdop>
</trkpt>
<trkpt lat="47.4354607" lon="14.2484137">
<ele>2152.99</ele>
<time>2025-01-30T12:07:37Z</time>
<hdop>8.41</hdop>
</trkpt>
<trkpt lat="47.4354607" lon="14.2484137">
<ele>2153.106</ele>
<time>2025-01-30T12:08:07Z</time>
<hdop>8.88</hdop>
</trkpt>
<trkpt lat="47.4354607" lon="14.2484137">
<ele>2152.591</ele>
<time>2025-01-30T12:08:37Z</time>
<hdop>7.05</hdop>
</trkpt>
<trkpt lat="47.4354607" lon="14.2484137">
<ele>2152.091</ele>
<time>2025-01-30T12:09:07Z</time>
<hdop>10.12</hdop>
</trkpt>
<trkpt lat="47.4354607" lon="14.2484137">
<ele>2151.644</ele>
<time>2025-01-30T12:09:38Z</time>
<hdop>8.24</hdop>
</trkpt>
<trkpt lat="47.4354607" lon="14.2484137">
<ele>2151.189</ele>
<time>2025-01-30T12:10:37Z</time>
<hdop>5.09</hdop>
</trkpt>
<trkpt lat="47.4354607" lon="14.2484137">
<ele>2150.764</ele>
<time>2025-01-30T12:11:07Z</time>
<hdop>7.02</hdop>
</trkpt>
<trkpt lat="47.4354607" lon="14.2484137">
<ele>2151.13</ele>
<time>2025-01-30T12:11:37Z</time>
<hdop>4.18</hdop>
</trkpt>
<trkpt lat="47.4354607" lon="14.2484137">
<ele>2151.617</ele>
<time>2025-01-30T12:12:07Z</time>
<hdop>4.37</hdop>
</trkpt>
<trkpt lat="47.4354607" lon="14.2484137">
<ele>2151.742</ele>
<time>2025-01-30T12:12:37Z</time>
<hdop>5.41</hdop>
</trkpt>
<trkpt lat="47.4354484" lon="14.2483356">
<ele>2151.326</ele>
<time>2025-01-30T12:13:07Z</time>
<hdop>4.84</hdop>
</trkpt>
<trkpt lat="47.4354485" lon="14.2483335">
<ele>2151.164</ele>
<time>2025-01-30T12:13:37Z</time>
<hdop>4.35</hdop>
</trkpt>
<trkpt lat="47.4354462" lon="14.2483315">
<ele>2152.26</ele>
<time>2025-01-30T12:14:11Z</time>
<hdop>7.75</hdop>
</trkpt>
<trkpt lat="47.4354423" lon="14.248335">
<ele>2151.554</ele>
<time>2025-01-30T12:14:42Z</time>
<hdop>7.06</hdop>
</trkpt>
<trkpt lat="47.4354351" lon="14.2483614">
<ele>2149.191</ele>
<time>2025-01-30T12:15:12Z</time>
<hdop>4.34</hdop>
</trkpt>
<trkpt lat="47.4354149" lon="14.2483619">
<ele>2148.177</ele>
<time>2025-01-30T12:15:42Z</time>
<hdop>4.84</hdop>
</trkpt>
<trkpt lat="47.4352069" lon="14.2485018">
<ele>2141.676</ele>
<time>2025-01-30T12:16:12Z</time>
<hdop>4.11</hdop>
</trkpt>
<trkpt lat="47.4350728" lon="14.249003">
<ele>2123.383</ele>
<time>2025-01-30T12:16:42Z</time>
<hdop>3.79</hdop>
</trkpt>
<trkpt lat="47.4349471" lon="14.2498093">
<ele>1973.048</ele>
<time>2025-01-30T12:17:42Z</time>
<hdop>5.86</hdop>
</trkpt>
<trkpt lat="47.4352653" lon="14.2499617">
<ele>2029.023</ele>
<time>2025-01-30T12:18:12Z</time>
<hdop>8.46</hdop>
</trkpt>
<trkpt lat="47.4353123" lon="14.2502355">
<ele>2061.713</ele>
<time>2025-01-30T12:18:42Z</time>
<hdop>11.18</hdop>
</trkpt>
<trkpt lat="47.4358354" lon="14.250499">
<ele>2031.8</ele>
<time>2025-01-30T12:19:13Z</time>
<hdop>14.38</hdop>
</trkpt>
<trkpt lat="47.4359579" lon="14.2506223">
<ele>2003.677</ele>
<time>2025-01-30T12:19:43Z</time>
<hdop>5.34</hdop>
</trkpt>
<trkpt lat="47.4370863" lon="14.2511841">
<ele>1933.137</ele>
<time>2025-01-30T12:20:42Z</time>
<hdop>6.37</hdop>
</trkpt>
<trkpt lat="47.4374731" lon="14.2525021">
<ele>1856.082</ele>
<time>2025-01-30T12:21:42Z</time>
<hdop>10.41</hdop>
</trkpt>
<trkpt lat="47.4380464" lon="14.2527334">
<ele>1914.218</ele>
<time>2025-01-30T12:22:12Z</time>
<hdop>7.4</hdop>
</trkpt>
<trkpt lat="47.4384201" lon="14.2530897">
<ele>1905.272</ele>
<time>2025-01-30T12:22:42Z</time>
<hdop>6.89</hdop>
</trkpt>
<trkpt lat="47.4392633" lon="14.2544205">
<ele>1854.632</ele>
<time>2025-01-30T12:23:14Z</time>
<hdop>22.17</hdop>
</trkpt>
<trkpt lat="47.4396102" lon="14.2551346">
<ele>1799.139</ele>
<time>2025-01-30T12:24:13Z</time>
<hdop>20.49</hdop>
</trkpt>
<trkpt lat="47.4394579" lon="14.2560269">
<ele>1793.364</ele>
<time>2025-01-30T12:25:12Z</time>
<hdop>5.35</hdop>
</trkpt>
<trkpt lat="47.4394987" lon="14.2559063">
<ele>1781.786</ele>
<time>2025-01-30T12:25:42Z</time>
<hdop>9.16</hdop>
</trkpt>
<trkpt lat="47.4392927" lon="14.2557586">
<ele>1776.592</ele>
<time>2025-01-30T12:26:12Z</time>
<hdop>8.75</hdop>
</trkpt>
<trkpt lat="47.4392632" lon="14.2561049">
<ele>1736.361</ele>
<time>2025-01-30T12:26:42Z</time>
<hdop>7.27</hdop>
</trkpt>
<trkpt lat="47.439399" lon="14.2562043">
<ele>1774.813</ele>
<time>2025-01-30T12:27:42Z</time>
<hdop>10.59</hdop>
</trkpt>
<trkpt lat="47.4395118" lon="14.2563658">
<ele>1777.046</ele>
<time>2025-01-30T12:28:13Z</time>
<hdop>10.91</hdop>
</trkpt>
<trkpt lat="47.4390652" lon="14.256728">
<ele>1687.001</ele>
<time>2025-01-30T12:29:13Z</time>
<hdop>17.06</hdop>
</trkpt>
<trkpt lat="47.4394565" lon="14.2571201">
<ele>1752.956</ele>
<time>2025-01-30T12:30:12Z</time>
<hdop>9.79</hdop>
</trkpt>
<trkpt lat="47.439628" lon="14.2573977">
<ele>1754.015</ele>
<time>2025-01-30T12:30:42Z</time>
<hdop>6.38</hdop>
</trkpt>
<trkpt lat="47.439592" lon="14.2578255">
<ele>1727.811</ele>
<time>2025-01-30T12:31:12Z</time>
<hdop>5.47</hdop>
</trkpt>
<trkpt lat="47.4399861" lon="14.2581431">
<ele>1741.836</ele>
<time>2025-01-30T12:31:42Z</time>
<hdop>7.23</hdop>
</trkpt>
<trkpt lat="47.4407346" lon="14.2581201">
<ele>1693.243</ele>
<time>2025-01-30T12:32:42Z</time>
<hdop>4.93</hdop>
</trkpt>
<trkpt lat="47.441096" lon="14.2576774">
<ele>1686.98</ele>
<time>2025-01-30T12:33:14Z</time>
<hdop>19.84</hdop>
</trkpt>
<trkpt lat="47.441116" lon="14.2573616">
<ele>1677.984</ele>
<time>2025-01-30T12:34:13Z</time>
<hdop>10.66</hdop>
</trkpt>
<trkpt lat="47.4429107" lon="14.2576046">
<ele>1655.727</ele>
<time>2025-01-30T12:35:13Z</time>
<hdop>14.38</hdop>
</trkpt>
<trkpt lat="47.4430023" lon="14.2577526">
<ele>1640.953</ele>
<time>2025-01-30T12:35:44Z</time>
<hdop>12.75</hdop>
</trkpt>
<trkpt lat="47.4440431" lon="14.2581645">
<ele>1630.136</ele>
<time>2025-01-30T12:36:42Z</time>
<hdop>7.22</hdop>
</trkpt>
<trkpt lat="47.4445586" lon="14.2586866">
<ele>1620.599</ele>
<time>2025-01-30T12:37:13Z</time>
<hdop>9.55</hdop>
</trkpt>
<trkpt lat="47.4448057" lon="14.2592072">
<ele>1639.368</ele>
<time>2025-01-30T12:37:43Z</time>
<hdop>20.64</hdop>
</trkpt>
<trkpt lat="47.4457674" lon="14.2574874">
<ele>1564.084</ele>
<time>2025-01-30T12:38:42Z</time>
<hdop>9.2</hdop>
</trkpt>
<trkpt lat="47.4465602" lon="14.257881">
<ele>1601.521</ele>
<time>2025-01-30T12:39:13Z</time>
<hdop>9.3</hdop>
</trkpt>
<trkpt lat="47.4472328" lon="14.2579829">
<ele>1584.419</ele>
<time>2025-01-30T12:39:43Z</time>
<hdop>14.85</hdop>
</trkpt>
<trkpt lat="47.4483404" lon="14.2583279">
<ele>1543.619</ele>
<time>2025-01-30T12:40:43Z</time>
<hdop>11.75</hdop>
</trkpt>
<trkpt lat="47.4498634" lon="14.2594675">
<ele>1542.304</ele>
<time>2025-01-30T12:41:43Z</time>
<hdop>13.2</hdop>
</trkpt>
<trkpt lat="47.4498581" lon="14.2594176">
<ele>1670.56</ele>
<time>2025-01-30T12:42:13Z</time>
<hdop>15.9</hdop>
</trkpt>
<trkpt lat="47.4501677" lon="14.260386">
<ele>1525.43</ele>
<time>2025-01-30T12:43:12Z</time>
<hdop>5.44</hdop>
</trkpt>
<trkpt lat="47.4504635" lon="14.2606913">
<ele>1492.55</ele>
<time>2025-01-30T12:43:43Z</time>
<hdop>7.53</hdop>
</trkpt>
<trkpt lat="47.4510958" lon="14.2609409">
<ele>1485.815</ele>
<time>2025-01-30T12:44:13Z</time>
<hdop>9.03</hdop>
</trkpt>
<trkpt lat="47.4519892" lon="14.2621027">
<ele>1451.15</ele>
<time>2025-01-30T12:45:13Z</time>
<hdop>6.16</hdop>
</trkpt>
<trkpt lat="47.4522534" lon="14.2637478">
<ele>1449.573</ele>
<time>2025-01-30T12:45:43Z</time>
<hdop>18.27</hdop>
</trkpt>
<trkpt lat="47.4537335" lon="14.2669339">
<ele>1378.409</ele>
<time>2025-01-30T12:46:43Z</time>
<hdop>16.63</hdop>
</trkpt>
<trkpt lat="47.4538124" lon="14.2669325">
<ele>1347.43</ele>
<time>2025-01-30T12:47:42Z</time>
<hdop>6.81</hdop>
</trkpt>
<trkpt lat="47.4544651" lon="14.2692993">
<ele>1303.221</ele>
<time>2025-01-30T12:48:13Z</time>
<hdop>6.67</hdop>
</trkpt>
<trkpt lat="47.4556054" lon="14.2707492">
<ele>1283.196</ele>
<time>2025-01-30T12:48:43Z</time>
<hdop>10.51</hdop>
</trkpt>
<trkpt lat="47.4559132" lon="14.271617">
<ele>1574.208</ele>
<time>2025-01-30T12:49:42Z</time>
<hdop>9.72</hdop>
</trkpt>
<trkpt lat="47.4557507" lon="14.2720912">
<ele>1303.639</ele>
<time>2025-01-30T12:50:12Z</time>
<hdop>7.77</hdop>
</trkpt>
<trkpt lat="47.4558064" lon="14.2721385">
<ele>1296.212</ele>
<time>2025-01-30T12:50:42Z</time>
<hdop>3.79</hdop>
</trkpt>
<trkpt lat="47.4558097" lon="14.272159">
<ele>1292.543</ele>
<time>2025-01-30T12:51:12Z</time>
<hdop>4.17</hdop>
</trkpt>
<trkpt lat="47.4558101" lon="14.2721599">
<ele>1292.434</ele>
<time>2025-01-30T12:51:42Z</time>
<hdop>4.54</hdop>
</trkpt>
<trkpt lat="47.4559405" lon="14.2725774">
<ele>1291.502</ele>
<time>2025-01-30T12:52:12Z</time>
<hdop>4.31</hdop>
</trkpt>
<trkpt lat="47.4568707" lon="14.2747683">
<ele>1265.896</ele>
<time>2025-01-30T12:52:42Z</time>
<hdop>5.93</hdop>
</trkpt>
<trkpt lat="47.4581362" lon="14.2780915">
<ele>1244.667</ele>
<time>2025-01-30T12:53:12Z</time>
<hdop>10.71</hdop>
</trkpt>
<trkpt lat="47.4597682" lon="14.2784409">
<ele>1224.961</ele>
<time>2025-01-30T12:53:42Z</time>
<hdop>10.3</hdop>
</trkpt>
<trkpt lat="47.459998" lon="14.2787932">
<ele>1218.866</ele>
<time>2025-01-30T12:54:12Z</time>
<hdop>10.18</hdop>
</trkpt>
<trkpt lat="47.4603241" lon="14.2789564">
<ele>1217.019</ele>
<time>2025-01-30T12:54:42Z</time>
<hdop>5.15</hdop>
</trkpt>
<trkpt lat="47.4610754" lon="14.2792725">
<ele>1217.331</ele>
<time>2025-01-30T12:55:12Z</time>
<hdop>4.55</hdop>
</trkpt>
<trkpt lat="47.4621601" lon="14.2799675">
<ele>1498.489</ele>
<time>2025-01-30T12:55:46Z</time>
<hdop>14.21</hdop>
</trkpt>
<trkpt lat="47.4620313" lon="14.280056">
<ele>1323.761</ele>
<time>2025-01-30T12:56:16Z</time>
<hdop>18.55</hdop>
</trkpt>
<trkpt lat="47.4619428" lon="14.2799842">
<ele>1240.0</ele>
<time>2025-01-30T12:57:16Z</time>
<hdop>23.31</hdop>
</trkpt>
<trkpt lat="47.4620684" lon="14.2798647">
<ele>1211.221</ele>
<time>2025-01-30T12:58:17Z</time>
<hdop>36.35</hdop>
</trkpt>
<trkpt lat="47.4642738" lon="14.280376">
<ele>1190.794</ele>
<time>2025-01-30T12:59:15Z</time>
<hdop>15.11</hdop>
</trkpt>
<trkpt lat="47.464863" lon="14.2804685">
<ele>1169.011</ele>
<time>2025-01-30T12:59:49Z</time>
<hdop>23.58</hdop>
</trkpt>
<trkpt lat="47.4648138" lon="14.2805393">
<ele>1155.636</ele>
<time>2025-01-30T13:00:19Z</time>
<hdop>15.2</hdop>
</trkpt>
<trkpt lat="47.4646777" lon="14.2806077">
<ele>1164.646</ele>
<time>2025-01-30T13:00:49Z</time>
<hdop>18.96</hdop>
</trkpt>
<trkpt lat="47.4640983" lon="14.2808944">
<ele>1160.699</ele>
<time>2025-01-30T13:01:19Z</time>
<hdop>18.32</hdop>
</trkpt>
<trkpt lat="47.4637194" lon="14.2811434">
<ele>1122.122</ele>
<time>2025-01-30T13:01:49Z</time>
<hdop>13.15</hdop>
</trkpt>
<trkpt lat="47.4633631" lon="14.2814879">
<ele>1132.79</ele>
<time>2025-01-30T13:02:19Z</time>
<hdop>10.76</hdop>
</trkpt>
<trkpt lat="47.4625481" lon="14.2814596">
<ele>1080.29</ele>
<time>2025-01-30T13:03:19Z</time>
<hdop>11.53</hdop>
</trkpt>
<trkpt lat="47.4622762" lon="14.2817315">
<ele>1114.333</ele>
<time>2025-01-30T13:03:49Z</time>
<hdop>13.54</hdop>
</trkpt>
<trkpt lat="47.4621735" lon="14.2817492">
<ele>1099.915</ele>
<time>2025-01-30T13:04:19Z</time>
<hdop>9.79</hdop>
</trkpt>
<trkpt lat="47.4617253" lon="14.2818393">
<ele>1107.852</ele>
<time>2025-01-30T13:04:49Z</time>
<hdop>8.48</hdop>
</trkpt>
<trkpt lat="47.4613411" lon="14.2818769">
<ele>1092.43</ele>
<time>2025-01-30T13:05:49Z</time>
<hdop>10.15</hdop>
</trkpt>
<trkpt lat="47.4609684" lon="14.2819437">
<ele>1065.233</ele>
<time>2025-01-30T13:06:19Z</time>
<hdop>12.43</hdop>
</trkpt>
<trkpt lat="47.4606909" lon="14.2817915">
<ele>1089.242</ele>
<time>2025-01-30T13:06:49Z</time>
<hdop>11.53</hdop>
</trkpt>
<trkpt lat="47.4605513" lon="14.2818021">
<ele>1083.631</ele>
<time>2025-01-30T13:07:19Z</time>
<hdop>18.96</hdop>
</trkpt>
<trkpt lat="47.46003" lon="14.2821382">
<ele>1094.35</ele>
<time>2025-01-30T13:07:49Z</time>
<hdop>12.7</hdop>
</trkpt>
<trkpt lat="47.459696" lon="14.2819482">
<ele>1073.036</ele>
<time>2025-01-30T13:08:19Z</time>
<hdop>18.57</hdop>
</trkpt>
<trkpt lat="47.4594687" lon="14.2822339">
<ele>1090.267</ele>
<time>2025-01-30T13:08:49Z</time>
<hdop>12.95</hdop>
</trkpt>
<trkpt lat="47.4594987" lon="14.2822147">
<ele>1084.323</ele>
<time>2025-01-30T13:09:19Z</time>
<hdop>16.54</hdop>
</trkpt>
<trkpt lat="47.4595274" lon="14.2821384">
<ele>1087.244</ele>
<time>2025-01-30T13:09:49Z</time>
<hdop>15.63</hdop>
</trkpt>
<trkpt lat="47.459542" lon="14.2830695">
<ele>1082.085</ele>
<time>2025-01-30T13:10:18Z</time>
<hdop>5.8</hdop>
</trkpt>
<trkpt lat="47.4595523" lon="14.2842643">
<ele>1045.771</ele>
<time>2025-01-30T13:10:50Z</time>
<hdop>6.83</hdop>
</trkpt>
<trkpt lat="47.4595135" lon="14.2860195">
<ele>1011.864</ele>
<time>2025-01-30T13:11:20Z</time>
<hdop>12.51</hdop>
</trkpt>
<trkpt lat="47.4599038" lon="14.2865723">
<ele>1022.777</ele>
<time>2025-01-30T13:11:50Z</time>
<hdop>15.65</hdop>
</trkpt>
<trkpt lat="47.4599038" lon="14.2865723">
<ele>1050.716</ele>
<time>2025-01-30T13:12:22Z</time>
<hdop>23.85</hdop>
</trkpt>
<trkpt lat="47.4599038" lon="14.2865723">
<ele>1043.333</ele>
<time>2025-01-30T13:12:52Z</time>
<hdop>30.1</hdop>
</trkpt>
<trkpt lat="47.459879" lon="14.286596">
<ele>1035.667</ele>
<time>2025-01-30T13:13:22Z</time>
<hdop>31.53</hdop>
</trkpt>
<trkpt lat="47.4596748" lon="14.2865835">
<ele>1013.924</ele>
<time>2025-01-30T13:14:21Z</time>
<hdop>14.37</hdop>
</trkpt>
<trkpt lat="47.4596588" lon="14.2865839">
<ele>1010.011</ele>
<time>2025-01-30T13:14:51Z</time>
<hdop>17.98</hdop>
</trkpt>
<trkpt lat="47.4599336" lon="14.2866372">
<ele>1039.171</ele>
<time>2025-01-30T13:15:21Z</time>
<hdop>11.3</hdop>
</trkpt>
<trkpt lat="47.4598983" lon="14.2866296">
<ele>1008.235</ele>
<time>2025-01-30T13:16:21Z</time>
<hdop>19.85</hdop>
</trkpt>
<trkpt lat="47.4596757" lon="14.2867398">
<ele>1030.347</ele>
<time>2025-01-30T13:16:52Z</time>
<hdop>22.49</hdop>
</trkpt>
<trkpt lat="47.4598271" lon="14.2867131">
<ele>1029.465</ele>
<time>2025-01-30T13:17:36Z</time>
<hdop>14.66</hdop>
</trkpt>
</trkseg>
</trk>
</gpx>
