<?xml version="1.0" encoding="UTF-8"?>
<gpx xmlns="http://www.topografix.com/GPX/1/1" version="1.1" creator="AlpineQuest 2.4.0c" xmlns:xsi="http://www.w3.org/2001/XMLSchema-instance" xsi:schemaLocation="http://www.topografix.com/GPX/1/1 http://www.topografix.com/GPX/1/1/gpx.xsd">
<metadata>
<desc>AlpineQuest Track 02.03.25 08:57:57</desc>
<link href="https://www.alpinequest.net" />
<time>2026-01-01T18:40:29Z</time>
</metadata>
<trk>
<name>Ski_Nd.Kreuz</name>
<type>skimo</type>
<extensions>
	<line xmlns="http://www.topografix.com/GPX/gpx_style/0/2">
		<color>0064FF</color>
	</line>
</extensions>
<trkseg>
<trkpt lat="47.5160541" lon="13.6727335">
<ele>1797.615</ele>
<time>2025-03-02T07:57:57Z</time>
<hdop>17.8</hdop>
</trkpt>
<trkpt lat="47.51583" lon="13.6728211">
<ele>1790.335</ele>
<time>2025-03-02T07:58:27Z</time>
<hdop>3.79</hdop>
</trkpt>
<trkpt lat="47.5155917" lon="13.6729022">
<ele>1790.95</ele>
<time>2025-03-02T07:58:57Z</time>
<hdop>3.79</hdop>
</trkpt>
<trkpt lat="47.5153697" lon="13.6728431">
<ele>1794.29</ele>
<time>2025-03-02T07:59:27Z</time>
<hdop>3.79</hdop>
</trkpt>
<trkpt lat="47.5150886" lon="13.672646">
<ele>1791.903</ele>
<time>2025-03-02T07:59:57Z</time>
<hdop>3.79</hdop>
</trkpt>
<trkpt lat="47.51481" lon="13.6723691">
<ele>1794.387</ele>
<time>2025-03-02T08:00:27Z</time>
<hdop>9.94</hdop>
</trkpt>
<trkpt lat="47.5144938" lon="13.6722296">
<ele>1796.225</ele>
<time>2025-03-02T08:00:57Z</time>
<hdop>9.94</hdop>
</trkpt>
<trkpt lat="47.5143993" lon="13.6717375">
<ele>1791.869</ele>
<time>2025-03-02T08:01:27Z</time>
<hdop>3.79</hdop>
</trkpt>
<trkpt lat="47.5145261" lon="13.6711581">
<ele>1792.425</ele>
<time>2025-03-02T08:01:57Z</time>
<hdop>3.79</hdop>
</trkpt>
<trkpt lat="47.514333" lon="13.6706987">
<ele>1794.427</ele>
<time>2025-03-02T08:02:27Z</time>
<hdop>3.79</hdop>
</trkpt>
<trkpt lat="47.5141005" lon="13.6707606">
<ele>1797.097</ele>
<time>2025-03-02T08:02:57Z</time>
<hdop>3.79</hdop>
</trkpt>
<trkpt lat="47.5139504" lon="13.6709992">
<ele>1799.578</ele>
<time>2025-03-02T08:03:27Z</time>
<hdop>3.79</hdop>
</trkpt>
<trkpt lat="47.513795" lon="13.6708046">
<ele>1805.553</ele>
<time>2025-03-02T08:03:57Z</time>
<hdop>3.79</hdop>
</trkpt>
<trkpt lat="47.5135756" lon="13.6704867">
<ele>1810.847</ele>
<time>2025-03-02T08:04:27Z</time>
<hdop>3.79</hdop>
</trkpt>
<trkpt lat="47.5134741" lon="13.6701742">
<ele>1811.965</ele>
<time>2025-03-02T08:04:57Z</time>
<hdop>3.79</hdop>
</trkpt>
<trkpt lat="47.51342" lon="13.6698265">
<ele>1813.491</ele>
<time>2025-03-02T08:05:27Z</time>
<hdop>3.79</hdop>
</trkpt>
<trkpt lat="47.5134672" lon="13.6694567">
<ele>1815.642</ele>
<time>2025-03-02T08:05:57Z</time>
<hdop>10.02</hdop>
</trkpt>
<trkpt lat="47.5134804" lon="13.6690805">
<ele>1819.731</ele>
<time>2025-03-02T08:06:27Z</time>
<hdop>9.94</hdop>
</trkpt>
<trkpt lat="47.5134176" lon="13.6687983">
<ele>1826.142</ele>
<time>2025-03-02T08:06:57Z</time>
<hdop>3.85</hdop>
</trkpt>
<trkpt lat="47.5132341" lon="13.6687402">
<ele>1831.561</ele>
<time>2025-03-02T08:07:27Z</time>
<hdop>3.79</hdop>
</trkpt>
<trkpt lat="47.5130292" lon="13.668705">
<ele>1833.895</ele>
<time>2025-03-02T08:07:57Z</time>
<hdop>3.79</hdop>
</trkpt>
<trkpt lat="47.5126483" lon="13.668657">
<ele>1829.861</ele>
<time>2025-03-02T08:08:27Z</time>
<hdop>3.79</hdop>
</trkpt>
<trkpt lat="47.5122974" lon="13.6683937">
<ele>1824.059</ele>
<time>2025-03-02T08:08:57Z</time>
<hdop>3.79</hdop>
</trkpt>
<trkpt lat="47.5121853" lon="13.6680314">
<ele>1826.349</ele>
<time>2025-03-02T08:09:27Z</time>
<hdop>3.79</hdop>
</trkpt>
<trkpt lat="47.5122338" lon="13.6674072">
<ele>1824.235</ele>
<time>2025-03-02T08:09:57Z</time>
<hdop>3.79</hdop>
</trkpt>
<trkpt lat="47.5123217" lon="13.6669813">
<ele>1817.81</ele>
<time>2025-03-02T08:10:27Z</time>
<hdop>3.79</hdop>
</trkpt>
<trkpt lat="47.512607" lon="13.6664635">
<ele>1815.504</ele>
<time>2025-03-02T08:10:57Z</time>
<hdop>3.79</hdop>
</trkpt>
<trkpt lat="47.5128535" lon="13.6658899">
<ele>1818.974</ele>
<time>2025-03-02T08:11:27Z</time>
<hdop>3.79</hdop>
</trkpt>
<trkpt lat="47.5132099" lon="13.6649922">
<ele>1812.178</ele>
<time>2025-03-02T08:11:57Z</time>
<hdop>3.79</hdop>
</trkpt>
<trkpt lat="47.5135545" lon="13.6642869">
<ele>1810.072</ele>
<time>2025-03-02T08:12:27Z</time>
<hdop>3.79</hdop>
</trkpt>
<trkpt lat="47.5138716" lon="13.6637529">
<ele>1808.466</ele>
<time>2025-03-02T08:12:57Z</time>
<hdop>9.94</hdop>
</trkpt>
<trkpt lat="47.5139785" lon="13.6631926">
<ele>1807.491</ele>
<time>2025-03-02T08:13:27Z</time>
<hdop>9.94</hdop>
</trkpt>
<trkpt lat="47.5136255" lon="13.6628596">
<ele>1803.634</ele>
<time>2025-03-02T08:13:57Z</time>
<hdop>9.94</hdop>
</trkpt>
<trkpt lat="47.513553" lon="13.6624856">
<ele>1799.886</ele>
<time>2025-03-02T08:14:27Z</time>
<hdop>9.94</hdop>
</trkpt>
<trkpt lat="47.5136005" lon="13.6618624">
<ele>1789.053</ele>
<time>2025-03-02T08:14:57Z</time>
<hdop>3.79</hdop>
</trkpt>
<trkpt lat="47.5138771" lon="13.6612535">
<ele>1786.136</ele>
<time>2025-03-02T08:15:27Z</time>
<hdop>3.79</hdop>
</trkpt>
<trkpt lat="47.5141861" lon="13.6605578">
<ele>1777.392</ele>
<time>2025-03-02T08:15:57Z</time>
<hdop>10.19</hdop>
</trkpt>
<trkpt lat="47.5144075" lon="13.6601202">
<ele>1780.85</ele>
<time>2025-03-02T08:16:27Z</time>
<hdop>10.06</hdop>
</trkpt>
<trkpt lat="47.5144377" lon="13.6599402">
<ele>1781.271</ele>
<time>2025-03-02T08:16:57Z</time>
<hdop>9.94</hdop>
</trkpt>
<trkpt lat="47.5145981" lon="13.6596261">
<ele>1784.606</ele>
<time>2025-03-02T08:17:27Z</time>
<hdop>9.94</hdop>
</trkpt>
<trkpt lat="47.5148904" lon="13.6591355">
<ele>1782.525</ele>
<time>2025-03-02T08:17:57Z</time>
<hdop>9.94</hdop>
</trkpt>
<trkpt lat="47.5150057" lon="13.6587524">
<ele>1780.207</ele>
<time>2025-03-02T08:18:27Z</time>
<hdop>9.94</hdop>
</trkpt>
<trkpt lat="47.5150377" lon="13.6582954">
<ele>1775.419</ele>
<time>2025-03-02T08:18:57Z</time>
<hdop>9.94</hdop>
</trkpt>
<trkpt lat="47.5147889" lon="13.6576631">
<ele>1767.698</ele>
<time>2025-03-02T08:19:27Z</time>
<hdop>9.94</hdop>
</trkpt>
<trkpt lat="47.5152" lon="13.657319">
<ele>1764.823</ele>
<time>2025-03-02T08:19:57Z</time>
<hdop>10.12</hdop>
</trkpt>
<trkpt lat="47.5154188" lon="13.6571996">
<ele>1780.738</ele>
<time>2025-03-02T08:20:27Z</time>
<hdop>10.23</hdop>
</trkpt>
<trkpt lat="47.515654" lon="13.6570536">
<ele>1774.64</ele>
<time>2025-03-02T08:20:57Z</time>
<hdop>9.94</hdop>
</trkpt>
<trkpt lat="47.515839" lon="13.656921">
<ele>1778.974</ele>
<time>2025-03-02T08:21:27Z</time>
<hdop>9.94</hdop>
</trkpt>
<trkpt lat="47.5160376" lon="13.6566269">
<ele>1779.301</ele>
<time>2025-03-02T08:21:57Z</time>
<hdop>9.94</hdop>
</trkpt>
<trkpt lat="47.5161695" lon="13.6562473">
<ele>1785.353</ele>
<time>2025-03-02T08:22:27Z</time>
<hdop>9.94</hdop>
</trkpt>
<trkpt lat="47.5164106" lon="13.655613">
<ele>1778.97</ele>
<time>2025-03-02T08:22:57Z</time>
<hdop>10.38</hdop>
</trkpt>
<trkpt lat="47.5165192" lon="13.6554548">
<ele>1778.559</ele>
<time>2025-03-02T08:23:27Z</time>
<hdop>9.94</hdop>
</trkpt>
<trkpt lat="47.5164292" lon="13.6551315">
<ele>1785.461</ele>
<time>2025-03-02T08:23:57Z</time>
<hdop>9.94</hdop>
</trkpt>
<trkpt lat="47.5162255" lon="13.6552074">
<ele>1790.442</ele>
<time>2025-03-02T08:24:27Z</time>
<hdop>10.08</hdop>
</trkpt>
<trkpt lat="47.5162433" lon="13.6550204">
<ele>1793.71</ele>
<time>2025-03-02T08:24:57Z</time>
<hdop>3.79</hdop>
</trkpt>
<trkpt lat="47.5161022" lon="13.6547974">
<ele>1798.319</ele>
<time>2025-03-02T08:25:27Z</time>
<hdop>3.79</hdop>
</trkpt>
<trkpt lat="47.5161083" lon="13.6544814">
<ele>1800.239</ele>
<time>2025-03-02T08:25:57Z</time>
<hdop>3.79</hdop>
</trkpt>
<trkpt lat="47.5160255" lon="13.6541451">
<ele>1804.512</ele>
<time>2025-03-02T08:26:27Z</time>
<hdop>9.94</hdop>
</trkpt>
<trkpt lat="47.5159275" lon="13.6538571">
<ele>1807.889</ele>
<time>2025-03-02T08:26:57Z</time>
<hdop>9.94</hdop>
</trkpt>
<trkpt lat="47.5157338" lon="13.6536955">
<ele>1812.07</ele>
<time>2025-03-02T08:27:27Z</time>
<hdop>3.79</hdop>
</trkpt>
<trkpt lat="47.5157652" lon="13.6533662">
<ele>1816.41</ele>
<time>2025-03-02T08:27:57Z</time>
<hdop>3.79</hdop>
</trkpt>
<trkpt lat="47.5157495" lon="13.652998">
<ele>1816.553</ele>
<time>2025-03-02T08:28:27Z</time>
<hdop>9.94</hdop>
</trkpt>
<trkpt lat="47.5157623" lon="13.6526837">
<ele>1820.73</ele>
<time>2025-03-02T08:28:57Z</time>
<hdop>9.94</hdop>
</trkpt>
<trkpt lat="47.515472" lon="13.6522776">
<ele>1824.252</ele>
<time>2025-03-02T08:29:27Z</time>
<hdop>9.94</hdop>
</trkpt>
<trkpt lat="47.5153607" lon="13.6517293">
<ele>1820.002</ele>
<time>2025-03-02T08:29:57Z</time>
<hdop>9.94</hdop>
</trkpt>
<trkpt lat="47.5151333" lon="13.6513188">
<ele>1819.498</ele>
<time>2025-03-02T08:30:27Z</time>
<hdop>9.94</hdop>
</trkpt>
<trkpt lat="47.5149526" lon="13.6509766">
<ele>1821.908</ele>
<time>2025-03-02T08:30:57Z</time>
<hdop>9.94</hdop>
</trkpt>
<trkpt lat="47.5147934" lon="13.6507087">
<ele>1824.905</ele>
<time>2025-03-02T08:31:27Z</time>
<hdop>9.94</hdop>
</trkpt>
<trkpt lat="47.5146929" lon="13.6505035">
<ele>1829.13</ele>
<time>2025-03-02T08:31:57Z</time>
<hdop>9.94</hdop>
</trkpt>
<trkpt lat="47.5145059" lon="13.6503865">
<ele>1833.173</ele>
<time>2025-03-02T08:32:27Z</time>
<hdop>3.79</hdop>
</trkpt>
<trkpt lat="47.5144962" lon="13.6503867">
<ele>1834.579</ele>
<time>2025-03-02T08:32:57Z</time>
<hdop>3.79</hdop>
</trkpt>
<trkpt lat="47.5144604" lon="13.6503447">
<ele>1835.703</ele>
<time>2025-03-02T08:33:27Z</time>
<hdop>3.79</hdop>
</trkpt>
<trkpt lat="47.5143214" lon="13.649958">
<ele>1837.682</ele>
<time>2025-03-02T08:33:57Z</time>
<hdop>3.79</hdop>
</trkpt>
<trkpt lat="47.5141329" lon="13.6494345">
<ele>1833.89</ele>
<time>2025-03-02T08:34:27Z</time>
<hdop>9.94</hdop>
</trkpt>
<trkpt lat="47.5137798" lon="13.6491071">
<ele>1834.191</ele>
<time>2025-03-02T08:34:57Z</time>
<hdop>9.94</hdop>
</trkpt>
<trkpt lat="47.5135509" lon="13.6488485">
<ele>1834.547</ele>
<time>2025-03-02T08:35:27Z</time>
<hdop>9.94</hdop>
</trkpt>
<trkpt lat="47.5133565" lon="13.6485873">
<ele>1837.128</ele>
<time>2025-03-02T08:35:57Z</time>
<hdop>9.94</hdop>
</trkpt>
<trkpt lat="47.5131714" lon="13.6486113">
<ele>1838.675</ele>
<time>2025-03-02T08:36:27Z</time>
<hdop>9.94</hdop>
</trkpt>
<trkpt lat="47.5129069" lon="13.6484832">
<ele>1841.681</ele>
<time>2025-03-02T08:36:57Z</time>
<hdop>9.94</hdop>
</trkpt>
<trkpt lat="47.5127961" lon="13.6481778">
<ele>1842.214</ele>
<time>2025-03-02T08:37:27Z</time>
<hdop>9.94</hdop>
</trkpt>
<trkpt lat="47.5125255" lon="13.6478133">
<ele>1843.276</ele>
<time>2025-03-02T08:37:57Z</time>
<hdop>9.94</hdop>
</trkpt>
<trkpt lat="47.5122786" lon="13.6477108">
<ele>1844.45</ele>
<time>2025-03-02T08:38:27Z</time>
<hdop>3.79</hdop>
</trkpt>
<trkpt lat="47.5117769" lon="13.646895">
<ele>1834.042</ele>
<time>2025-03-02T08:38:57Z</time>
<hdop>3.79</hdop>
</trkpt>
<trkpt lat="47.5115271" lon="13.6465513">
<ele>1834.879</ele>
<time>2025-03-02T08:39:27Z</time>
<hdop>3.79</hdop>
</trkpt>
<trkpt lat="47.5115269" lon="13.6462699">
<ele>1835.482</ele>
<time>2025-03-02T08:39:57Z</time>
<hdop>3.79</hdop>
</trkpt>
<trkpt lat="47.5114787" lon="13.6460968">
<ele>1837.552</ele>
<time>2025-03-02T08:40:27Z</time>
<hdop>9.94</hdop>
</trkpt>
<trkpt lat="47.5115168" lon="13.645659">
<ele>1838.226</ele>
<time>2025-03-02T08:40:57Z</time>
<hdop>9.94</hdop>
</trkpt>
<trkpt lat="47.511426" lon="13.645279">
<ele>1837.97</ele>
<time>2025-03-02T08:41:27Z</time>
<hdop>9.94</hdop>
</trkpt>
<trkpt lat="47.5115179" lon="13.6448131">
<ele>1838.267</ele>
<time>2025-03-02T08:41:57Z</time>
<hdop>9.94</hdop>
</trkpt>
<trkpt lat="47.5114704" lon="13.6443523">
<ele>1837.471</ele>
<time>2025-03-02T08:42:27Z</time>
<hdop>9.94</hdop>
</trkpt>
<trkpt lat="47.5113769" lon="13.6439916">
<ele>1838.011</ele>
<time>2025-03-02T08:42:57Z</time>
<hdop>9.94</hdop>
</trkpt>
<trkpt lat="47.5113337" lon="13.643438">
<ele>1834.573</ele>
<time>2025-03-02T08:43:27Z</time>
<hdop>9.94</hdop>
</trkpt>
<trkpt lat="47.5115293" lon="13.6429135">
<ele>1834.915</ele>
<time>2025-03-02T08:43:57Z</time>
<hdop>9.94</hdop>
</trkpt>
<trkpt lat="47.5115309" lon="13.6427243">
<ele>1839.527</ele>
<time>2025-03-02T08:44:27Z</time>
<hdop>3.79</hdop>
</trkpt>
<trkpt lat="47.5114282" lon="13.6420509">
<ele>1835.719</ele>
<time>2025-03-02T08:44:57Z</time>
<hdop>3.79</hdop>
</trkpt>
<trkpt lat="47.5113834" lon="13.6417427">
<ele>1842.391</ele>
<time>2025-03-02T08:45:27Z</time>
<hdop>9.94</hdop>
</trkpt>
<trkpt lat="47.5114539" lon="13.6415214">
<ele>1844.419</ele>
<time>2025-03-02T08:45:57Z</time>
<hdop>9.94</hdop>
</trkpt>
<trkpt lat="47.5114805" lon="13.6410757">
<ele>1843.358</ele>
<time>2025-03-02T08:46:27Z</time>
<hdop>9.94</hdop>
</trkpt>
<trkpt lat="47.5114595" lon="13.6408372">
<ele>1848.764</ele>
<time>2025-03-02T08:46:57Z</time>
<hdop>9.94</hdop>
</trkpt>
<trkpt lat="47.5113995" lon="13.6404871">
<ele>1850.847</ele>
<time>2025-03-02T08:47:27Z</time>
<hdop>3.79</hdop>
</trkpt>
<trkpt lat="47.5114071" lon="13.6400176">
<ele>1852.084</ele>
<time>2025-03-02T08:47:57Z</time>
<hdop>3.79</hdop>
</trkpt>
<trkpt lat="47.5115987" lon="13.6397471">
<ele>1854.343</ele>
<time>2025-03-02T08:48:27Z</time>
<hdop>9.94</hdop>
</trkpt>
<trkpt lat="47.5117792" lon="13.6395826">
<ele>1852.396</ele>
<time>2025-03-02T08:48:57Z</time>
<hdop>9.94</hdop>
</trkpt>
<trkpt lat="47.5119293" lon="13.6394068">
<ele>1858.853</ele>
<time>2025-03-02T08:49:27Z</time>
<hdop>9.94</hdop>
</trkpt>
<trkpt lat="47.5119784" lon="13.6390538">
<ele>1862.02</ele>
<time>2025-03-02T08:49:57Z</time>
<hdop>9.94</hdop>
</trkpt>
<trkpt lat="47.5120295" lon="13.6388302">
<ele>1861.203</ele>
<time>2025-03-02T08:50:27Z</time>
<hdop>9.94</hdop>
</trkpt>
<trkpt lat="47.5118333" lon="13.6383552">
<ele>1848.453</ele>
<time>2025-03-02T08:50:57Z</time>
<hdop>9.94</hdop>
</trkpt>
<trkpt lat="47.5117642" lon="13.6379778">
<ele>1863.972</ele>
<time>2025-03-02T08:51:27Z</time>
<hdop>9.94</hdop>
</trkpt>
<trkpt lat="47.5117945" lon="13.6376869">
<ele>1869.1</ele>
<time>2025-03-02T08:51:57Z</time>
<hdop>9.94</hdop>
</trkpt>
<trkpt lat="47.5118518" lon="13.6374272">
<ele>1872.147</ele>
<time>2025-03-02T08:52:27Z</time>
<hdop>9.94</hdop>
</trkpt>
<trkpt lat="47.5120234" lon="13.6371822">
<ele>1875.899</ele>
<time>2025-03-02T08:52:57Z</time>
<hdop>9.94</hdop>
</trkpt>
<trkpt lat="47.5120362" lon="13.6368104">
<ele>1878.776</ele>
<time>2025-03-02T08:53:27Z</time>
<hdop>9.94</hdop>
</trkpt>
<trkpt lat="47.5120415" lon="13.6365156">
<ele>1881.352</ele>
<time>2025-03-02T08:53:57Z</time>
<hdop>9.94</hdop>
</trkpt>
<trkpt lat="47.511966" lon="13.6362512">
<ele>1888.672</ele>
<time>2025-03-02T08:54:27Z</time>
<hdop>3.79</hdop>
</trkpt>
<trkpt lat="47.511974" lon="13.6360267">
<ele>1893.936</ele>
<time>2025-03-02T08:54:57Z</time>
<hdop>3.79</hdop>
</trkpt>
<trkpt lat="47.5118932" lon="13.635904">
<ele>1896.49</ele>
<time>2025-03-02T08:55:27Z</time>
<hdop>9.94</hdop>
</trkpt>
<trkpt lat="47.5119504" lon="13.6357379">
<ele>1900.71</ele>
<time>2025-03-02T08:55:57Z</time>
<hdop>3.79</hdop>
</trkpt>
<trkpt lat="47.5118777" lon="13.635528">
<ele>1905.35</ele>
<time>2025-03-02T08:56:27Z</time>
<hdop>3.79</hdop>
</trkpt>
<trkpt lat="47.5117536" lon="13.6353286">
<ele>1911.852</ele>
<time>2025-03-02T08:56:57Z</time>
<hdop>3.79</hdop>
</trkpt>
<trkpt lat="47.511738" lon="13.6352082">
<ele>1912.232</ele>
<time>2025-03-02T08:57:27Z</time>
<hdop>3.79</hdop>
</trkpt>
<trkpt lat="47.511738" lon="13.6352082">
<ele>1912.675</ele>
<time>2025-03-02T08:57:57Z</time>
<hdop>3.79</hdop>
</trkpt>
<trkpt lat="47.511738" lon="13.6352082">
<ele>1912.96</ele>
<time>2025-03-02T08:58:27Z</time>
<hdop>3.79</hdop>
</trkpt>
<trkpt lat="47.511738" lon="13.6352082">
<ele>1912.869</ele>
<time>2025-03-02T08:58:57Z</time>
<hdop>9.94</hdop>
</trkpt>
<trkpt lat="47.511738" lon="13.6352082">
<ele>1912.506</ele>
<time>2025-03-02T08:59:27Z</time>
<hdop>9.94</hdop>
</trkpt>
<trkpt lat="47.511738" lon="13.6352082">
<ele>1913.206</ele>
<time>2025-03-02T08:59:57Z</time>
<hdop>9.94</hdop>
</trkpt>
<trkpt lat="47.511738" lon="13.6352082">
<ele>1913.544</ele>
<time>2025-03-02T09:00:27Z</time>
<hdop>9.94</hdop>
</trkpt>
<trkpt lat="47.5117357" lon="13.6351924">
<ele>1913.965</ele>
<time>2025-03-02T09:00:57Z</time>
<hdop>3.79</hdop>
</trkpt>
<trkpt lat="47.5117396" lon="13.6351888">
<ele>1914.468</ele>
<time>2025-03-02T09:01:27Z</time>
<hdop>3.79</hdop>
</trkpt>
<trkpt lat="47.5117372" lon="13.6350376">
<ele>1917.278</ele>
<time>2025-03-02T09:01:57Z</time>
<hdop>3.79</hdop>
</trkpt>
<trkpt lat="47.5116032" lon="13.6347206">
<ele>1918.129</ele>
<time>2025-03-02T09:02:27Z</time>
<hdop>3.79</hdop>
</trkpt>
<trkpt lat="47.5116266" lon="13.6345141">
<ele>1921.522</ele>
<time>2025-03-02T09:02:57Z</time>
<hdop>9.94</hdop>
</trkpt>
<trkpt lat="47.5115533" lon="13.6342522">
<ele>1929.838</ele>
<time>2025-03-02T09:03:27Z</time>
<hdop>3.79</hdop>
</trkpt>
<trkpt lat="47.5114351" lon="13.6339889">
<ele>1933.715</ele>
<time>2025-03-02T09:03:57Z</time>
<hdop>3.79</hdop>
</trkpt>
<trkpt lat="47.5115025" lon="13.6337927">
<ele>1933.941</ele>
<time>2025-03-02T09:04:27Z</time>
<hdop>3.79</hdop>
</trkpt>
<trkpt lat="47.5116762" lon="13.6335116">
<ele>1918.658</ele>
<time>2025-03-02T09:04:57Z</time>
<hdop>9.94</hdop>
</trkpt>
<trkpt lat="47.5117076" lon="13.633151">
<ele>1938.72</ele>
<time>2025-03-02T09:05:27Z</time>
<hdop>3.79</hdop>
</trkpt>
<trkpt lat="47.511866" lon="13.6326972">
<ele>1940.017</ele>
<time>2025-03-02T09:05:57Z</time>
<hdop>3.79</hdop>
</trkpt>
<trkpt lat="47.5119819" lon="13.6323121">
<ele>1942.499</ele>
<time>2025-03-02T09:06:27Z</time>
<hdop>3.79</hdop>
</trkpt>
<trkpt lat="47.5120043" lon="13.6319983">
<ele>1946.248</ele>
<time>2025-03-02T09:06:57Z</time>
<hdop>3.79</hdop>
</trkpt>
<trkpt lat="47.5120669" lon="13.6317044">
<ele>1947.375</ele>
<time>2025-03-02T09:07:27Z</time>
<hdop>3.79</hdop>
</trkpt>
<trkpt lat="47.5121007" lon="13.6314756">
<ele>1954.28</ele>
<time>2025-03-02T09:07:57Z</time>
<hdop>3.79</hdop>
</trkpt>
<trkpt lat="47.5120364" lon="13.6312381">
<ele>1960.707</ele>
<time>2025-03-02T09:08:27Z</time>
<hdop>3.79</hdop>
</trkpt>
<trkpt lat="47.5119456" lon="13.6305312">
<ele>1958.452</ele>
<time>2025-03-02T09:08:57Z</time>
<hdop>3.79</hdop>
</trkpt>
<trkpt lat="47.5119569" lon="13.6300997">
<ele>1958.064</ele>
<time>2025-03-02T09:09:27Z</time>
<hdop>3.79</hdop>
</trkpt>
<trkpt lat="47.5118118" lon="13.629933">
<ele>1962.738</ele>
<time>2025-03-02T09:09:57Z</time>
<hdop>3.79</hdop>
</trkpt>
<trkpt lat="47.5116757" lon="13.6298225">
<ele>1966.841</ele>
<time>2025-03-02T09:10:27Z</time>
<hdop>3.79</hdop>
</trkpt>
<trkpt lat="47.5115499" lon="13.6296899">
<ele>1971.212</ele>
<time>2025-03-02T09:10:57Z</time>
<hdop>3.79</hdop>
</trkpt>
<trkpt lat="47.5112568" lon="13.6294159">
<ele>1969.622</ele>
<time>2025-03-02T09:11:27Z</time>
<hdop>3.79</hdop>
</trkpt>
<trkpt lat="47.5111292" lon="13.6290129">
<ele>1971.031</ele>
<time>2025-03-02T09:11:57Z</time>
<hdop>3.79</hdop>
</trkpt>
<trkpt lat="47.5110003" lon="13.6288576">
<ele>1975.364</ele>
<time>2025-03-02T09:12:27Z</time>
<hdop>3.79</hdop>
</trkpt>
<trkpt lat="47.5109187" lon="13.6287701">
<ele>1976.259</ele>
<time>2025-03-02T09:12:57Z</time>
<hdop>3.79</hdop>
</trkpt>
<trkpt lat="47.5106759" lon="13.6289127">
<ele>1980.132</ele>
<time>2025-03-02T09:13:27Z</time>
<hdop>9.94</hdop>
</trkpt>
<trkpt lat="47.5104994" lon="13.6292227">
<ele>1986.825</ele>
<time>2025-03-02T09:13:57Z</time>
<hdop>3.79</hdop>
</trkpt>
<trkpt lat="47.5103189" lon="13.6295099">
<ele>1989.383</ele>
<time>2025-03-02T09:14:27Z</time>
<hdop>3.79</hdop>
</trkpt>
<trkpt lat="47.5101112" lon="13.6297813">
<ele>1993.157</ele>
<time>2025-03-02T09:14:57Z</time>
<hdop>3.79</hdop>
</trkpt>
<trkpt lat="47.5098526" lon="13.6299181">
<ele>1993.117</ele>
<time>2025-03-02T09:15:27Z</time>
<hdop>3.79</hdop>
</trkpt>
<trkpt lat="47.5096534" lon="13.6300794">
<ele>1995.715</ele>
<time>2025-03-02T09:15:57Z</time>
<hdop>3.79</hdop>
</trkpt>
<trkpt lat="47.509504" lon="13.6299012">
<ele>1998.511</ele>
<time>2025-03-02T09:16:27Z</time>
<hdop>3.79</hdop>
</trkpt>
<trkpt lat="47.5094678" lon="13.6295924">
<ele>1999.074</ele>
<time>2025-03-02T09:16:57Z</time>
<hdop>3.79</hdop>
</trkpt>
<trkpt lat="47.5094256" lon="13.6293254">
<ele>2002.511</ele>
<time>2025-03-02T09:17:27Z</time>
<hdop>3.79</hdop>
</trkpt>
<trkpt lat="47.509289" lon="13.6291127">
<ele>2004.094</ele>
<time>2025-03-02T09:17:57Z</time>
<hdop>3.79</hdop>
</trkpt>
<trkpt lat="47.5091115" lon="13.6288881">
<ele>2005.378</ele>
<time>2025-03-02T09:18:27Z</time>
<hdop>3.79</hdop>
</trkpt>
<trkpt lat="47.5090242" lon="13.6285935">
<ele>2008.714</ele>
<time>2025-03-02T09:18:57Z</time>
<hdop>3.79</hdop>
</trkpt>
<trkpt lat="47.5089165" lon="13.6283616">
<ele>2010.984</ele>
<time>2025-03-02T09:19:27Z</time>
<hdop>3.79</hdop>
</trkpt>
<trkpt lat="47.5088431" lon="13.6282195">
<ele>2011.377</ele>
<time>2025-03-02T09:19:57Z</time>
<hdop>3.79</hdop>
</trkpt>
<trkpt lat="47.5087643" lon="13.6280185">
<ele>2015.935</ele>
<time>2025-03-02T09:20:27Z</time>
<hdop>3.79</hdop>
</trkpt>
<trkpt lat="47.5087628" lon="13.6279925">
<ele>2016.173</ele>
<time>2025-03-02T09:20:57Z</time>
<hdop>3.79</hdop>
</trkpt>
<trkpt lat="47.5087636" lon="13.6279949">
<ele>2016.053</ele>
<time>2025-03-02T09:21:27Z</time>
<hdop>3.79</hdop>
</trkpt>
<trkpt lat="47.5083863" lon="13.6280025">
<ele>1968.34</ele>
<time>2025-03-02T09:21:57Z</time>
<hdop>3.79</hdop>
</trkpt>
<trkpt lat="47.5077704" lon="13.6286468">
<ele>2002.228</ele>
<time>2025-03-02T09:22:27Z</time>
<hdop>3.79</hdop>
</trkpt>
<trkpt lat="47.5075717" lon="13.6287606">
<ele>1994.409</ele>
<time>2025-03-02T09:22:57Z</time>
<hdop>3.79</hdop>
</trkpt>
<trkpt lat="47.5073133" lon="13.6289942">
<ele>2004.919</ele>
<time>2025-03-02T09:23:27Z</time>
<hdop>3.79</hdop>
</trkpt>
<trkpt lat="47.5070479" lon="13.62921">
<ele>1998.924</ele>
<time>2025-03-02T09:23:57Z</time>
<hdop>3.79</hdop>
</trkpt>
<trkpt lat="47.5067478" lon="13.6290903">
<ele>2005.491</ele>
<time>2025-03-02T09:24:27Z</time>
<hdop>3.79</hdop>
</trkpt>
<trkpt lat="47.5066167" lon="13.6289355">
<ele>2006.839</ele>
<time>2025-03-02T09:24:57Z</time>
<hdop>3.79</hdop>
</trkpt>
<trkpt lat="47.5065676" lon="13.6287025">
<ele>2012.134</ele>
<time>2025-03-02T09:25:27Z</time>
<hdop>3.79</hdop>
</trkpt>
<trkpt lat="47.5064638" lon="13.6284379">
<ele>2015.695</ele>
<time>2025-03-02T09:25:57Z</time>
<hdop>3.79</hdop>
</trkpt>
<trkpt lat="47.5063355" lon="13.6281945">
<ele>2017.608</ele>
<time>2025-03-02T09:26:27Z</time>
<hdop>3.79</hdop>
</trkpt>
<trkpt lat="47.5061381" lon="13.6278333">
<ele>2017.903</ele>
<time>2025-03-02T09:26:57Z</time>
<hdop>3.79</hdop>
</trkpt>
<trkpt lat="47.5059229" lon="13.6274867">
<ele>2021.92</ele>
<time>2025-03-02T09:27:27Z</time>
<hdop>3.79</hdop>
</trkpt>
<trkpt lat="47.5058086" lon="13.6271023">
<ele>2027.642</ele>
<time>2025-03-02T09:27:57Z</time>
<hdop>3.79</hdop>
</trkpt>
<trkpt lat="47.5057506" lon="13.6268084">
<ele>2029.977</ele>
<time>2025-03-02T09:28:27Z</time>
<hdop>3.79</hdop>
</trkpt>
<trkpt lat="47.5055132" lon="13.6264395">
<ele>2027.629</ele>
<time>2025-03-02T09:28:57Z</time>
<hdop>3.79</hdop>
</trkpt>
<trkpt lat="47.5050874" lon="13.6261462">
<ele>1973.695</ele>
<time>2025-03-02T09:29:27Z</time>
<hdop>3.79</hdop>
</trkpt>
<trkpt lat="47.5049178" lon="13.6260163">
<ele>2003.114</ele>
<time>2025-03-02T09:29:57Z</time>
<hdop>3.79</hdop>
</trkpt>
<trkpt lat="47.5047795" lon="13.6258495">
<ele>2032.477</ele>
<time>2025-03-02T09:30:27Z</time>
<hdop>3.79</hdop>
</trkpt>
<trkpt lat="47.5046791" lon="13.6256445">
<ele>2038.986</ele>
<time>2025-03-02T09:30:57Z</time>
<hdop>3.79</hdop>
</trkpt>
<trkpt lat="47.5045933" lon="13.6254092">
<ele>2041.241</ele>
<time>2025-03-02T09:31:27Z</time>
<hdop>3.79</hdop>
</trkpt>
<trkpt lat="47.5045474" lon="13.6252121">
<ele>2045.755</ele>
<time>2025-03-02T09:31:57Z</time>
<hdop>3.79</hdop>
</trkpt>
<trkpt lat="47.5044691" lon="13.6250566">
<ele>2048.817</ele>
<time>2025-03-02T09:32:27Z</time>
<hdop>3.79</hdop>
</trkpt>
<trkpt lat="47.5043253" lon="13.6249998">
<ele>2055.124</ele>
<time>2025-03-02T09:32:57Z</time>
<hdop>3.79</hdop>
</trkpt>
<trkpt lat="47.5043503" lon="13.6247992">
<ele>2059.821</ele>
<time>2025-03-02T09:33:27Z</time>
<hdop>3.79</hdop>
</trkpt>
<trkpt lat="47.5042811" lon="13.6245929">
<ele>2064.988</ele>
<time>2025-03-02T09:33:57Z</time>
<hdop>3.79</hdop>
</trkpt>
<trkpt lat="47.5041855" lon="13.624292">
<ele>2070.488</ele>
<time>2025-03-02T09:34:27Z</time>
<hdop>3.79</hdop>
</trkpt>
<trkpt lat="47.5041163" lon="13.6240544">
<ele>2074.524</ele>
<time>2025-03-02T09:34:57Z</time>
<hdop>3.79</hdop>
</trkpt>
<trkpt lat="47.5040789" lon="13.6239935">
<ele>2073.48</ele>
<time>2025-03-02T09:35:27Z</time>
<hdop>3.79</hdop>
</trkpt>
<trkpt lat="47.503802" lon="13.6232331">
<ele>1889.031</ele>
<time>2025-03-02T09:35:57Z</time>
<hdop>4.01</hdop>
</trkpt>
<trkpt lat="47.5037334" lon="13.6227044">
<ele>2058.331</ele>
<time>2025-03-02T09:36:27Z</time>
<hdop>3.79</hdop>
</trkpt>
<trkpt lat="47.5037317" lon="13.6227009">
<ele>2060.655</ele>
<time>2025-03-02T09:36:57Z</time>
<hdop>3.79</hdop>
</trkpt>
<trkpt lat="47.5040611" lon="13.6220082">
<ele>2061.038</ele>
<time>2025-03-02T09:37:27Z</time>
<hdop>3.79</hdop>
</trkpt>
<trkpt lat="47.5042034" lon="13.6214291">
<ele>2059.541</ele>
<time>2025-03-02T09:37:57Z</time>
<hdop>3.79</hdop>
</trkpt>
<trkpt lat="47.5042744" lon="13.6210876">
<ele>2058.024</ele>
<time>2025-03-02T09:38:27Z</time>
<hdop>3.79</hdop>
</trkpt>
<trkpt lat="47.5044997" lon="13.6206305">
<ele>2061.783</ele>
<time>2025-03-02T09:38:57Z</time>
<hdop>3.79</hdop>
</trkpt>
<trkpt lat="47.504502" lon="13.620024">
<ele>2057.384</ele>
<time>2025-03-02T09:39:27Z</time>
<hdop>9.94</hdop>
</trkpt>
<trkpt lat="47.5046223" lon="13.6196857">
<ele>2057.106</ele>
<time>2025-03-02T09:39:57Z</time>
<hdop>9.94</hdop>
</trkpt>
<trkpt lat="47.5047351" lon="13.6194384">
<ele>2062.828</ele>
<time>2025-03-02T09:40:27Z</time>
<hdop>10.77</hdop>
</trkpt>
<trkpt lat="47.5047323" lon="13.6190723">
<ele>2065.208</ele>
<time>2025-03-02T09:40:57Z</time>
<hdop>9.94</hdop>
</trkpt>
<trkpt lat="47.504686" lon="13.6186435">
<ele>2010.982</ele>
<time>2025-03-02T09:41:27Z</time>
<hdop>9.94</hdop>
</trkpt>
<trkpt lat="47.5045859" lon="13.6184479">
<ele>2065.013</ele>
<time>2025-03-02T09:41:57Z</time>
<hdop>3.79</hdop>
</trkpt>
<trkpt lat="47.5047237" lon="13.6183553">
<ele>2073.607</ele>
<time>2025-03-02T09:42:27Z</time>
<hdop>3.79</hdop>
</trkpt>
<trkpt lat="47.5046249" lon="13.6181913">
<ele>2072.523</ele>
<time>2025-03-02T09:42:57Z</time>
<hdop>3.79</hdop>
</trkpt>
<trkpt lat="47.5045399" lon="13.6179496">
<ele>2075.193</ele>
<time>2025-03-02T09:43:27Z</time>
<hdop>3.79</hdop>
</trkpt>
<trkpt lat="47.5045207" lon="13.6176854">
<ele>2078.429</ele>
<time>2025-03-02T09:43:57Z</time>
<hdop>3.79</hdop>
</trkpt>
<trkpt lat="47.5045452" lon="13.6174503">
<ele>2082.989</ele>
<time>2025-03-02T09:44:27Z</time>
<hdop>3.79</hdop>
</trkpt>
<trkpt lat="47.5044736" lon="13.6174212">
<ele>2089.401</ele>
<time>2025-03-02T09:44:57Z</time>
<hdop>3.79</hdop>
</trkpt>
<trkpt lat="47.5045417" lon="13.6172434">
<ele>2093.815</ele>
<time>2025-03-02T09:45:27Z</time>
<hdop>3.79</hdop>
</trkpt>
<trkpt lat="47.5046437" lon="13.616989">
<ele>2096.375</ele>
<time>2025-03-02T09:45:57Z</time>
<hdop>3.79</hdop>
</trkpt>
<trkpt lat="47.5046896" lon="13.6167021">
<ele>2098.369</ele>
<time>2025-03-02T09:46:27Z</time>
<hdop>3.79</hdop>
</trkpt>
<trkpt lat="47.5047509" lon="13.6164073">
<ele>2100.197</ele>
<time>2025-03-02T09:46:57Z</time>
<hdop>3.79</hdop>
</trkpt>
<trkpt lat="47.5048318" lon="13.6161015">
<ele>2095.047</ele>
<time>2025-03-02T09:47:27Z</time>
<hdop>9.94</hdop>
</trkpt>
<trkpt lat="47.5049448" lon="13.6159023">
<ele>2104.255</ele>
<time>2025-03-02T09:47:57Z</time>
<hdop>3.79</hdop>
</trkpt>
<trkpt lat="47.5047623" lon="13.6156734">
<ele>2107.752</ele>
<time>2025-03-02T09:48:27Z</time>
<hdop>3.79</hdop>
</trkpt>
<trkpt lat="47.5045965" lon="13.6157078">
<ele>2115.804</ele>
<time>2025-03-02T09:48:57Z</time>
<hdop>3.79</hdop>
</trkpt>
<trkpt lat="47.504657" lon="13.6155324">
<ele>2118.291</ele>
<time>2025-03-02T09:49:27Z</time>
<hdop>3.79</hdop>
</trkpt>
<trkpt lat="47.5046417" lon="13.6153511">
<ele>2121.91</ele>
<time>2025-03-02T09:49:57Z</time>
<hdop>3.79</hdop>
</trkpt>
<trkpt lat="47.5045496" lon="13.6151488">
<ele>2121.248</ele>
<time>2025-03-02T09:50:27Z</time>
<hdop>3.79</hdop>
</trkpt>
<trkpt lat="47.5044572" lon="13.6150157">
<ele>2123.786</ele>
<time>2025-03-02T09:50:57Z</time>
<hdop>3.79</hdop>
</trkpt>
<trkpt lat="47.5042871" lon="13.614914">
<ele>2133.104</ele>
<time>2025-03-02T09:51:27Z</time>
<hdop>3.79</hdop>
</trkpt>
<trkpt lat="47.5041922" lon="13.6146961">
<ele>2065.182</ele>
<time>2025-03-02T09:51:57Z</time>
<hdop>3.79</hdop>
</trkpt>
<trkpt lat="47.5040879" lon="13.6145224">
<ele>2131.991</ele>
<time>2025-03-02T09:52:27Z</time>
<hdop>9.94</hdop>
</trkpt>
<trkpt lat="47.5039725" lon="13.6143996">
<ele>2132.774</ele>
<time>2025-03-02T09:52:57Z</time>
<hdop>3.79</hdop>
</trkpt>
<trkpt lat="47.5039569" lon="13.6143514">
<ele>2136.861</ele>
<time>2025-03-02T09:53:27Z</time>
<hdop>3.79</hdop>
</trkpt>
<trkpt lat="47.5039731" lon="13.6142413">
<ele>2124.176</ele>
<time>2025-03-02T09:53:57Z</time>
<hdop>3.79</hdop>
</trkpt>
<trkpt lat="47.5038609" lon="13.6141106">
<ele>2148.747</ele>
<time>2025-03-02T09:54:27Z</time>
<hdop>3.79</hdop>
</trkpt>
<trkpt lat="47.5037597" lon="13.6141245">
<ele>2159.911</ele>
<time>2025-03-02T09:54:57Z</time>
<hdop>3.79</hdop>
</trkpt>
<trkpt lat="47.5037133" lon="13.6140533">
<ele>2162.251</ele>
<time>2025-03-02T09:55:27Z</time>
<hdop>3.79</hdop>
</trkpt>
<trkpt lat="47.5037075" lon="13.6140585">
<ele>2162.464</ele>
<time>2025-03-02T09:55:57Z</time>
<hdop>3.79</hdop>
</trkpt>
<trkpt lat="47.5037075" lon="13.6140585">
<ele>2162.442</ele>
<time>2025-03-02T09:56:27Z</time>
<hdop>3.79</hdop>
</trkpt>
<trkpt lat="47.5036285" lon="13.6139732">
<ele>2161.097</ele>
<time>2025-03-02T09:57:23Z</time>
<hdop>5.94</hdop>
</trkpt>
<trkpt lat="47.503638" lon="13.6133879">
<ele>2159.68</ele>
<time>2025-03-02T09:58:23Z</time>
<hdop>4.63</hdop>
</trkpt>
<trkpt lat="47.5036858" lon="13.6132733">
<ele>2165.413</ele>
<time>2025-03-02T09:58:53Z</time>
<hdop>5.12</hdop>
</trkpt>
<trkpt lat="47.503899" lon="13.6130806">
<ele>2163.547</ele>
<time>2025-03-02T09:59:23Z</time>
<hdop>5.95</hdop>
</trkpt>
<trkpt lat="47.5039651" lon="13.613115">
<ele>2146.928</ele>
<time>2025-03-02T09:59:53Z</time>
<hdop>6.35</hdop>
</trkpt>
<trkpt lat="47.5040787" lon="13.6129094">
<ele>2160.12</ele>
<time>2025-03-02T10:00:24Z</time>
<hdop>8.35</hdop>
</trkpt>
<trkpt lat="47.504472" lon="13.6130382">
<ele>2134.811</ele>
<time>2025-03-02T10:01:24Z</time>
<hdop>11.86</hdop>
</trkpt>
<trkpt lat="47.5045541" lon="13.6124025">
<ele>2178.878</ele>
<time>2025-03-02T10:01:54Z</time>
<hdop>6.09</hdop>
</trkpt>
<trkpt lat="47.5049188" lon="13.6122148">
<ele>2175.448</ele>
<time>2025-03-02T10:02:53Z</time>
<hdop>5.64</hdop>
</trkpt>
<trkpt lat="47.5050484" lon="13.6120614">
<ele>2161.472</ele>
<time>2025-03-02T10:03:23Z</time>
<hdop>8.97</hdop>
</trkpt>
<trkpt lat="47.5051241" lon="13.6117191">
<ele>2163.041</ele>
<time>2025-03-02T10:03:53Z</time>
<hdop>6.68</hdop>
</trkpt>
<trkpt lat="47.5051217" lon="13.6116286">
<ele>2187.721</ele>
<time>2025-03-02T10:04:24Z</time>
<hdop>12.62</hdop>
</trkpt>
<trkpt lat="47.505227" lon="13.6112441">
<ele>2186.587</ele>
<time>2025-03-02T10:05:24Z</time>
<hdop>13.47</hdop>
</trkpt>
<trkpt lat="47.5055355" lon="13.6115735">
<ele>2160.552</ele>
<time>2025-03-02T10:05:54Z</time>
<hdop>15.58</hdop>
</trkpt>
<trkpt lat="47.5056827" lon="13.6113173">
<ele>2195.856</ele>
<time>2025-03-02T10:06:24Z</time>
<hdop>12.19</hdop>
</trkpt>
<trkpt lat="47.505532" lon="13.6112342">
<ele>2240.372</ele>
<time>2025-03-02T10:06:54Z</time>
<hdop>12.75</hdop>
</trkpt>
<trkpt lat="47.5058949" lon="13.6114363">
<ele>2254.116</ele>
<time>2025-03-02T10:07:24Z</time>
<hdop>14.1</hdop>
</trkpt>
<trkpt lat="47.5060529" lon="13.6110265">
<ele>2233.707</ele>
<time>2025-03-02T10:07:54Z</time>
<hdop>12.31</hdop>
</trkpt>
<trkpt lat="47.506216" lon="13.6109124">
<ele>2228.19</ele>
<time>2025-03-02T10:08:25Z</time>
<hdop>20.8</hdop>
</trkpt>
<trkpt lat="47.5062154" lon="13.6107556">
<ele>2229.955</ele>
<time>2025-03-02T10:08:56Z</time>
<hdop>36.48</hdop>
</trkpt>
<trkpt lat="47.5064026" lon="13.6105617">
<ele>2244.815</ele>
<time>2025-03-02T10:09:53Z</time>
<hdop>9.89</hdop>
</trkpt>
<trkpt lat="47.5062762" lon="13.6102256">
<ele>2247.805</ele>
<time>2025-03-02T10:10:23Z</time>
<hdop>8.06</hdop>
</trkpt>
<trkpt lat="47.5062663" lon="13.6103099">
<ele>2195.4</ele>
<time>2025-03-02T10:10:54Z</time>
<hdop>11.9</hdop>
</trkpt>
<trkpt lat="47.5064153" lon="13.6098531">
<ele>2236.368</ele>
<time>2025-03-02T10:11:54Z</time>
<hdop>6.01</hdop>
</trkpt>
<trkpt lat="47.5061356" lon="13.6095172">
<ele>2294.315</ele>
<time>2025-03-02T10:12:53Z</time>
<hdop>9.22</hdop>
</trkpt>
<trkpt lat="47.5063795" lon="13.6094392">
<ele>2283.385</ele>
<time>2025-03-02T10:13:24Z</time>
<hdop>15.28</hdop>
</trkpt>
<trkpt lat="47.506109" lon="13.6094887">
<ele>2302.27</ele>
<time>2025-03-02T10:13:55Z</time>
<hdop>24.36</hdop>
</trkpt>
<trkpt lat="47.5064771" lon="13.6092567">
<ele>2243.584</ele>
<time>2025-03-02T10:14:54Z</time>
<hdop>5.16</hdop>
</trkpt>
<trkpt lat="47.5064533" lon="13.6092655">
<ele>2257.715</ele>
<time>2025-03-02T10:15:24Z</time>
<hdop>7.29</hdop>
</trkpt>
<trkpt lat="47.5064347" lon="13.609058">
<ele>2289.775</ele>
<time>2025-03-02T10:16:23Z</time>
<hdop>6.2</hdop>
</trkpt>
<trkpt lat="47.5065011" lon="13.608973">
<ele>2281.69</ele>
<time>2025-03-02T10:16:53Z</time>
<hdop>4.96</hdop>
</trkpt>
<trkpt lat="47.5066661" lon="13.6088806">
<ele>2275.467</ele>
<time>2025-03-02T10:17:24Z</time>
<hdop>20.52</hdop>
</trkpt>
<trkpt lat="47.5065231" lon="13.6086262">
<ele>2295.606</ele>
<time>2025-03-02T10:18:24Z</time>
<hdop>14.09</hdop>
</trkpt>
<trkpt lat="47.506578" lon="13.6083275">
<ele>2316.797</ele>
<time>2025-03-02T10:19:24Z</time>
<hdop>6.12</hdop>
</trkpt>
<trkpt lat="47.5064568" lon="13.6079699">
<ele>2382.543</ele>
<time>2025-03-02T10:19:56Z</time>
<hdop>41.86</hdop>
</trkpt>
<trkpt lat="47.5068016" lon="13.6077774">
<ele>2314.508</ele>
<time>2025-03-02T10:20:54Z</time>
<hdop>6.74</hdop>
</trkpt>
<trkpt lat="47.5069023" lon="13.6074623">
<ele>2321.147</ele>
<time>2025-03-02T10:21:54Z</time>
<hdop>9.59</hdop>
</trkpt>
<trkpt lat="47.5068628" lon="13.6074446">
<ele>2335.418</ele>
<time>2025-03-02T10:22:24Z</time>
<hdop>11.42</hdop>
</trkpt>
<trkpt lat="47.5069175" lon="13.6069085">
<ele>2332.84</ele>
<time>2025-03-02T10:23:23Z</time>
<hdop>4.26</hdop>
</trkpt>
<trkpt lat="47.5069694" lon="13.6068558">
<ele>2359.908</ele>
<time>2025-03-02T10:23:54Z</time>
<hdop>4.16</hdop>
</trkpt>
<trkpt lat="47.5069154" lon="13.6066054">
<ele>2347.28</ele>
<time>2025-03-02T10:24:54Z</time>
<hdop>7.94</hdop>
</trkpt>
<trkpt lat="47.507019" lon="13.6064556">
<ele>2361.407</ele>
<time>2025-03-02T10:25:53Z</time>
<hdop>4.68</hdop>
</trkpt>
<trkpt lat="47.507026" lon="13.6064331">
<ele>2362.733</ele>
<time>2025-03-02T10:26:23Z</time>
<hdop>4.26</hdop>
</trkpt>
<trkpt lat="47.507026" lon="13.6064331">
<ele>2359.949</ele>
<time>2025-03-02T10:26:53Z</time>
<hdop>3.79</hdop>
</trkpt>
<trkpt lat="47.507026" lon="13.6064331">
<ele>2357.037</ele>
<time>2025-03-02T10:27:23Z</time>
<hdop>3.79</hdop>
</trkpt>
<trkpt lat="47.507026" lon="13.6064331">
<ele>2356.357</ele>
<time>2025-03-02T10:27:53Z</time>
<hdop>3.79</hdop>
</trkpt>
<trkpt lat="47.5070513" lon="13.6064486">
<ele>2357.857</ele>
<time>2025-03-02T10:28:23Z</time>
<hdop>9.18</hdop>
</trkpt>
<trkpt lat="47.5070616" lon="13.6059248">
<ele>2354.136</ele>
<time>2025-03-02T10:28:53Z</time>
<hdop>5.9</hdop>
</trkpt>
<trkpt lat="47.5070562" lon="13.6058345">
<ele>2346.184</ele>
<time>2025-03-02T10:29:24Z</time>
<hdop>11.41</hdop>
</trkpt>
<trkpt lat="47.5071471" lon="13.6052024">
<ele>2321.55</ele>
<time>2025-03-02T10:30:24Z</time>
<hdop>13.73</hdop>
</trkpt>
<trkpt lat="47.5072303" lon="13.6046061">
<ele>2379.755</ele>
<time>2025-03-02T10:31:23Z</time>
<hdop>7.96</hdop>
</trkpt>
<trkpt lat="47.5072517" lon="13.604528">
<ele>2369.715</ele>
<time>2025-03-02T10:31:53Z</time>
<hdop>4.18</hdop>
</trkpt>
<trkpt lat="47.5072404" lon="13.6043321">
<ele>2377.28</ele>
<time>2025-03-02T10:32:23Z</time>
<hdop>5.39</hdop>
</trkpt>
<trkpt lat="47.5070868" lon="13.6042069">
<ele>2414.986</ele>
<time>2025-03-02T10:32:54Z</time>
<hdop>5.87</hdop>
</trkpt>
<trkpt lat="47.5071513" lon="13.6038829">
<ele>2376.499</ele>
<time>2025-03-02T10:33:24Z</time>
<hdop>16.38</hdop>
</trkpt>
<trkpt lat="47.5072267" lon="13.6038493">
<ele>2363.074</ele>
<time>2025-03-02T10:33:54Z</time>
<hdop>6.36</hdop>
</trkpt>
<trkpt lat="47.5071494" lon="13.6037737">
<ele>2375.592</ele>
<time>2025-03-02T10:34:53Z</time>
<hdop>9.47</hdop>
</trkpt>
<trkpt lat="47.5070305" lon="13.6038563">
<ele>2381.126</ele>
<time>2025-03-02T10:35:24Z</time>
<hdop>13.79</hdop>
</trkpt>
<trkpt lat="47.5068999" lon="13.6038199">
<ele>2379.906</ele>
<time>2025-03-02T10:35:54Z</time>
<hdop>11.7</hdop>
</trkpt>
<trkpt lat="47.5067997" lon="13.6037953">
<ele>2400.009</ele>
<time>2025-03-02T10:36:24Z</time>
<hdop>5.39</hdop>
</trkpt>
<trkpt lat="47.5066585" lon="13.6037448">
<ele>2409.424</ele>
<time>2025-03-02T10:37:23Z</time>
<hdop>5.91</hdop>
</trkpt>
<trkpt lat="47.5066892" lon="13.6036018">
<ele>2419.667</ele>
<time>2025-03-02T10:37:54Z</time>
<hdop>7.02</hdop>
</trkpt>
<trkpt lat="47.5067628" lon="13.6036201">
<ele>2421.113</ele>
<time>2025-03-02T10:38:24Z</time>
<hdop>10.6</hdop>
</trkpt>
<trkpt lat="47.5063487" lon="13.603716">
<ele>2408.963</ele>
<time>2025-03-02T10:39:23Z</time>
<hdop>5.55</hdop>
</trkpt>
<trkpt lat="47.5063676" lon="13.6038094">
<ele>2431.854</ele>
<time>2025-03-02T10:39:54Z</time>
<hdop>9.77</hdop>
</trkpt>
<trkpt lat="47.5060978" lon="13.6038109">
<ele>2432.638</ele>
<time>2025-03-02T10:40:53Z</time>
<hdop>4.55</hdop>
</trkpt>
<trkpt lat="47.5059224" lon="13.6036481">
<ele>2403.894</ele>
<time>2025-03-02T10:41:26Z</time>
<hdop>29.68</hdop>
</trkpt>
<trkpt lat="47.5058613" lon="13.6037859">
<ele>2438.261</ele>
<time>2025-03-02T10:42:24Z</time>
<hdop>10.14</hdop>
</trkpt>
<trkpt lat="47.5058935" lon="13.6035212">
<ele>2448.158</ele>
<time>2025-03-02T10:42:54Z</time>
<hdop>6.42</hdop>
</trkpt>
<trkpt lat="47.5058654" lon="13.6032834">
<ele>2373.354</ele>
<time>2025-03-02T10:43:53Z</time>
<hdop>9.92</hdop>
</trkpt>
<trkpt lat="47.5057567" lon="13.6033463">
<ele>2432.338</ele>
<time>2025-03-02T10:44:23Z</time>
<hdop>4.94</hdop>
</trkpt>
<trkpt lat="47.5057164" lon="13.6032565">
<ele>2455.138</ele>
<time>2025-03-02T10:44:53Z</time>
<hdop>4.59</hdop>
</trkpt>
<trkpt lat="47.5054138" lon="13.6031928">
<ele>2434.667</ele>
<time>2025-03-02T10:45:23Z</time>
<hdop>7.82</hdop>
</trkpt>
<trkpt lat="47.5054155" lon="13.6032788">
<ele>2439.435</ele>
<time>2025-03-02T10:45:53Z</time>
<hdop>10.21</hdop>
</trkpt>
<trkpt lat="47.5056623" lon="13.6028615">
<ele>2458.97</ele>
<time>2025-03-02T10:46:23Z</time>
<hdop>5.61</hdop>
</trkpt>
<trkpt lat="47.5053154" lon="13.6025302">
<ele>2445.994</ele>
<time>2025-03-02T10:46:53Z</time>
<hdop>10.2</hdop>
</trkpt>
<trkpt lat="47.5053808" lon="13.6017086">
<ele>2448.982</ele>
<time>2025-03-02T10:47:23Z</time>
<hdop>5.69</hdop>
</trkpt>
<trkpt lat="47.5051233" lon="13.6016664">
<ele>2452.09</ele>
<time>2025-03-02T10:47:53Z</time>
<hdop>4.4</hdop>
</trkpt>
<trkpt lat="47.5048422" lon="13.6015947">
<ele>2454.286</ele>
<time>2025-03-02T10:48:23Z</time>
<hdop>4.53</hdop>
</trkpt>
<trkpt lat="47.5046799" lon="13.6013138">
<ele>2447.125</ele>
<time>2025-03-02T10:48:53Z</time>
<hdop>5.83</hdop>
</trkpt>
<trkpt lat="47.5045876" lon="13.6011305">
<ele>2454.448</ele>
<time>2025-03-02T10:49:23Z</time>
<hdop>6.09</hdop>
</trkpt>
<trkpt lat="47.5045216" lon="13.6006032">
<ele>2431.25</ele>
<time>2025-03-02T10:49:53Z</time>
<hdop>5.21</hdop>
</trkpt>
<trkpt lat="47.5044943" lon="13.6001343">
<ele>2451.855</ele>
<time>2025-03-02T10:50:23Z</time>
<hdop>7.86</hdop>
</trkpt>
<trkpt lat="47.5042414" lon="13.599947">
<ele>2441.068</ele>
<time>2025-03-02T10:50:53Z</time>
<hdop>7.21</hdop>
</trkpt>
<trkpt lat="47.5042414" lon="13.599947">
<ele>2443.644</ele>
<time>2025-03-02T10:51:23Z</time>
<hdop>6.86</hdop>
</trkpt>
<trkpt lat="47.5042414" lon="13.599947">
<ele>2446.529</ele>
<time>2025-03-02T10:51:53Z</time>
<hdop>7.5</hdop>
</trkpt>
<trkpt lat="47.5042437" lon="13.5998833">
<ele>2442.35</ele>
<time>2025-03-02T10:52:54Z</time>
<hdop>13.14</hdop>
</trkpt>
<trkpt lat="47.5040802" lon="13.5995216">
<ele>2456.585</ele>
<time>2025-03-02T10:53:24Z</time>
<hdop>10.01</hdop>
</trkpt>
<trkpt lat="47.5040454" lon="13.5994403">
<ele>2477.487</ele>
<time>2025-03-02T10:54:23Z</time>
<hdop>5.43</hdop>
</trkpt>
<trkpt lat="47.5040332" lon="13.5993311">
<ele>2479.669</ele>
<time>2025-03-02T10:54:53Z</time>
<hdop>4.74</hdop>
</trkpt>
<trkpt lat="47.5039752" lon="13.5992957">
<ele>2477.346</ele>
<time>2025-03-02T10:55:23Z</time>
<hdop>5.49</hdop>
</trkpt>
<trkpt lat="47.5038989" lon="13.5992896">
<ele>2481.332</ele>
<time>2025-03-02T10:55:53Z</time>
<hdop>3.79</hdop>
</trkpt>
<trkpt lat="47.5038908" lon="13.5992585">
<ele>2478.3</ele>
<time>2025-03-02T10:56:23Z</time>
<hdop>5.07</hdop>
</trkpt>
<trkpt lat="47.5038904" lon="13.5992554">
<ele>2475.844</ele>
<time>2025-03-02T10:56:53Z</time>
<hdop>3.9</hdop>
</trkpt>
<trkpt lat="47.503871" lon="13.5992675">
<ele>2475.747</ele>
<time>2025-03-02T10:57:23Z</time>
<hdop>9.86</hdop>
</trkpt>
<trkpt lat="47.503665" lon="13.5993522">
<ele>2480.543</ele>
<time>2025-03-02T10:57:53Z</time>
<hdop>4.74</hdop>
</trkpt>
<trkpt lat="47.5035257" lon="13.5993889">
<ele>2474.925</ele>
<time>2025-03-02T10:58:24Z</time>
<hdop>16.59</hdop>
</trkpt>
<trkpt lat="47.5036652" lon="13.5992722">
<ele>2480.614</ele>
<time>2025-03-02T10:59:24Z</time>
<hdop>10.39</hdop>
</trkpt>
<trkpt lat="47.5034624" lon="13.5995895">
<ele>2494.333</ele>
<time>2025-03-02T11:00:23Z</time>
<hdop>3.94</hdop>
</trkpt>
<trkpt lat="47.5035149" lon="13.5997233">
<ele>2485.677</ele>
<time>2025-03-02T11:00:53Z</time>
<hdop>4.84</hdop>
</trkpt>
<trkpt lat="47.5035165" lon="13.5998755">
<ele>2497.937</ele>
<time>2025-03-02T11:01:23Z</time>
<hdop>3.89</hdop>
</trkpt>
<trkpt lat="47.5033563" lon="13.6000634">
<ele>2490.81</ele>
<time>2025-03-02T11:01:54Z</time>
<hdop>12.18</hdop>
</trkpt>
<trkpt lat="47.5033624" lon="13.6002884">
<ele>2499.141</ele>
<time>2025-03-02T11:02:24Z</time>
<hdop>12.71</hdop>
</trkpt>
<trkpt lat="47.5034459" lon="13.6006283">
<ele>2511.174</ele>
<time>2025-03-02T11:03:23Z</time>
<hdop>4.36</hdop>
</trkpt>
<trkpt lat="47.5034229" lon="13.6007293">
<ele>2488.523</ele>
<time>2025-03-02T11:04:23Z</time>
<hdop>4.16</hdop>
</trkpt>
<trkpt lat="47.5034461" lon="13.6009013">
<ele>2493.65</ele>
<time>2025-03-02T11:04:53Z</time>
<hdop>3.95</hdop>
</trkpt>
<trkpt lat="47.5034348" lon="13.6012695">
<ele>2525.843</ele>
<time>2025-03-02T11:05:53Z</time>
<hdop>5.2</hdop>
</trkpt>
<trkpt lat="47.5033711" lon="13.6014526">
<ele>2520.483</ele>
<time>2025-03-02T11:06:23Z</time>
<hdop>5.71</hdop>
</trkpt>
<trkpt lat="47.5032948" lon="13.6015687">
<ele>2521.119</ele>
<time>2025-03-02T11:06:53Z</time>
<hdop>5.56</hdop>
</trkpt>
<trkpt lat="47.5032233" lon="13.6017897">
<ele>2534.55</ele>
<time>2025-03-02T11:07:23Z</time>
<hdop>5.41</hdop>
</trkpt>
<trkpt lat="47.5030069" lon="13.6017713">
<ele>2519.398</ele>
<time>2025-03-02T11:07:53Z</time>
<hdop>4.91</hdop>
</trkpt>
<trkpt lat="47.5028548" lon="13.6019528">
<ele>2510.719</ele>
<time>2025-03-02T11:08:23Z</time>
<hdop>5.98</hdop>
</trkpt>
<trkpt lat="47.5026121" lon="13.6018873">
<ele>2513.644</ele>
<time>2025-03-02T11:08:53Z</time>
<hdop>3.79</hdop>
</trkpt>
<trkpt lat="47.5025709" lon="13.6017433">
<ele>2529.128</ele>
<time>2025-03-02T11:09:23Z</time>
<hdop>4.71</hdop>
</trkpt>
<trkpt lat="47.5023671" lon="13.6019672">
<ele>2524.53</ele>
<time>2025-03-02T11:09:53Z</time>
<hdop>3.79</hdop>
</trkpt>
<trkpt lat="47.5022371" lon="13.602008">
<ele>2516.592</ele>
<time>2025-03-02T11:10:23Z</time>
<hdop>3.79</hdop>
</trkpt>
<trkpt lat="47.5017886" lon="13.6025371">
<ele>2512.712</ele>
<time>2025-03-02T11:10:53Z</time>
<hdop>5.65</hdop>
</trkpt>
<trkpt lat="47.5016283" lon="13.6027012">
<ele>2508.23</ele>
<time>2025-03-02T11:11:23Z</time>
<hdop>10.03</hdop>
</trkpt>
<trkpt lat="47.501548" lon="13.6029721">
<ele>2514.12</ele>
<time>2025-03-02T11:11:53Z</time>
<hdop>8.34</hdop>
</trkpt>
<trkpt lat="47.501202" lon="13.6031925">
<ele>2519.735</ele>
<time>2025-03-02T11:12:23Z</time>
<hdop>9.58</hdop>
</trkpt>
<trkpt lat="47.5011195" lon="13.603372">
<ele>2521.2</ele>
<time>2025-03-02T11:12:55Z</time>
<hdop>9.03</hdop>
</trkpt>
<trkpt lat="47.5009201" lon="13.6035843">
<ele>2515.819</ele>
<time>2025-03-02T11:13:53Z</time>
<hdop>9.6</hdop>
</trkpt>
<trkpt lat="47.5007506" lon="13.6037756">
<ele>2520.633</ele>
<time>2025-03-02T11:14:23Z</time>
<hdop>3.79</hdop>
</trkpt>
<trkpt lat="47.5005231" lon="13.6037119">
<ele>2517.239</ele>
<time>2025-03-02T11:14:53Z</time>
<hdop>7.86</hdop>
</trkpt>
<trkpt lat="47.5002589" lon="13.6037766">
<ele>2519.611</ele>
<time>2025-03-02T11:15:23Z</time>
<hdop>3.79</hdop>
</trkpt>
<trkpt lat="47.5001525" lon="13.6038249">
<ele>2505.817</ele>
<time>2025-03-02T11:15:53Z</time>
<hdop>9.01</hdop>
</trkpt>
<trkpt lat="47.5000126" lon="13.6037515">
<ele>2520.222</ele>
<time>2025-03-02T11:16:23Z</time>
<hdop>4.23</hdop>
</trkpt>
<trkpt lat="47.5000017" lon="13.6037739">
<ele>2522.339</ele>
<time>2025-03-02T11:16:53Z</time>
<hdop>6.85</hdop>
</trkpt>
<trkpt lat="47.4999623" lon="13.6039852">
<ele>2533.834</ele>
<time>2025-03-02T11:17:24Z</time>
<hdop>16.23</hdop>
</trkpt>
<trkpt lat="47.4996154" lon="13.604362">
<ele>2533.718</ele>
<time>2025-03-02T11:18:23Z</time>
<hdop>4.99</hdop>
</trkpt>
<trkpt lat="47.4993779" lon="13.6045455">
<ele>2482.19</ele>
<time>2025-03-02T11:18:54Z</time>
<hdop>10.52</hdop>
</trkpt>
<trkpt lat="47.4989755" lon="13.6041958">
<ele>2547.867</ele>
<time>2025-03-02T11:19:54Z</time>
<hdop>20.81</hdop>
</trkpt>
<trkpt lat="47.4986719" lon="13.6041763">
<ele>2524.335</ele>
<time>2025-03-02T11:20:54Z</time>
<hdop>13.85</hdop>
</trkpt>
<trkpt lat="47.4986648" lon="13.6042856">
<ele>2542.322</ele>
<time>2025-03-02T11:21:54Z</time>
<hdop>12.08</hdop>
</trkpt>
<trkpt lat="47.4986313" lon="13.6042881">
<ele>2554.479</ele>
<time>2025-03-02T11:22:53Z</time>
<hdop>5.96</hdop>
</trkpt>
<trkpt lat="47.4983445" lon="13.6041981">
<ele>2555.681</ele>
<time>2025-03-02T11:23:24Z</time>
<hdop>3.97</hdop>
</trkpt>
<trkpt lat="47.4982076" lon="13.6044377">
<ele>2569.644</ele>
<time>2025-03-02T11:24:53Z</time>
<hdop>9.28</hdop>
</trkpt>
<trkpt lat="47.4981656" lon="13.6044267">
<ele>2562.933</ele>
<time>2025-03-02T11:25:23Z</time>
<hdop>5.76</hdop>
</trkpt>
<trkpt lat="47.4981047" lon="13.6048104">
<ele>2564.418</ele>
<time>2025-03-02T11:25:53Z</time>
<hdop>3.79</hdop>
</trkpt>
<trkpt lat="47.4982176" lon="13.6049128">
<ele>2580.473</ele>
<time>2025-03-02T11:26:52Z</time>
<hdop>9.35</hdop>
</trkpt>
<trkpt lat="47.4982035" lon="13.6049428">
<ele>2578.281</ele>
<time>2025-03-02T11:27:24Z</time>
<hdop>6.94</hdop>
</trkpt>
<trkpt lat="47.4976253" lon="13.6052739">
<ele>2539.857</ele>
<time>2025-03-02T11:28:23Z</time>
<hdop>8.32</hdop>
</trkpt>
<trkpt lat="47.497513" lon="13.6054572">
<ele>2563.481</ele>
<time>2025-03-02T11:28:53Z</time>
<hdop>8.33</hdop>
</trkpt>
<trkpt lat="47.4973153" lon="13.6054595">
<ele>2545.565</ele>
<time>2025-03-02T11:29:23Z</time>
<hdop>7.6</hdop>
</trkpt>
<trkpt lat="47.4973201" lon="13.6054724">
<ele>2551.564</ele>
<time>2025-03-02T11:29:53Z</time>
<hdop>6.85</hdop>
</trkpt>
<trkpt lat="47.497138" lon="13.6057764">
<ele>2550.913</ele>
<time>2025-03-02T11:30:23Z</time>
<hdop>6.88</hdop>
</trkpt>
<trkpt lat="47.4971196" lon="13.6057914">
<ele>2576.122</ele>
<time>2025-03-02T11:30:54Z</time>
<hdop>16.53</hdop>
</trkpt>
<trkpt lat="47.4971789" lon="13.606089">
<ele>2535.346</ele>
<time>2025-03-02T11:31:24Z</time>
<hdop>9.69</hdop>
</trkpt>
<trkpt lat="47.4971193" lon="13.6060161">
<ele>2578.675</ele>
<time>2025-03-02T11:31:54Z</time>
<hdop>20.84</hdop>
</trkpt>
<trkpt lat="47.4969568" lon="13.6059734">
<ele>2567.453</ele>
<time>2025-03-02T11:32:53Z</time>
<hdop>8.2</hdop>
</trkpt>
<trkpt lat="47.4969027" lon="13.6059372">
<ele>2570.546</ele>
<time>2025-03-02T11:33:24Z</time>
<hdop>12.42</hdop>
</trkpt>
<trkpt lat="47.4965795" lon="13.6060575">
<ele>2590.834</ele>
<time>2025-03-02T11:34:23Z</time>
<hdop>4.97</hdop>
</trkpt>
<trkpt lat="47.4964808" lon="13.6062352">
<ele>2596.143</ele>
<time>2025-03-02T11:34:53Z</time>
<hdop>6.85</hdop>
</trkpt>
<trkpt lat="47.4963363" lon="13.6061982">
<ele>2597.177</ele>
<time>2025-03-02T11:35:24Z</time>
<hdop>17.26</hdop>
</trkpt>
<trkpt lat="47.4961748" lon="13.6060938">
<ele>2595.492</ele>
<time>2025-03-02T11:35:54Z</time>
<hdop>18.34</hdop>
</trkpt>
<trkpt lat="47.496085" lon="13.6061652">
<ele>2600.606</ele>
<time>2025-03-02T11:37:24Z</time>
<hdop>11.33</hdop>
</trkpt>
<trkpt lat="47.4959988" lon="13.606136">
<ele>2597.496</ele>
<time>2025-03-02T11:37:54Z</time>
<hdop>12.81</hdop>
</trkpt>
<trkpt lat="47.4959988" lon="13.606136">
<ele>2603.413</ele>
<time>2025-03-02T11:38:24Z</time>
<hdop>13.87</hdop>
</trkpt>
<trkpt lat="47.4959988" lon="13.606136">
<ele>2616.102</ele>
<time>2025-03-02T11:38:54Z</time>
<hdop>11.0</hdop>
</trkpt>
<trkpt lat="47.4959299" lon="13.6062223">
<ele>2593.231</ele>
<time>2025-03-02T11:39:24Z</time>
<hdop>15.7</hdop>
</trkpt>
<trkpt lat="47.4956013" lon="13.6065673">
<ele>2599.791</ele>
<time>2025-03-02T11:39:54Z</time>
<hdop>20.62</hdop>
</trkpt>
<trkpt lat="47.4955085" lon="13.6066333">
<ele>2623.452</ele>
<time>2025-03-02T11:40:28Z</time>
<hdop>47.71</hdop>
</trkpt>
<trkpt lat="47.495354" lon="13.6064395">
<ele>2627.458</ele>
<time>2025-03-02T11:41:24Z</time>
<hdop>10.52</hdop>
</trkpt>
<trkpt lat="47.4952153" lon="13.6065377">
<ele>2618.944</ele>
<time>2025-03-02T11:41:55Z</time>
<hdop>12.84</hdop>
</trkpt>
<trkpt lat="47.4950835" lon="13.6065886">
<ele>2612.869</ele>
<time>2025-03-02T11:42:25Z</time>
<hdop>20.96</hdop>
</trkpt>
<trkpt lat="47.4947473" lon="13.6067169">
<ele>2631.694</ele>
<time>2025-03-02T11:43:24Z</time>
<hdop>12.99</hdop>
</trkpt>
<trkpt lat="47.4945919" lon="13.6066878">
<ele>2621.24</ele>
<time>2025-03-02T11:45:25Z</time>
<hdop>18.38</hdop>
</trkpt>
<trkpt lat="47.4947464" lon="13.6070144">
<ele>2655.334</ele>
<time>2025-03-02T11:46:23Z</time>
<hdop>8.9</hdop>
</trkpt>
<trkpt lat="47.4947464" lon="13.6070144">
<ele>2641.794</ele>
<time>2025-03-02T11:46:53Z</time>
<hdop>8.5</hdop>
</trkpt>
<trkpt lat="47.4947464" lon="13.6070144">
<ele>2647.747</ele>
<time>2025-03-02T11:47:24Z</time>
<hdop>12.51</hdop>
</trkpt>
<trkpt lat="47.4946909" lon="13.6069901">
<ele>2670.936</ele>
<time>2025-03-02T11:47:56Z</time>
<hdop>31.3</hdop>
</trkpt>
<trkpt lat="47.4946679" lon="13.6069854">
<ele>2668.138</ele>
<time>2025-03-02T11:48:26Z</time>
<hdop>24.25</hdop>
</trkpt>
<trkpt lat="47.4945943" lon="13.6070186">
<ele>2662.908</ele>
<time>2025-03-02T11:49:24Z</time>
<hdop>10.39</hdop>
</trkpt>
<trkpt lat="47.494323" lon="13.6072197">
<ele>2600.665</ele>
<time>2025-03-02T11:50:54Z</time>
<hdop>15.4</hdop>
</trkpt>
<trkpt lat="47.4943205" lon="13.6072216">
<ele>2666.551</ele>
<time>2025-03-02T11:51:26Z</time>
<hdop>3.79</hdop>
</trkpt>
<trkpt lat="47.4943239" lon="13.6072504">
<ele>2575.638</ele>
<time>2025-03-02T11:52:25Z</time>
<hdop>3.99</hdop>
</trkpt>
<trkpt lat="47.494263" lon="13.6072681">
<ele>2657.005</ele>
<time>2025-03-02T11:52:55Z</time>
<hdop>3.79</hdop>
</trkpt>
<trkpt lat="47.494263" lon="13.6072681">
<ele>2657.613</ele>
<time>2025-03-02T11:54:23Z</time>
<hdop>4.56</hdop>
</trkpt>
<trkpt lat="47.494263" lon="13.6072681">
<ele>2657.836</ele>
<time>2025-03-02T11:54:54Z</time>
<hdop>8.53</hdop>
</trkpt>
<trkpt lat="47.494263" lon="13.6072681">
<ele>2657.826</ele>
<time>2025-03-02T11:55:24Z</time>
<hdop>12.44</hdop>
</trkpt>
<trkpt lat="47.494263" lon="13.6072681">
<ele>2658.694</ele>
<time>2025-03-02T11:56:24Z</time>
<hdop>7.75</hdop>
</trkpt>
<trkpt lat="47.494263" lon="13.6072681">
<ele>2658.526</ele>
<time>2025-03-02T11:57:23Z</time>
<hdop>10.19</hdop>
</trkpt>
<trkpt lat="47.494263" lon="13.6072681">
<ele>2658.67</ele>
<time>2025-03-02T11:57:54Z</time>
<hdop>16.55</hdop>
</trkpt>
<trkpt lat="47.494263" lon="13.6072681">
<ele>2658.982</ele>
<time>2025-03-02T11:58:24Z</time>
<hdop>11.72</hdop>
</trkpt>
<trkpt lat="47.494263" lon="13.6072681">
<ele>2659.086</ele>
<time>2025-03-02T11:58:54Z</time>
<hdop>15.47</hdop>
</trkpt>
<trkpt lat="47.494263" lon="13.6072681">
<ele>2660.093</ele>
<time>2025-03-02T11:59:24Z</time>
<hdop>18.74</hdop>
</trkpt>
<trkpt lat="47.494263" lon="13.6072681">
<ele>2660.361</ele>
<time>2025-03-02T11:59:54Z</time>
<hdop>11.09</hdop>
</trkpt>
<trkpt lat="47.494263" lon="13.6072681">
<ele>2660.91</ele>
<time>2025-03-02T12:00:53Z</time>
<hdop>10.28</hdop>
</trkpt>
<trkpt lat="47.494263" lon="13.6072681">
<ele>2660.973</ele>
<time>2025-03-02T12:01:25Z</time>
<hdop>20.47</hdop>
</trkpt>
<trkpt lat="47.494263" lon="13.6072681">
<ele>2661.267</ele>
<time>2025-03-02T12:02:23Z</time>
<hdop>6.82</hdop>
</trkpt>
<trkpt lat="47.494263" lon="13.6072681">
<ele>2661.243</ele>
<time>2025-03-02T12:02:55Z</time>
<hdop>20.76</hdop>
</trkpt>
<trkpt lat="47.494263" lon="13.6072681">
<ele>2660.981</ele>
<time>2025-03-02T12:03:25Z</time>
<hdop>18.31</hdop>
</trkpt>
<trkpt lat="47.494263" lon="13.6072681">
<ele>2660.743</ele>
<time>2025-03-02T12:04:23Z</time>
<hdop>7.78</hdop>
</trkpt>
<trkpt lat="47.4942982" lon="13.6072521">
<ele>2661.192</ele>
<time>2025-03-02T12:05:25Z</time>
<hdop>26.3</hdop>
</trkpt>
<trkpt lat="47.4942609" lon="13.6070598">
<ele>2655.969</ele>
<time>2025-03-02T12:07:23Z</time>
<hdop>3.91</hdop>
</trkpt>
<trkpt lat="47.4942613" lon="13.6069888">
<ele>2467.227</ele>
<time>2025-03-02T12:07:53Z</time>
<hdop>9.93</hdop>
</trkpt>
<trkpt lat="47.4943225" lon="13.6070098">
<ele>2656.847</ele>
<time>2025-03-02T12:08:24Z</time>
<hdop>10.25</hdop>
</trkpt>
<trkpt lat="47.4943386" lon="13.6069719">
<ele>2667.841</ele>
<time>2025-03-02T12:08:54Z</time>
<hdop>16.45</hdop>
</trkpt>
<trkpt lat="47.4943303" lon="13.6069789">
<ele>2618.001</ele>
<time>2025-03-02T12:09:54Z</time>
<hdop>13.35</hdop>
</trkpt>
<trkpt lat="47.4943051" lon="13.6069677">
<ele>2643.625</ele>
<time>2025-03-02T12:10:24Z</time>
<hdop>15.02</hdop>
</trkpt>
<trkpt lat="47.4941424" lon="13.6069061">
<ele>2629.44</ele>
<time>2025-03-02T12:10:54Z</time>
<hdop>16.44</hdop>
</trkpt>
<trkpt lat="47.4940732" lon="13.6069616">
<ele>2621.324</ele>
<time>2025-03-02T12:11:24Z</time>
<hdop>20.3</hdop>
</trkpt>
<trkpt lat="47.4940463" lon="13.6069486">
<ele>2624.242</ele>
<time>2025-03-02T12:11:54Z</time>
<hdop>20.12</hdop>
</trkpt>
<trkpt lat="47.494026" lon="13.6069443">
<ele>2610.918</ele>
<time>2025-03-02T12:12:26Z</time>
<hdop>33.23</hdop>
</trkpt>
<trkpt lat="47.494026" lon="13.6069443">
<ele>2617.362</ele>
<time>2025-03-02T12:13:25Z</time>
<hdop>12.24</hdop>
</trkpt>
<trkpt lat="47.494026" lon="13.6069443">
<ele>2618.422</ele>
<time>2025-03-02T12:14:24Z</time>
<hdop>11.36</hdop>
</trkpt>
<trkpt lat="47.494026" lon="13.6069443">
<ele>2627.2</ele>
<time>2025-03-02T12:14:54Z</time>
<hdop>9.71</hdop>
</trkpt>
<trkpt lat="47.4940348" lon="13.6069316">
<ele>2484.069</ele>
<time>2025-03-02T12:17:24Z</time>
<hdop>13.36</hdop>
</trkpt>
<trkpt lat="47.4940242" lon="13.6069192">
<ele>2611.165</ele>
<time>2025-03-02T12:18:25Z</time>
<hdop>27.04</hdop>
</trkpt>
<trkpt lat="47.4940225" lon="13.6069156">
<ele>2630.861</ele>
<time>2025-03-02T12:18:55Z</time>
<hdop>13.23</hdop>
</trkpt>
<trkpt lat="47.4940225" lon="13.6069156">
<ele>2632.607</ele>
<time>2025-03-02T12:19:54Z</time>
<hdop>14.81</hdop>
</trkpt>
<trkpt lat="47.4940225" lon="13.6069156">
<ele>2633.712</ele>
<time>2025-03-02T12:20:24Z</time>
<hdop>11.51</hdop>
</trkpt>
<trkpt lat="47.4940225" lon="13.6069156">
<ele>2627.689</ele>
<time>2025-03-02T12:20:54Z</time>
<hdop>18.38</hdop>
</trkpt>
<trkpt lat="47.4941217" lon="13.6065208">
<ele>2604.942</ele>
<time>2025-03-02T12:22:24Z</time>
<hdop>13.12</hdop>
</trkpt>
<trkpt lat="47.4942915" lon="13.6064089">
<ele>2627.99</ele>
<time>2025-03-02T12:22:55Z</time>
<hdop>19.03</hdop>
</trkpt>
<trkpt lat="47.4942673" lon="13.60633">
<ele>2603.262</ele>
<time>2025-03-02T12:23:54Z</time>
<hdop>14.59</hdop>
</trkpt>
<trkpt lat="47.4942505" lon="13.6062751">
<ele>2608.333</ele>
<time>2025-03-02T12:24:25Z</time>
<hdop>17.66</hdop>
</trkpt>
<trkpt lat="47.4940879" lon="13.6060413">
<ele>2585.211</ele>
<time>2025-03-02T12:25:26Z</time>
<hdop>28.37</hdop>
</trkpt>
<trkpt lat="47.4938681" lon="13.6058237">
<ele>2557.934</ele>
<time>2025-03-02T12:26:25Z</time>
<hdop>22.66</hdop>
</trkpt>
<trkpt lat="47.4939253" lon="13.6057242">
<ele>2518.355</ele>
<time>2025-03-02T12:28:25Z</time>
<hdop>22.78</hdop>
</trkpt>
<trkpt lat="47.4940799" lon="13.6052774">
<ele>2505.066</ele>
<time>2025-03-02T12:29:01Z</time>
<hdop>54.0</hdop>
</trkpt>
<trkpt lat="47.4939644" lon="13.6052372">
<ele>2505.928</ele>
<time>2025-03-02T12:29:33Z</time>
<hdop>53.67</hdop>
</trkpt>
<trkpt lat="47.4939419" lon="13.6052459">
<ele>2503.685</ele>
<time>2025-03-02T12:30:31Z</time>
<hdop>51.19</hdop>
</trkpt>
<trkpt lat="47.4938345" lon="13.6043492">
<ele>2470.051</ele>
<time>2025-03-02T12:32:24Z</time>
<hdop>16.99</hdop>
</trkpt>
<trkpt lat="47.4938381" lon="13.6042291">
<ele>2451.646</ele>
<time>2025-03-02T12:32:54Z</time>
<hdop>17.98</hdop>
</trkpt>
<trkpt lat="47.4938357" lon="13.6042032">
<ele>2452.378</ele>
<time>2025-03-02T12:33:25Z</time>
<hdop>27.74</hdop>
</trkpt>
<trkpt lat="47.4938357" lon="13.6042032">
<ele>2449.988</ele>
<time>2025-03-02T12:33:55Z</time>
<hdop>27.68</hdop>
</trkpt>
<trkpt lat="47.4938357" lon="13.6042032">
<ele>2450.054</ele>
<time>2025-03-02T12:34:25Z</time>
<hdop>26.42</hdop>
</trkpt>
<trkpt lat="47.4938111" lon="13.6042041">
<ele>2459.549</ele>
<time>2025-03-02T12:34:55Z</time>
<hdop>22.2</hdop>
</trkpt>
<trkpt lat="47.4938005" lon="13.6042048">
<ele>2457.711</ele>
<time>2025-03-02T12:35:25Z</time>
<hdop>27.64</hdop>
</trkpt>
<trkpt lat="47.4937412" lon="13.6034057">
<ele>2416.079</ele>
<time>2025-03-02T12:40:55Z</time>
<hdop>30.88</hdop>
</trkpt>
<trkpt lat="47.4937412" lon="13.6034057">
<ele>2420.389</ele>
<time>2025-03-02T12:41:25Z</time>
<hdop>30.84</hdop>
</trkpt>
<trkpt lat="47.4937412" lon="13.6034057">
<ele>2427.605</ele>
<time>2025-03-02T12:41:56Z</time>
<hdop>39.37</hdop>
</trkpt>
<trkpt lat="47.4937437" lon="13.603421">
<ele>2400.076</ele>
<time>2025-03-02T12:45:25Z</time>
<hdop>22.11</hdop>
</trkpt>
<trkpt lat="47.4937974" lon="13.6034971">
<ele>2394.107</ele>
<time>2025-03-02T12:45:55Z</time>
<hdop>28.05</hdop>
</trkpt>
<trkpt lat="47.493786" lon="13.603366">
<ele>2356.641</ele>
<time>2025-03-02T12:46:55Z</time>
<hdop>21.37</hdop>
</trkpt>
<trkpt lat="47.4938452" lon="13.6032048">
<ele>2381.684</ele>
<time>2025-03-02T12:47:25Z</time>
<hdop>25.28</hdop>
</trkpt>
<trkpt lat="47.4938452" lon="13.6032048">
<ele>2395.377</ele>
<time>2025-03-02T12:48:26Z</time>
<hdop>27.81</hdop>
</trkpt>
<trkpt lat="47.4938452" lon="13.6032048">
<ele>2383.166</ele>
<time>2025-03-02T12:49:27Z</time>
<hdop>38.49</hdop>
</trkpt>
<trkpt lat="47.4938452" lon="13.6032048">
<ele>2385.301</ele>
<time>2025-03-02T12:50:26Z</time>
<hdop>37.5</hdop>
</trkpt>
<trkpt lat="47.4938452" lon="13.6032048">
<ele>2383.644</ele>
<time>2025-03-02T12:51:25Z</time>
<hdop>23.97</hdop>
</trkpt>
<trkpt lat="47.4938452" lon="13.6032048">
<ele>2381.355</ele>
<time>2025-03-02T12:51:55Z</time>
<hdop>27.02</hdop>
</trkpt>
<trkpt lat="47.4938452" lon="13.6032048">
<ele>2383.027</ele>
<time>2025-03-02T12:52:25Z</time>
<hdop>28.63</hdop>
</trkpt>
<trkpt lat="47.4938452" lon="13.6032048">
<ele>2383.38</ele>
<time>2025-03-02T12:52:55Z</time>
<hdop>26.32</hdop>
</trkpt>
<trkpt lat="47.4938452" lon="13.6032048">
<ele>2384.72</ele>
<time>2025-03-02T12:53:25Z</time>
<hdop>20.92</hdop>
</trkpt>
<trkpt lat="47.4938452" lon="13.6032048">
<ele>2384.537</ele>
<time>2025-03-02T12:53:56Z</time>
<hdop>40.27</hdop>
</trkpt>
<trkpt lat="47.4938452" lon="13.6032048">
<ele>2386.501</ele>
<time>2025-03-02T12:54:56Z</time>
<hdop>31.47</hdop>
</trkpt>
<trkpt lat="47.4938215" lon="13.6033735">
<ele>2385.405</ele>
<time>2025-03-02T12:57:27Z</time>
<hdop>33.44</hdop>
</trkpt>
<trkpt lat="47.4938255" lon="13.6033819">
<ele>2383.704</ele>
<time>2025-03-02T12:57:59Z</time>
<hdop>50.69</hdop>
</trkpt>
<trkpt lat="47.4938125" lon="13.6034099">
<ele>2375.72</ele>
<time>2025-03-02T12:58:44Z</time>
<hdop>75.73</hdop>
</trkpt>
<trkpt lat="47.4938125" lon="13.6034099">
<ele>2374.874</ele>
<time>2025-03-02T12:59:38Z</time>
<hdop>63.29</hdop>
</trkpt>
<trkpt lat="47.4938125" lon="13.6034099">
<ele>2372.932</ele>
<time>2025-03-02T13:00:31Z</time>
<hdop>52.24</hdop>
</trkpt>
<trkpt lat="47.4938125" lon="13.6034099">
<ele>2374.534</ele>
<time>2025-03-02T13:01:26Z</time>
<hdop>33.1</hdop>
</trkpt>
<trkpt lat="47.4938125" lon="13.6034099">
<ele>2369.799</ele>
<time>2025-03-02T13:01:57Z</time>
<hdop>38.9</hdop>
</trkpt>
<trkpt lat="47.4938125" lon="13.6034099">
<ele>2370.83</ele>
<time>2025-03-02T13:02:27Z</time>
<hdop>38.76</hdop>
</trkpt>
<trkpt lat="47.4938125" lon="13.6034099">
<ele>2372.078</ele>
<time>2025-03-02T13:02:59Z</time>
<hdop>45.13</hdop>
</trkpt>
<trkpt lat="47.4938125" lon="13.6034099">
<ele>2370.274</ele>
<time>2025-03-02T13:03:57Z</time>
<hdop>45.54</hdop>
</trkpt>
<trkpt lat="47.4938125" lon="13.6034099">
<ele>2368.125</ele>
<time>2025-03-02T13:04:30Z</time>
<hdop>52.74</hdop>
</trkpt>
<trkpt lat="47.4938125" lon="13.6034099">
<ele>2367.967</ele>
<time>2025-03-02T13:05:26Z</time>
<hdop>38.9</hdop>
</trkpt>
<trkpt lat="47.4938125" lon="13.6034099">
<ele>2367.721</ele>
<time>2025-03-02T13:06:01Z</time>
<hdop>54.0</hdop>
</trkpt>
<trkpt lat="47.4938125" lon="13.6034099">
<ele>2368.671</ele>
<time>2025-03-02T13:06:56Z</time>
<hdop>41.48</hdop>
</trkpt>
<trkpt lat="47.4938125" lon="13.6034099">
<ele>2367.974</ele>
<time>2025-03-02T13:07:27Z</time>
<hdop>43.76</hdop>
</trkpt>
<trkpt lat="47.4938125" lon="13.6034099">
<ele>2368.212</ele>
<time>2025-03-02T13:08:31Z</time>
<hdop>47.35</hdop>
</trkpt>
<trkpt lat="47.4938125" lon="13.6034099">
<ele>2367.723</ele>
<time>2025-03-02T13:09:29Z</time>
<hdop>50.0</hdop>
</trkpt>
<trkpt lat="47.4938125" lon="13.6034099">
<ele>2363.3</ele>
<time>2025-03-02T13:10:24Z</time>
<hdop>19.49</hdop>
</trkpt>
<trkpt lat="47.4938125" lon="13.6034099">
<ele>2352.423</ele>
<time>2025-03-02T13:10:57Z</time>
<hdop>39.2</hdop>
</trkpt>
<trkpt lat="47.4938125" lon="13.6034099">
<ele>2350.272</ele>
<time>2025-03-02T13:11:56Z</time>
<hdop>32.14</hdop>
</trkpt>
<trkpt lat="47.4938125" lon="13.6034099">
<ele>2346.103</ele>
<time>2025-03-02T13:12:26Z</time>
<hdop>42.62</hdop>
</trkpt>
<trkpt lat="47.4938125" lon="13.6034099">
<ele>2355.98</ele>
<time>2025-03-02T13:13:01Z</time>
<hdop>55.32</hdop>
</trkpt>
<trkpt lat="47.4938167" lon="13.6032414">
<ele>2357.721</ele>
<time>2025-03-02T13:13:56Z</time>
<hdop>34.38</hdop>
</trkpt>
<trkpt lat="47.49379" lon="13.6032332">
<ele>2358.386</ele>
<time>2025-03-02T13:14:26Z</time>
<hdop>32.36</hdop>
</trkpt>
<trkpt lat="47.4937824" lon="13.6032148">
<ele>2357.626</ele>
<time>2025-03-02T13:15:25Z</time>
<hdop>30.38</hdop>
</trkpt>
<trkpt lat="47.493765" lon="13.6032088">
<ele>2359.266</ele>
<time>2025-03-02T13:16:26Z</time>
<hdop>35.66</hdop>
</trkpt>
<trkpt lat="47.4937654" lon="13.6031832">
<ele>2363.834</ele>
<time>2025-03-02T13:17:27Z</time>
<hdop>51.26</hdop>
</trkpt>
<trkpt lat="47.4937607" lon="13.6031506">
<ele>2368.141</ele>
<time>2025-03-02T13:18:27Z</time>
<hdop>37.8</hdop>
</trkpt>
<trkpt lat="47.4937664" lon="13.603112">
<ele>2370.462</ele>
<time>2025-03-02T13:19:28Z</time>
<hdop>47.91</hdop>
</trkpt>
<trkpt lat="47.4937955" lon="13.6031025">
<ele>2365.551</ele>
<time>2025-03-02T13:20:26Z</time>
<hdop>32.79</hdop>
</trkpt>
<trkpt lat="47.4937933" lon="13.6030664">
<ele>2339.494</ele>
<time>2025-03-02T13:20:56Z</time>
<hdop>25.9</hdop>
</trkpt>
<trkpt lat="47.4937933" lon="13.6030664">
<ele>2332.08</ele>
<time>2025-03-02T13:21:55Z</time>
<hdop>28.68</hdop>
</trkpt>
<trkpt lat="47.4937933" lon="13.6030664">
<ele>2329.774</ele>
<time>2025-03-02T13:22:26Z</time>
<hdop>26.83</hdop>
</trkpt>
<trkpt lat="47.4937933" lon="13.6030664">
<ele>2326.881</ele>
<time>2025-03-02T13:22:56Z</time>
<hdop>33.2</hdop>
</trkpt>
<trkpt lat="47.4937933" lon="13.6030664">
<ele>2329.916</ele>
<time>2025-03-02T13:23:26Z</time>
<hdop>42.36</hdop>
</trkpt>
<trkpt lat="47.4937933" lon="13.6030664">
<ele>2327.51</ele>
<time>2025-03-02T13:23:56Z</time>
<hdop>35.31</hdop>
</trkpt>
<trkpt lat="47.4937933" lon="13.6030664">
<ele>2321.3</ele>
<time>2025-03-02T13:24:26Z</time>
<hdop>38.56</hdop>
</trkpt>
<trkpt lat="47.4937933" lon="13.6030664">
<ele>2321.116</ele>
<time>2025-03-02T13:24:56Z</time>
<hdop>31.4</hdop>
</trkpt>
<trkpt lat="47.4937933" lon="13.6030664">
<ele>2321.394</ele>
<time>2025-03-02T13:25:26Z</time>
<hdop>32.07</hdop>
</trkpt>
<trkpt lat="47.4937933" lon="13.6030664">
<ele>2327.262</ele>
<time>2025-03-02T13:26:01Z</time>
<hdop>47.61</hdop>
</trkpt>
<trkpt lat="47.4937933" lon="13.6030664">
<ele>2327.063</ele>
<time>2025-03-02T13:26:56Z</time>
<hdop>37.99</hdop>
</trkpt>
<trkpt lat="47.4937933" lon="13.6030664">
<ele>2328.075</ele>
<time>2025-03-02T13:27:56Z</time>
<hdop>34.98</hdop>
</trkpt>
<trkpt lat="47.4937933" lon="13.6030664">
<ele>2328.409</ele>
<time>2025-03-02T13:28:26Z</time>
<hdop>38.36</hdop>
</trkpt>
<trkpt lat="47.4937933" lon="13.6030664">
<ele>2328.304</ele>
<time>2025-03-02T13:28:56Z</time>
<hdop>35.9</hdop>
</trkpt>
<trkpt lat="47.4937933" lon="13.6030664">
<ele>2327.342</ele>
<time>2025-03-02T13:29:26Z</time>
<hdop>29.74</hdop>
</trkpt>
<trkpt lat="47.4937933" lon="13.6030664">
<ele>2328.594</ele>
<time>2025-03-02T13:30:02Z</time>
<hdop>54.79</hdop>
</trkpt>
<trkpt lat="47.4938654" lon="13.6030036">
<ele>2333.106</ele>
<time>2025-03-02T13:30:57Z</time>
<hdop>44.39</hdop>
</trkpt>
<trkpt lat="47.4945088" lon="13.6019796">
<ele>2275.685</ele>
<time>2025-03-02T13:31:55Z</time>
<hdop>27.63</hdop>
</trkpt>
<trkpt lat="47.4945339" lon="13.601952">
<ele>2277.109</ele>
<time>2025-03-02T13:32:25Z</time>
<hdop>24.85</hdop>
</trkpt>
<trkpt lat="47.4946257" lon="13.6017756">
<ele>2277.602</ele>
<time>2025-03-02T13:32:55Z</time>
<hdop>16.28</hdop>
</trkpt>
<trkpt lat="47.4946682" lon="13.6015867">
<ele>2270.9</ele>
<time>2025-03-02T13:33:55Z</time>
<hdop>17.15</hdop>
</trkpt>
<trkpt lat="47.4954857" lon="13.5999427">
<ele>2249.979</ele>
<time>2025-03-02T13:34:55Z</time>
<hdop>30.35</hdop>
</trkpt>
<trkpt lat="47.4955014" lon="13.5999406">
<ele>2200.054</ele>
<time>2025-03-02T13:35:29Z</time>
<hdop>46.57</hdop>
</trkpt>
<trkpt lat="47.4956105" lon="13.5999445">
<ele>2201.012</ele>
<time>2025-03-02T13:36:25Z</time>
<hdop>23.02</hdop>
</trkpt>
<trkpt lat="47.4956347" lon="13.5998921">
<ele>2205.921</ele>
<time>2025-03-02T13:36:55Z</time>
<hdop>17.59</hdop>
</trkpt>
<trkpt lat="47.496063" lon="13.5991614">
<ele>2180.898</ele>
<time>2025-03-02T13:37:26Z</time>
<hdop>33.97</hdop>
</trkpt>
<trkpt lat="47.4962611" lon="13.5985128">
<ele>2172.023</ele>
<time>2025-03-02T13:38:26Z</time>
<hdop>35.49</hdop>
</trkpt>
<trkpt lat="47.4962293" lon="13.5980964">
<ele>2182.169</ele>
<time>2025-03-02T13:38:56Z</time>
<hdop>26.93</hdop>
</trkpt>
<trkpt lat="47.4963768" lon="13.5980801">
<ele>2173.362</ele>
<time>2025-03-02T13:39:26Z</time>
<hdop>38.59</hdop>
</trkpt>
<trkpt lat="47.4965851" lon="13.5980276">
<ele>2202.358</ele>
<time>2025-03-02T13:40:25Z</time>
<hdop>24.2</hdop>
</trkpt>
<trkpt lat="47.4971368" lon="13.5971101">
<ele>2184.828</ele>
<time>2025-03-02T13:40:55Z</time>
<hdop>23.33</hdop>
</trkpt>
<trkpt lat="47.4976882" lon="13.5959774">
<ele>2173.025</ele>
<time>2025-03-02T13:41:25Z</time>
<hdop>17.59</hdop>
</trkpt>
<trkpt lat="47.4976494" lon="13.5959373">
<ele>2164.533</ele>
<time>2025-03-02T13:42:24Z</time>
<hdop>14.36</hdop>
</trkpt>
<trkpt lat="47.4976857" lon="13.5957822">
<ele>2138.784</ele>
<time>2025-03-02T13:42:54Z</time>
<hdop>21.39</hdop>
</trkpt>
<trkpt lat="47.4978622" lon="13.5947272">
<ele>2103.201</ele>
<time>2025-03-02T13:43:24Z</time>
<hdop>18.58</hdop>
</trkpt>
<trkpt lat="47.4977826" lon="13.5942221">
<ele>2093.567</ele>
<time>2025-03-02T13:43:56Z</time>
<hdop>40.55</hdop>
</trkpt>
<trkpt lat="47.4980174" lon="13.5936915">
<ele>2092.37</ele>
<time>2025-03-02T13:44:26Z</time>
<hdop>38.24</hdop>
</trkpt>
<trkpt lat="47.4980241" lon="13.5931443">
<ele>2092.316</ele>
<time>2025-03-02T13:44:56Z</time>
<hdop>38.29</hdop>
</trkpt>
<trkpt lat="47.4982747" lon="13.5928086">
<ele>2125.815</ele>
<time>2025-03-02T13:45:57Z</time>
<hdop>43.52</hdop>
</trkpt>
<trkpt lat="47.4985349" lon="13.5925625">
<ele>2087.542</ele>
<time>2025-03-02T13:46:55Z</time>
<hdop>19.11</hdop>
</trkpt>
<trkpt lat="47.5004382" lon="13.5898357">
<ele>2084.076</ele>
<time>2025-03-02T13:48:54Z</time>
<hdop>8.94</hdop>
</trkpt>
<trkpt lat="47.5004409" lon="13.5898637">
<ele>2142.026</ele>
<time>2025-03-02T13:49:24Z</time>
<hdop>17.06</hdop>
</trkpt>
<trkpt lat="47.5004661" lon="13.5898816">
<ele>2106.422</ele>
<time>2025-03-02T13:49:55Z</time>
<hdop>19.78</hdop>
</trkpt>
<trkpt lat="47.500475" lon="13.5898704">
<ele>2081.121</ele>
<time>2025-03-02T13:50:54Z</time>
<hdop>13.26</hdop>
</trkpt>
<trkpt lat="47.500475" lon="13.5898704">
<ele>2083.066</ele>
<time>2025-03-02T13:51:24Z</time>
<hdop>20.62</hdop>
</trkpt>
<trkpt lat="47.500475" lon="13.5898704">
<ele>2075.017</ele>
<time>2025-03-02T13:52:24Z</time>
<hdop>13.65</hdop>
</trkpt>
<trkpt lat="47.500475" lon="13.5898704">
<ele>2074.563</ele>
<time>2025-03-02T13:52:54Z</time>
<hdop>17.69</hdop>
</trkpt>
<trkpt lat="47.500475" lon="13.5898704">
<ele>2074.836</ele>
<time>2025-03-02T13:53:25Z</time>
<hdop>19.05</hdop>
</trkpt>
<trkpt lat="47.5004818" lon="13.5898338">
<ele>2075.001</ele>
<time>2025-03-02T13:53:55Z</time>
<hdop>15.19</hdop>
</trkpt>
<trkpt lat="47.5006801" lon="13.5895251">
<ele>2064.841</ele>
<time>2025-03-02T13:54:54Z</time>
<hdop>17.02</hdop>
</trkpt>
<trkpt lat="47.5007405" lon="13.5893334">
<ele>2069.345</ele>
<time>2025-03-02T13:55:24Z</time>
<hdop>13.99</hdop>
</trkpt>
<trkpt lat="47.5006071" lon="13.5887456">
<ele>2146.937</ele>
<time>2025-03-02T13:56:54Z</time>
<hdop>19.48</hdop>
</trkpt>
<trkpt lat="47.5005778" lon="13.5886487">
<ele>2092.814</ele>
<time>2025-03-02T13:57:24Z</time>
<hdop>12.15</hdop>
</trkpt>
<trkpt lat="47.500615" lon="13.5884348">
<ele>2075.577</ele>
<time>2025-03-02T13:57:54Z</time>
<hdop>17.4</hdop>
</trkpt>
<trkpt lat="47.5004213" lon="13.5880558">
<ele>2096.734</ele>
<time>2025-03-02T13:58:26Z</time>
<hdop>32.19</hdop>
</trkpt>
<trkpt lat="47.5004006" lon="13.5879067">
<ele>2066.066</ele>
<time>2025-03-02T14:02:55Z</time>
<hdop>30.53</hdop>
</trkpt>
<trkpt lat="47.5003869" lon="13.587946">
<ele>2072.171</ele>
<time>2025-03-02T14:03:26Z</time>
<hdop>32.27</hdop>
</trkpt>
<trkpt lat="47.5003947" lon="13.5879586">
<ele>2075.205</ele>
<time>2025-03-02T14:04:26Z</time>
<hdop>33.08</hdop>
</trkpt>
<trkpt lat="47.5004187" lon="13.5878803">
<ele>2074.789</ele>
<time>2025-03-02T14:05:24Z</time>
<hdop>21.04</hdop>
</trkpt>
<trkpt lat="47.5005943" lon="13.5871834">
<ele>2069.411</ele>
<time>2025-03-02T14:05:54Z</time>
<hdop>15.89</hdop>
</trkpt>
<trkpt lat="47.500828" lon="13.5868579">
<ele>2032.347</ele>
<time>2025-03-02T14:06:25Z</time>
<hdop>31.38</hdop>
</trkpt>
<trkpt lat="47.5014997" lon="13.58479">
<ele>2018.439</ele>
<time>2025-03-02T14:07:25Z</time>
<hdop>25.73</hdop>
</trkpt>
<trkpt lat="47.501989" lon="13.5827716">
<ele>2000.309</ele>
<time>2025-03-02T14:07:55Z</time>
<hdop>22.85</hdop>
</trkpt>
<trkpt lat="47.5029994" lon="13.5798913">
<ele>1989.525</ele>
<time>2025-03-02T14:08:54Z</time>
<hdop>11.15</hdop>
</trkpt>
<trkpt lat="47.5030355" lon="13.5797301">
<ele>1987.465</ele>
<time>2025-03-02T14:09:24Z</time>
<hdop>19.72</hdop>
</trkpt>
<trkpt lat="47.503064" lon="13.5796212">
<ele>1976.334</ele>
<time>2025-03-02T14:10:23Z</time>
<hdop>6.37</hdop>
</trkpt>
<trkpt lat="47.5030437" lon="13.5795601">
<ele>1982.09</ele>
<time>2025-03-02T14:10:54Z</time>
<hdop>10.95</hdop>
</trkpt>
<trkpt lat="47.5030516" lon="13.5795481">
<ele>1992.015</ele>
<time>2025-03-02T14:11:24Z</time>
<hdop>11.28</hdop>
</trkpt>
<trkpt lat="47.5030717" lon="13.5795468">
<ele>1992.379</ele>
<time>2025-03-02T14:11:54Z</time>
<hdop>9.67</hdop>
</trkpt>
<trkpt lat="47.5030854" lon="13.579559">
<ele>1990.53</ele>
<time>2025-03-02T14:12:54Z</time>
<hdop>15.85</hdop>
</trkpt>
<trkpt lat="47.5030854" lon="13.579559">
<ele>1991.678</ele>
<time>2025-03-02T14:13:53Z</time>
<hdop>5.06</hdop>
</trkpt>
<trkpt lat="47.5030854" lon="13.579559">
<ele>1991.599</ele>
<time>2025-03-02T14:14:24Z</time>
<hdop>15.62</hdop>
</trkpt>
<trkpt lat="47.5030854" lon="13.579559">
<ele>1992.831</ele>
<time>2025-03-02T14:15:24Z</time>
<hdop>13.13</hdop>
</trkpt>
<trkpt lat="47.5030819" lon="13.5795358">
<ele>1995.258</ele>
<time>2025-03-02T14:16:25Z</time>
<hdop>19.62</hdop>
</trkpt>
<trkpt lat="47.5029441" lon="13.5793394">
<ele>1986.541</ele>
<time>2025-03-02T14:17:24Z</time>
<hdop>17.1</hdop>
</trkpt>
<trkpt lat="47.5029802" lon="13.5793165">
<ele>1998.4</ele>
<time>2025-03-02T14:17:54Z</time>
<hdop>11.29</hdop>
</trkpt>
<trkpt lat="47.5029634" lon="13.5792048">
<ele>2003.927</ele>
<time>2025-03-02T14:18:24Z</time>
<hdop>8.91</hdop>
</trkpt>
<trkpt lat="47.5027432" lon="13.5789649">
<ele>2004.797</ele>
<time>2025-03-02T14:18:54Z</time>
<hdop>11.61</hdop>
</trkpt>
<trkpt lat="47.502541" lon="13.5790282">
<ele>2002.493</ele>
<time>2025-03-02T14:19:24Z</time>
<hdop>12.32</hdop>
</trkpt>
<trkpt lat="47.5023432" lon="13.5788848">
<ele>2000.894</ele>
<time>2025-03-02T14:19:54Z</time>
<hdop>17.13</hdop>
</trkpt>
<trkpt lat="47.5020242" lon="13.5785615">
<ele>2010.012</ele>
<time>2025-03-02T14:20:54Z</time>
<hdop>9.42</hdop>
</trkpt>
<trkpt lat="47.5018078" lon="13.5783144">
<ele>2003.058</ele>
<time>2025-03-02T14:21:24Z</time>
<hdop>7.43</hdop>
</trkpt>
<trkpt lat="47.5013531" lon="13.5778562">
<ele>2013.502</ele>
<time>2025-03-02T14:22:24Z</time>
<hdop>12.05</hdop>
</trkpt>
<trkpt lat="47.5012224" lon="13.5775975">
<ele>2014.241</ele>
<time>2025-03-02T14:22:54Z</time>
<hdop>15.72</hdop>
</trkpt>
<trkpt lat="47.5011832" lon="13.5773627">
<ele>2013.376</ele>
<time>2025-03-02T14:23:24Z</time>
<hdop>19.36</hdop>
</trkpt>
<trkpt lat="47.5011359" lon="13.577288">
<ele>2026.942</ele>
<time>2025-03-02T14:23:54Z</time>
<hdop>18.06</hdop>
</trkpt>
<trkpt lat="47.5010502" lon="13.5773039">
<ele>2017.144</ele>
<time>2025-03-02T14:24:24Z</time>
<hdop>10.47</hdop>
</trkpt>
<trkpt lat="47.5009619" lon="13.5774704">
<ele>2018.547</ele>
<time>2025-03-02T14:24:54Z</time>
<hdop>9.46</hdop>
</trkpt>
<trkpt lat="47.5007647" lon="13.5775888">
<ele>2017.079</ele>
<time>2025-03-02T14:25:24Z</time>
<hdop>7.49</hdop>
</trkpt>
<trkpt lat="47.5007221" lon="13.5774717">
<ele>2024.863</ele>
<time>2025-03-02T14:25:54Z</time>
<hdop>12.05</hdop>
</trkpt>
<trkpt lat="47.5005462" lon="13.5772598">
<ele>2032.56</ele>
<time>2025-03-02T14:26:24Z</time>
<hdop>12.34</hdop>
</trkpt>
<trkpt lat="47.5004247" lon="13.576997">
<ele>2038.823</ele>
<time>2025-03-02T14:26:54Z</time>
<hdop>10.52</hdop>
</trkpt>
<trkpt lat="47.500063" lon="13.5765141">
<ele>2046.804</ele>
<time>2025-03-02T14:27:54Z</time>
<hdop>13.44</hdop>
</trkpt>
<trkpt lat="47.4999344" lon="13.5762193">
<ele>2043.548</ele>
<time>2025-03-02T14:28:24Z</time>
<hdop>7.23</hdop>
</trkpt>
<trkpt lat="47.499471" lon="13.57564">
<ele>2042.128</ele>
<time>2025-03-02T14:29:23Z</time>
<hdop>6.75</hdop>
</trkpt>
<trkpt lat="47.4990767" lon="13.5755193">
<ele>2039.824</ele>
<time>2025-03-02T14:29:54Z</time>
<hdop>13.75</hdop>
</trkpt>
<trkpt lat="47.4985915" lon="13.5747579">
<ele>2019.092</ele>
<time>2025-03-02T14:30:24Z</time>
<hdop>12.59</hdop>
</trkpt>
<trkpt lat="47.498252" lon="13.5744605">
<ele>2022.153</ele>
<time>2025-03-02T14:30:54Z</time>
<hdop>18.4</hdop>
</trkpt>
<trkpt lat="47.4980864" lon="13.5744552">
<ele>2021.149</ele>
<time>2025-03-02T14:31:24Z</time>
<hdop>14.29</hdop>
</trkpt>
<trkpt lat="47.4979973" lon="13.5744688">
<ele>2038.06</ele>
<time>2025-03-02T14:31:54Z</time>
<hdop>8.45</hdop>
</trkpt>
<trkpt lat="47.4978102" lon="13.5745329">
<ele>2000.39</ele>
<time>2025-03-02T14:32:55Z</time>
<hdop>20.73</hdop>
</trkpt>
<trkpt lat="47.497638" lon="13.5744681">
<ele>1971.941</ele>
<time>2025-03-02T14:33:25Z</time>
<hdop>20.02</hdop>
</trkpt>
<trkpt lat="47.4973112" lon="13.5766988">
<ele>2016.935</ele>
<time>2025-03-02T14:38:57Z</time>
<hdop>36.49</hdop>
</trkpt>
<trkpt lat="47.496883" lon="13.5765756">
<ele>2053.537</ele>
<time>2025-03-02T14:39:27Z</time>
<hdop>38.91</hdop>
</trkpt>
<trkpt lat="47.4964287" lon="13.57695">
<ele>2051.464</ele>
<time>2025-03-02T14:40:25Z</time>
<hdop>25.55</hdop>
</trkpt>
<trkpt lat="47.4963348" lon="13.5771931">
<ele>2030.199</ele>
<time>2025-03-02T14:40:55Z</time>
<hdop>23.86</hdop>
</trkpt>
<trkpt lat="47.4962" lon="13.5772048">
<ele>2061.923</ele>
<time>2025-03-02T14:41:25Z</time>
<hdop>25.56</hdop>
</trkpt>
<trkpt lat="47.4960551" lon="13.5770482">
<ele>2061.218</ele>
<time>2025-03-02T14:43:56Z</time>
<hdop>37.07</hdop>
</trkpt>
<trkpt lat="47.4960551" lon="13.5770482">
<ele>2064.517</ele>
<time>2025-03-02T14:44:26Z</time>
<hdop>26.67</hdop>
</trkpt>
<trkpt lat="47.4960551" lon="13.5770482">
<ele>2063.587</ele>
<time>2025-03-02T14:45:27Z</time>
<hdop>37.66</hdop>
</trkpt>
<trkpt lat="47.4960551" lon="13.5770482">
<ele>2067.56</ele>
<time>2025-03-02T14:45:58Z</time>
<hdop>48.14</hdop>
</trkpt>
<trkpt lat="47.4960009" lon="13.5771488">
<ele>2061.088</ele>
<time>2025-03-02T14:46:55Z</time>
<hdop>23.92</hdop>
</trkpt>
<trkpt lat="47.4953517" lon="13.5776378">
<ele>2058.223</ele>
<time>2025-03-02T14:47:25Z</time>
<hdop>23.16</hdop>
</trkpt>
<trkpt lat="47.4952133" lon="13.5775703">
<ele>2040.151</ele>
<time>2025-03-02T14:47:55Z</time>
<hdop>28.27</hdop>
</trkpt>
<trkpt lat="47.495165" lon="13.5771492">
<ele>2049.183</ele>
<time>2025-03-02T14:49:27Z</time>
<hdop>47.28</hdop>
</trkpt>
<trkpt lat="47.4928727" lon="13.5737533">
<ele>1994.68</ele>
<time>2025-03-02T14:51:55Z</time>
<hdop>15.62</hdop>
</trkpt>
<trkpt lat="47.4929338" lon="13.5712576">
<ele>1926.996</ele>
<time>2025-03-02T14:52:54Z</time>
<hdop>13.03</hdop>
</trkpt>
<trkpt lat="47.4926979" lon="13.5706565">
<ele>1933.481</ele>
<time>2025-03-02T14:53:24Z</time>
<hdop>16.11</hdop>
</trkpt>
<trkpt lat="47.4925093" lon="13.5703868">
<ele>1929.146</ele>
<time>2025-03-02T14:54:24Z</time>
<hdop>7.93</hdop>
</trkpt>
<trkpt lat="47.4923757" lon="13.5701903">
<ele>1925.741</ele>
<time>2025-03-02T14:55:23Z</time>
<hdop>8.81</hdop>
</trkpt>
<trkpt lat="47.4923373" lon="13.5700196">
<ele>1932.218</ele>
<time>2025-03-02T14:55:54Z</time>
<hdop>13.58</hdop>
</trkpt>
<trkpt lat="47.4918428" lon="13.5694188">
<ele>1907.909</ele>
<time>2025-03-02T14:56:24Z</time>
<hdop>13.67</hdop>
</trkpt>
<trkpt lat="47.4915663" lon="13.5683035">
<ele>1885.326</ele>
<time>2025-03-02T14:57:23Z</time>
<hdop>9.11</hdop>
</trkpt>
<trkpt lat="47.4914099" lon="13.567996">
<ele>1866.636</ele>
<time>2025-03-02T14:57:53Z</time>
<hdop>8.96</hdop>
</trkpt>
<trkpt lat="47.4909228" lon="13.5665288">
<ele>1850.628</ele>
<time>2025-03-02T14:58:24Z</time>
<hdop>12.24</hdop>
</trkpt>
<trkpt lat="47.4910326" lon="13.5656174">
<ele>1853.723</ele>
<time>2025-03-02T14:58:54Z</time>
<hdop>14.18</hdop>
</trkpt>
<trkpt lat="47.4909635" lon="13.5638923">
<ele>1822.888</ele>
<time>2025-03-02T14:59:24Z</time>
<hdop>17.61</hdop>
</trkpt>
<trkpt lat="47.4907924" lon="13.5634383">
<ele>1810.055</ele>
<time>2025-03-02T14:59:54Z</time>
<hdop>15.15</hdop>
</trkpt>
<trkpt lat="47.4905238" lon="13.563494">
<ele>1802.0</ele>
<time>2025-03-02T15:00:25Z</time>
<hdop>20.07</hdop>
</trkpt>
<trkpt lat="47.4903135" lon="13.5631691">
<ele>1788.16</ele>
<time>2025-03-02T15:00:55Z</time>
<hdop>26.87</hdop>
</trkpt>
<trkpt lat="47.4898807" lon="13.561069">
<ele>1781.08</ele>
<time>2025-03-02T15:01:25Z</time>
<hdop>26.95</hdop>
</trkpt>
<trkpt lat="47.4905109" lon="13.5587318">
<ele>1852.41</ele>
<time>2025-03-02T15:02:56Z</time>
<hdop>31.21</hdop>
</trkpt>
<trkpt lat="47.4906937" lon="13.5576544">
<ele>1804.407</ele>
<time>2025-03-02T15:04:26Z</time>
<hdop>40.49</hdop>
</trkpt>
<trkpt lat="47.4924911" lon="13.5550622">
<ele>1743.057</ele>
<time>2025-03-02T15:05:56Z</time>
<hdop>29.57</hdop>
</trkpt>
<trkpt lat="47.4925745" lon="13.5547782">
<ele>1667.256</ele>
<time>2025-03-02T15:06:26Z</time>
<hdop>33.37</hdop>
</trkpt>
<trkpt lat="47.4928867" lon="13.5541051">
<ele>1600.382</ele>
<time>2025-03-02T15:06:56Z</time>
<hdop>40.3</hdop>
</trkpt>
<trkpt lat="47.4929893" lon="13.5540828">
<ele>1556.246</ele>
<time>2025-03-02T15:07:26Z</time>
<hdop>25.69</hdop>
</trkpt>
<trkpt lat="47.4933913" lon="13.5538139">
<ele>1533.459</ele>
<time>2025-03-02T15:08:25Z</time>
<hdop>25.73</hdop>
</trkpt>
<trkpt lat="47.4934195" lon="13.5536368">
<ele>1495.697</ele>
<time>2025-03-02T15:08:56Z</time>
<hdop>35.45</hdop>
</trkpt>
<trkpt lat="47.4936514" lon="13.5525272">
<ele>1521.32</ele>
<time>2025-03-02T15:10:56Z</time>
<hdop>28.82</hdop>
</trkpt>
<trkpt lat="47.4944682" lon="13.5516138">
<ele>1474.86</ele>
<time>2025-03-02T15:11:57Z</time>
<hdop>37.99</hdop>
</trkpt>
<trkpt lat="47.4945156" lon="13.5516423">
<ele>1414.798</ele>
<time>2025-03-02T15:14:56Z</time>
<hdop>33.49</hdop>
</trkpt>
<trkpt lat="47.4945201" lon="13.5515112">
<ele>1421.263</ele>
<time>2025-03-02T15:15:26Z</time>
<hdop>26.74</hdop>
</trkpt>
<trkpt lat="47.4945484" lon="13.5514754">
<ele>1422.449</ele>
<time>2025-03-02T15:15:56Z</time>
<hdop>30.71</hdop>
</trkpt>
<trkpt lat="47.4944868" lon="13.5514046">
<ele>1411.138</ele>
<time>2025-03-02T15:16:26Z</time>
<hdop>27.33</hdop>
</trkpt>
<trkpt lat="47.4944868" lon="13.5514046">
<ele>1409.435</ele>
<time>2025-03-02T15:16:56Z</time>
<hdop>36.53</hdop>
</trkpt>
<trkpt lat="47.4944868" lon="13.5514046">
<ele>1410.398</ele>
<time>2025-03-02T15:17:26Z</time>
<hdop>33.54</hdop>
</trkpt>
<trkpt lat="47.4944868" lon="13.5514046">
<ele>1409.399</ele>
<time>2025-03-02T15:17:56Z</time>
<hdop>35.75</hdop>
</trkpt>
<trkpt lat="47.4944868" lon="13.5514046">
<ele>1405.726</ele>
<time>2025-03-02T15:18:27Z</time>
<hdop>34.5</hdop>
</trkpt>
<trkpt lat="47.4944868" lon="13.5514046">
<ele>1399.838</ele>
<time>2025-03-02T15:19:27Z</time>
<hdop>43.78</hdop>
</trkpt>
<trkpt lat="47.4944868" lon="13.5514046">
<ele>1397.918</ele>
<time>2025-03-02T15:20:26Z</time>
<hdop>38.56</hdop>
</trkpt>
<trkpt lat="47.494497" lon="13.5513957">
<ele>1397.073</ele>
<time>2025-03-02T15:20:56Z</time>
<hdop>26.96</hdop>
</trkpt>
<trkpt lat="47.4950245" lon="13.5514607">
<ele>1379.123</ele>
<time>2025-03-02T15:21:26Z</time>
<hdop>25.66</hdop>
</trkpt>
<trkpt lat="47.4951819" lon="13.5519229">
<ele>1513.619</ele>
<time>2025-03-02T15:23:56Z</time>
<hdop>33.05</hdop>
</trkpt>
<trkpt lat="47.4956064" lon="13.5522928">
<ele>1332.097</ele>
<time>2025-03-02T15:24:54Z</time>
<hdop>17.49</hdop>
</trkpt>
<trkpt lat="47.4958843" lon="13.5521711">
<ele>1330.337</ele>
<time>2025-03-02T15:25:25Z</time>
<hdop>23.98</hdop>
</trkpt>
<trkpt lat="47.4961923" lon="13.5515042">
<ele>1319.607</ele>
<time>2025-03-02T15:26:30Z</time>
<hdop>47.23</hdop>
</trkpt>
<trkpt lat="47.4961221" lon="13.5517582">
<ele>1284.657</ele>
<time>2025-03-02T15:27:59Z</time>
<hdop>47.32</hdop>
</trkpt>
<trkpt lat="47.4960764" lon="13.5519545">
<ele>1289.664</ele>
<time>2025-03-02T15:30:56Z</time>
<hdop>28.18</hdop>
</trkpt>
<trkpt lat="47.4960116" lon="13.552124">
<ele>1284.114</ele>
<time>2025-03-02T15:31:55Z</time>
<hdop>17.69</hdop>
</trkpt>
<trkpt lat="47.4959236" lon="13.552686">
<ele>1296.768</ele>
<time>2025-03-02T15:32:54Z</time>
<hdop>16.26</hdop>
</trkpt>
<trkpt lat="47.4958744" lon="13.552701">
<ele>1281.753</ele>
<time>2025-03-02T15:33:25Z</time>
<hdop>26.0</hdop>
</trkpt>
<trkpt lat="47.4958744" lon="13.552701">
<ele>1266.316</ele>
<time>2025-03-02T15:33:55Z</time>
<hdop>23.38</hdop>
</trkpt>
<trkpt lat="47.4958744" lon="13.552701">
<ele>1259.853</ele>
<time>2025-03-02T15:34:25Z</time>
<hdop>27.98</hdop>
</trkpt>
<trkpt lat="47.4958744" lon="13.552701">
<ele>1255.123</ele>
<time>2025-03-02T15:34:56Z</time>
<hdop>41.71</hdop>
</trkpt>
<trkpt lat="47.4958586" lon="13.5527796">
<ele>1258.932</ele>
<time>2025-03-02T15:35:28Z</time>
<hdop>50.71</hdop>
</trkpt>
<trkpt lat="47.495869" lon="13.5528692">
<ele>1303.345</ele>
<time>2025-03-02T15:36:39Z</time>
<hdop>35.52</hdop>
</trkpt>
<trkpt lat="47.4959748" lon="13.5529814">
<ele>1288.389</ele>
<time>2025-03-02T15:37:30Z</time>
<hdop>49.09</hdop>
</trkpt>
<trkpt lat="47.4961634" lon="13.5525963">
<ele>1282.948</ele>
<time>2025-03-02T15:41:08Z</time>
<hdop>47.53</hdop>
</trkpt>
<trkpt lat="47.4964152" lon="13.552473">
<ele>1293.185</ele>
<time>2025-03-02T15:42:09Z</time>
<hdop>52.02</hdop>
</trkpt>
<trkpt lat="47.4963898" lon="13.5520389">
<ele>1280.764</ele>
<time>2025-03-02T15:43:05Z</time>
<hdop>26.43</hdop>
</trkpt>
<trkpt lat="47.4965725" lon="13.5514132">
<ele>1257.649</ele>
<time>2025-03-02T15:44:05Z</time>
<hdop>45.1</hdop>
</trkpt>
<trkpt lat="47.4980369" lon="13.5508162">
<ele>1233.201</ele>
<time>2025-03-02T15:44:55Z</time>
<hdop>23.9</hdop>
</trkpt>
<trkpt lat="47.5001964" lon="13.5482396">
<ele>1185.72</ele>
<time>2025-03-02T15:45:55Z</time>
<hdop>22.46</hdop>
</trkpt>
<trkpt lat="47.5003192" lon="13.5471792">
<ele>1188.015</ele>
<time>2025-03-02T15:46:25Z</time>
<hdop>24.83</hdop>
</trkpt>
<trkpt lat="47.5006468" lon="13.5465357">
<ele>1194.42</ele>
<time>2025-03-02T15:46:55Z</time>
<hdop>20.48</hdop>
</trkpt>
<trkpt lat="47.5010645" lon="13.5462195">
<ele>1189.979</ele>
<time>2025-03-02T15:47:25Z</time>
<hdop>23.35</hdop>
</trkpt>
<trkpt lat="47.5012601" lon="13.5451101">
<ele>1179.772</ele>
<time>2025-03-02T15:47:55Z</time>
<hdop>17.52</hdop>
</trkpt>
<trkpt lat="47.5036031" lon="13.5443024">
<ele>1360.564</ele>
<time>2025-03-02T15:52:27Z</time>
<hdop>47.76</hdop>
</trkpt>
<trkpt lat="47.5038202" lon="13.5443371">
<ele>1350.062</ele>
<time>2025-03-02T15:52:58Z</time>
<hdop>53.32</hdop>
</trkpt>
<trkpt lat="47.5053722" lon="13.5435537">
<ele>1159.915</ele>
<time>2025-03-02T15:53:55Z</time>
<hdop>25.48</hdop>
</trkpt>
<trkpt lat="47.5061233" lon="13.5417846">
<ele>1178.401</ele>
<time>2025-03-02T15:54:56Z</time>
<hdop>31.46</hdop>
</trkpt>
<trkpt lat="47.508249" lon="13.5392458">
<ele>1241.938</ele>
<time>2025-03-02T15:58:25Z</time>
<hdop>21.3</hdop>
</trkpt>
<trkpt lat="47.5091758" lon="13.5389373">
<ele>1150.862</ele>
<time>2025-03-02T15:58:55Z</time>
<hdop>21.99</hdop>
</trkpt>
<trkpt lat="47.5099392" lon="13.5383499">
<ele>1106.323</ele>
<time>2025-03-02T15:59:25Z</time>
<hdop>28.78</hdop>
</trkpt>
<trkpt lat="47.5100693" lon="13.5383247">
<ele>1122.472</ele>
<time>2025-03-02T15:59:56Z</time>
<hdop>36.35</hdop>
</trkpt>
<trkpt lat="47.5105351" lon="13.5370292">
<ele>1114.155</ele>
<time>2025-03-02T16:00:55Z</time>
<hdop>24.34</hdop>
</trkpt>
<trkpt lat="47.5119299" lon="13.5337339">
<ele>1077.594</ele>
<time>2025-03-02T16:01:54Z</time>
<hdop>19.82</hdop>
</trkpt>
<trkpt lat="47.5128281" lon="13.533874">
<ele>1073.551</ele>
<time>2025-03-02T16:02:24Z</time>
<hdop>14.62</hdop>
</trkpt>
<trkpt lat="47.514021" lon="13.5335919">
<ele>1055.672</ele>
<time>2025-03-02T16:02:54Z</time>
<hdop>11.27</hdop>
</trkpt>
<trkpt lat="47.5150516" lon="13.5326061">
<ele>1029.334</ele>
<time>2025-03-02T16:03:24Z</time>
<hdop>17.08</hdop>
</trkpt>
<trkpt lat="47.5159029" lon="13.5316291">
<ele>1055.135</ele>
<time>2025-03-02T16:03:55Z</time>
<hdop>30.94</hdop>
</trkpt>
<trkpt lat="47.5162437" lon="13.5313112">
<ele>1082.665</ele>
<time>2025-03-02T16:04:26Z</time>
<hdop>28.61</hdop>
</trkpt>
<trkpt lat="47.5174421" lon="13.5301356">
<ele>1043.025</ele>
<time>2025-03-02T16:05:25Z</time>
<hdop>21.55</hdop>
</trkpt>
<trkpt lat="47.517842" lon="13.5288111">
<ele>1007.675</ele>
<time>2025-03-02T16:06:25Z</time>
<hdop>21.15</hdop>
</trkpt>
<trkpt lat="47.5183783" lon="13.5277467">
<ele>996.347</ele>
<time>2025-03-02T16:06:55Z</time>
<hdop>19.5</hdop>
</trkpt>
<trkpt lat="47.5188002" lon="13.5269917">
<ele>980.81</ele>
<time>2025-03-02T16:07:25Z</time>
<hdop>20.12</hdop>
</trkpt>
<trkpt lat="47.5190171" lon="13.5261106">
<ele>979.796</ele>
<time>2025-03-02T16:07:55Z</time>
<hdop>29.26</hdop>
</trkpt>
<trkpt lat="47.5192415" lon="13.5252532">
<ele>981.496</ele>
<time>2025-03-02T16:08:25Z</time>
<hdop>20.43</hdop>
</trkpt>
<trkpt lat="47.5197174" lon="13.5233115">
<ele>983.769</ele>
<time>2025-03-02T16:09:25Z</time>
<hdop>18.45</hdop>
</trkpt>
<trkpt lat="47.5198658" lon="13.5224863">
<ele>980.498</ele>
<time>2025-03-02T16:09:55Z</time>
<hdop>19.38</hdop>
</trkpt>
<trkpt lat="47.5203236" lon="13.5216271">
<ele>973.458</ele>
<time>2025-03-02T16:10:25Z</time>
<hdop>23.19</hdop>
</trkpt>
<trkpt lat="47.5215043" lon="13.5202144">
<ele>1003.261</ele>
<time>2025-03-02T16:10:55Z</time>
<hdop>18.55</hdop>
</trkpt>
<trkpt lat="47.5240884" lon="13.5178635">
<ele>990.073</ele>
<time>2025-03-02T16:11:56Z</time>
<hdop>26.51</hdop>
</trkpt>
<trkpt lat="47.5244449" lon="13.5170384">
<ele>994.674</ele>
<time>2025-03-02T16:12:27Z</time>
<hdop>38.12</hdop>
</trkpt>
<trkpt lat="47.5250656" lon="13.5164984">
<ele>979.035</ele>
<time>2025-03-02T16:13:34Z</time>
<hdop>59.49</hdop>
</trkpt>
<trkpt lat="47.5250656" lon="13.5164984">
<ele>972.265</ele>
<time>2025-03-02T16:14:26Z</time>
<hdop>26.96</hdop>
</trkpt>
<trkpt lat="47.5250656" lon="13.5164984">
<ele>965.951</ele>
<time>2025-03-02T16:14:56Z</time>
<hdop>30.98</hdop>
</trkpt>
<trkpt lat="47.5250962" lon="13.5164552">
<ele>970.602</ele>
<time>2025-03-02T16:15:26Z</time>
<hdop>44.33</hdop>
</trkpt>
<trkpt lat="47.5255026" lon="13.5156884">
<ele>972.863</ele>
<time>2025-03-02T16:16:10Z</time>
<hdop>62.2</hdop>
</trkpt>
<trkpt lat="47.5259404" lon="13.5151065">
<ele>970.414</ele>
<time>2025-03-02T16:17:08Z</time>
<hdop>53.92</hdop>
</trkpt>
<trkpt lat="47.5262686" lon="13.5145898">
<ele>984.129</ele>
<time>2025-03-02T16:18:01Z</time>
<hdop>27.49</hdop>
</trkpt>
<trkpt lat="47.5265698" lon="13.5142246">
<ele>974.784</ele>
<time>2025-03-02T16:18:31Z</time>
<hdop>29.88</hdop>
</trkpt>
<trkpt lat="47.5269482" lon="13.5134832">
<ele>983.948</ele>
<time>2025-03-02T16:19:32Z</time>
<hdop>43.41</hdop>
</trkpt>
<trkpt lat="47.5274153" lon="13.5127117">
<ele>966.847</ele>
<time>2025-03-02T16:20:38Z</time>
<hdop>55.12</hdop>
</trkpt>
<trkpt lat="47.5277795" lon="13.5120511">
<ele>971.334</ele>
<time>2025-03-02T16:21:31Z</time>
<hdop>29.28</hdop>
</trkpt>
<trkpt lat="47.5281259" lon="13.5112689">
<ele>976.542</ele>
<time>2025-03-02T16:22:32Z</time>
<hdop>42.07</hdop>
</trkpt>
<trkpt lat="47.5283285" lon="13.5106881">
<ele>972.564</ele>
<time>2025-03-02T16:23:08Z</time>
<hdop>58.65</hdop>
</trkpt>
<trkpt lat="47.5286275" lon="13.5101217">
<ele>988.423</ele>
<time>2025-03-02T16:24:02Z</time>
<hdop>52.9</hdop>
</trkpt>
<trkpt lat="47.5289379" lon="13.5096471">
<ele>990.994</ele>
<time>2025-03-02T16:24:32Z</time>
<hdop>45.41</hdop>
</trkpt>
<trkpt lat="47.5293148" lon="13.5094179">
<ele>1040.939</ele>
<time>2025-03-02T16:25:04Z</time>
<hdop>50.6</hdop>
</trkpt>
<trkpt lat="47.5296432" lon="13.508625">
<ele>1031.164</ele>
<time>2025-03-02T16:25:54Z</time>
<hdop>85.74</hdop>
</trkpt>
<trkpt lat="47.529906" lon="13.5080819">
<ele>1045.702</ele>
<time>2025-03-02T16:26:32Z</time>
<hdop>49.96</hdop>
</trkpt>
<trkpt lat="47.5303097" lon="13.5076015">
<ele>1007.616</ele>
<time>2025-03-02T16:27:09Z</time>
<hdop>57.72</hdop>
</trkpt>
<trkpt lat="47.5306283" lon="13.5072441">
<ele>1013.806</ele>
<time>2025-03-02T16:28:00Z</time>
<hdop>21.75</hdop>
</trkpt>
<trkpt lat="47.53074" lon="13.506745">
<ele>1013.384</ele>
<time>2025-03-02T16:28:30Z</time>
<hdop>23.02</hdop>
</trkpt>
<trkpt lat="47.5314751" lon="13.5058331">
<ele>978.639</ele>
<time>2025-03-02T16:29:30Z</time>
<hdop>22.45</hdop>
</trkpt>
<trkpt lat="47.5315904" lon="13.5053024">
<ele>982.299</ele>
<time>2025-03-02T16:30:00Z</time>
<hdop>22.92</hdop>
</trkpt>
<trkpt lat="47.531752" lon="13.5047967">
<ele>975.532</ele>
<time>2025-03-02T16:30:30Z</time>
<hdop>20.78</hdop>
</trkpt>
<trkpt lat="47.5318443" lon="13.5043518">
<ele>987.441</ele>
<time>2025-03-02T16:31:02Z</time>
<hdop>48.78</hdop>
</trkpt>
<trkpt lat="47.5319046" lon="13.5039934">
<ele>1004.678</ele>
<time>2025-03-02T16:31:39Z</time>
<hdop>58.03</hdop>
</trkpt>
<trkpt lat="47.5321253" lon="13.5037275">
<ele>992.566</ele>
<time>2025-03-02T16:32:30Z</time>
<hdop>28.59</hdop>
</trkpt>
<trkpt lat="47.5323154" lon="13.5036227">
<ele>978.578</ele>
<time>2025-03-02T16:33:00Z</time>
<hdop>25.18</hdop>
</trkpt>
<trkpt lat="47.5324879" lon="13.5029462">
<ele>964.072</ele>
<time>2025-03-02T16:33:31Z</time>
<hdop>35.23</hdop>
</trkpt>
<trkpt lat="47.5325531" lon="13.502632">
<ele>967.364</ele>
<time>2025-03-02T16:34:02Z</time>
<hdop>35.2</hdop>
</trkpt>
<trkpt lat="47.5325295" lon="13.5018089">
<ele>970.422</ele>
<time>2025-03-02T16:35:01Z</time>
<hdop>35.43</hdop>
</trkpt>
<trkpt lat="47.5325893" lon="13.5012642">
<ele>963.519</ele>
<time>2025-03-02T16:35:31Z</time>
<hdop>37.09</hdop>
</trkpt>
<trkpt lat="47.5325578" lon="13.5003418">
<ele>950.451</ele>
<time>2025-03-02T16:36:30Z</time>
<hdop>30.43</hdop>
</trkpt>
<trkpt lat="47.5328504" lon="13.4976213">
<ele>939.646</ele>
<time>2025-03-02T16:39:29Z</time>
<hdop>14.47</hdop>
</trkpt>
</trkseg>
</trk>
</gpx>
