<?xml version="1.0" encoding="UTF-8"?>
<gpx xmlns="http://www.topografix.com/GPX/1/1" version="1.1" creator="AlpineQuest 2.3.9d" xmlns:xsi="http://www.w3.org/2001/XMLSchema-instance" xsi:schemaLocation="http://www.topografix.com/GPX/1/1 http://www.topografix.com/GPX/1/1/gpx.xsd">
<metadata>
<desc>AlpineQuest Track 23.04.25 09:33:45</desc>
<link href="https://www.alpinequest.net" />
<time>2025-04-30T10:13:37Z</time>
</metadata>
<trk>
<name>Mtb_Roadlberg-Helmetzedterberg-Sterngartlblick</name>
<type>bicycle</type>
<extensions>
	<line xmlns="http://www.topografix.com/GPX/gpx_style/0/2">
		<color>00FFFF</color>
	</line>
</extensions>
<trkseg>
<trkpt lat="48.3309461" lon="14.3101682">
<ele>274.09</ele>
<time>2025-04-23T07:33:45Z</time>
<hdop>8.67</hdop>
</trkpt>
<trkpt lat="48.3308933" lon="14.3097533">
<ele>295.089</ele>
<time>2025-04-23T07:34:24Z</time>
<hdop>48.98</hdop>
</trkpt>
<trkpt lat="48.3313758" lon="14.3082295">
<ele>270.088</ele>
<time>2025-04-23T07:34:54Z</time>
<hdop>35.71</hdop>
</trkpt>
<trkpt lat="48.3321581" lon="14.3084035">
<ele>267.088</ele>
<time>2025-04-23T07:35:24Z</time>
<hdop>27.04</hdop>
</trkpt>
<trkpt lat="48.3330646" lon="14.3092817">
<ele>248.088</ele>
<time>2025-04-23T07:35:54Z</time>
<hdop>34.18</hdop>
</trkpt>
<trkpt lat="48.3343652" lon="14.3092737">
<ele>276.088</ele>
<time>2025-04-23T07:36:25Z</time>
<hdop>53.57</hdop>
</trkpt>
<trkpt lat="48.335744" lon="14.3088178">
<ele>264.087</ele>
<time>2025-04-23T07:36:54Z</time>
<hdop>56.63</hdop>
</trkpt>
<trkpt lat="48.3361945" lon="14.3103424">
<ele>269.088</ele>
<time>2025-04-23T07:37:24Z</time>
<hdop>36.73</hdop>
</trkpt>
<trkpt lat="48.3368425" lon="14.3119022">
<ele>273.089</ele>
<time>2025-04-23T07:37:54Z</time>
<hdop>42.86</hdop>
</trkpt>
<trkpt lat="48.3378075" lon="14.3122628">
<ele>271.089</ele>
<time>2025-04-23T07:38:26Z</time>
<hdop>46.43</hdop>
</trkpt>
<trkpt lat="48.3380918" lon="14.313472">
<ele>255.09</ele>
<time>2025-04-23T07:38:54Z</time>
<hdop>33.67</hdop>
</trkpt>
<trkpt lat="48.3383604" lon="14.3148304">
<ele>260.091</ele>
<time>2025-04-23T07:39:24Z</time>
<hdop>27.04</hdop>
</trkpt>
<trkpt lat="48.3384427" lon="14.3161824">
<ele>282.092</ele>
<time>2025-04-23T07:39:54Z</time>
<hdop>43.88</hdop>
</trkpt>
<trkpt lat="48.3383767" lon="14.3181853">
<ele>294.093</ele>
<time>2025-04-23T07:40:24Z</time>
<hdop>39.29</hdop>
</trkpt>
<trkpt lat="48.3386636" lon="14.3197772">
<ele>270.094</ele>
<time>2025-04-23T07:40:54Z</time>
<hdop>38.78</hdop>
</trkpt>
<trkpt lat="48.3383437" lon="14.321413">
<ele>296.095</ele>
<time>2025-04-23T07:41:26Z</time>
<hdop>96.43</hdop>
</trkpt>
<trkpt lat="48.3382463" lon="14.3230061">
<ele>245.097</ele>
<time>2025-04-23T07:41:54Z</time>
<hdop>61.22</hdop>
</trkpt>
<trkpt lat="48.3389282" lon="14.3230437">
<ele>270.096</ele>
<time>2025-04-23T07:42:24Z</time>
<hdop>75.51</hdop>
</trkpt>
<trkpt lat="48.3389155" lon="14.3237648">
<ele>286.097</ele>
<time>2025-04-23T07:42:54Z</time>
<hdop>45.41</hdop>
</trkpt>
<trkpt lat="48.3392161" lon="14.3242515">
<ele>295.097</ele>
<time>2025-04-23T07:43:24Z</time>
<hdop>63.27</hdop>
</trkpt>
<trkpt lat="48.3397049" lon="14.3244235">
<ele>319.097</ele>
<time>2025-04-23T07:43:54Z</time>
<hdop>60.71</hdop>
</trkpt>
<trkpt lat="48.3400292" lon="14.3244977">
<ele>304.097</ele>
<time>2025-04-23T07:44:24Z</time>
<hdop>52.55</hdop>
</trkpt>
<trkpt lat="48.3404271" lon="14.3248208">
<ele>308.097</ele>
<time>2025-04-23T07:44:54Z</time>
<hdop>62.24</hdop>
</trkpt>
<trkpt lat="48.3408332" lon="14.3246274">
<ele>316.097</ele>
<time>2025-04-23T07:45:24Z</time>
<hdop>47.96</hdop>
</trkpt>
<trkpt lat="48.341116" lon="14.3248178">
<ele>321.097</ele>
<time>2025-04-23T07:45:58Z</time>
<hdop>92.35</hdop>
</trkpt>
<trkpt lat="48.3417714" lon="14.325157">
<ele>323.097</ele>
<time>2025-04-23T07:46:54Z</time>
<hdop>49.49</hdop>
</trkpt>
<trkpt lat="48.3421098" lon="14.3255382">
<ele>328.097</ele>
<time>2025-04-23T07:47:24Z</time>
<hdop>51.53</hdop>
</trkpt>
<trkpt lat="48.3422816" lon="14.3258771">
<ele>344.098</ele>
<time>2025-04-23T07:47:54Z</time>
<hdop>39.8</hdop>
</trkpt>
<trkpt lat="48.3423334" lon="14.3259029">
<ele>351.098</ele>
<time>2025-04-23T07:48:24Z</time>
<hdop>16.84</hdop>
</trkpt>
<trkpt lat="48.3423701" lon="14.325875">
<ele>353.097</ele>
<time>2025-04-23T07:48:54Z</time>
<hdop>22.45</hdop>
</trkpt>
<trkpt lat="48.3422945" lon="14.3259871">
<ele>325.098</ele>
<time>2025-04-23T07:49:24Z</time>
<hdop>51.02</hdop>
</trkpt>
<trkpt lat="48.3426433" lon="14.326282">
<ele>348.098</ele>
<time>2025-04-23T07:49:54Z</time>
<hdop>42.35</hdop>
</trkpt>
<trkpt lat="48.3429773" lon="14.3265854">
<ele>343.098</ele>
<time>2025-04-23T07:50:24Z</time>
<hdop>45.41</hdop>
</trkpt>
<trkpt lat="48.3432849" lon="14.3268708">
<ele>338.098</ele>
<time>2025-04-23T07:50:54Z</time>
<hdop>22.96</hdop>
</trkpt>
<trkpt lat="48.3436268" lon="14.3268448">
<ele>340.098</ele>
<time>2025-04-23T07:51:24Z</time>
<hdop>35.71</hdop>
</trkpt>
<trkpt lat="48.3441794" lon="14.3274049">
<ele>335.098</ele>
<time>2025-04-23T07:51:54Z</time>
<hdop>58.67</hdop>
</trkpt>
<trkpt lat="48.3435445" lon="14.3293815">
<ele>348.1</ele>
<time>2025-04-23T07:52:27Z</time>
<hdop>112.76</hdop>
</trkpt>
<trkpt lat="48.3432169" lon="14.3307493">
<ele>356.101</ele>
<time>2025-04-23T07:52:54Z</time>
<hdop>49.49</hdop>
</trkpt>
<trkpt lat="48.3437583" lon="14.3320852">
<ele>372.101</ele>
<time>2025-04-23T07:53:24Z</time>
<hdop>64.29</hdop>
</trkpt>
<trkpt lat="48.3447675" lon="14.3328569">
<ele>360.102</ele>
<time>2025-04-23T07:53:54Z</time>
<hdop>58.16</hdop>
</trkpt>
<trkpt lat="48.3452223" lon="14.3339082">
<ele>339.102</ele>
<time>2025-04-23T07:54:24Z</time>
<hdop>48.47</hdop>
</trkpt>
<trkpt lat="48.3442851" lon="14.3338938">
<ele>351.103</ele>
<time>2025-04-23T07:54:54Z</time>
<hdop>44.9</hdop>
</trkpt>
<trkpt lat="48.3447309" lon="14.3350482">
<ele>347.103</ele>
<time>2025-04-23T07:55:24Z</time>
<hdop>48.47</hdop>
</trkpt>
<trkpt lat="48.3443796" lon="14.3360256">
<ele>336.104</ele>
<time>2025-04-23T07:55:54Z</time>
<hdop>46.43</hdop>
</trkpt>
<trkpt lat="48.3442989" lon="14.3366496">
<ele>370.105</ele>
<time>2025-04-23T07:56:24Z</time>
<hdop>40.82</hdop>
</trkpt>
<trkpt lat="48.3445528" lon="14.337236">
<ele>366.105</ele>
<time>2025-04-23T07:56:54Z</time>
<hdop>46.43</hdop>
</trkpt>
<trkpt lat="48.3447545" lon="14.3377545">
<ele>366.105</ele>
<time>2025-04-23T07:57:24Z</time>
<hdop>26.02</hdop>
</trkpt>
<trkpt lat="48.3450321" lon="14.3382042">
<ele>369.105</ele>
<time>2025-04-23T07:57:54Z</time>
<hdop>44.9</hdop>
</trkpt>
<trkpt lat="48.3453055" lon="14.3387427">
<ele>367.106</ele>
<time>2025-04-23T07:58:24Z</time>
<hdop>73.47</hdop>
</trkpt>
<trkpt lat="48.3456335" lon="14.3391091">
<ele>373.106</ele>
<time>2025-04-23T07:58:54Z</time>
<hdop>42.35</hdop>
</trkpt>
<trkpt lat="48.3458778" lon="14.3394527">
<ele>373.106</ele>
<time>2025-04-23T07:59:24Z</time>
<hdop>54.59</hdop>
</trkpt>
<trkpt lat="48.3461827" lon="14.3397752">
<ele>376.106</ele>
<time>2025-04-23T07:59:54Z</time>
<hdop>70.92</hdop>
</trkpt>
<trkpt lat="48.3464602" lon="14.3401312">
<ele>372.106</ele>
<time>2025-04-23T08:00:24Z</time>
<hdop>64.29</hdop>
</trkpt>
<trkpt lat="48.3466201" lon="14.340524">
<ele>395.107</ele>
<time>2025-04-23T08:00:54Z</time>
<hdop>61.22</hdop>
</trkpt>
<trkpt lat="48.3468589" lon="14.3411218">
<ele>416.107</ele>
<time>2025-04-23T08:01:25Z</time>
<hdop>70.92</hdop>
</trkpt>
<trkpt lat="48.3472671" lon="14.3413243">
<ele>413.107</ele>
<time>2025-04-23T08:01:54Z</time>
<hdop>44.9</hdop>
</trkpt>
<trkpt lat="48.3474808" lon="14.3417309">
<ele>430.107</ele>
<time>2025-04-23T08:02:24Z</time>
<hdop>68.88</hdop>
</trkpt>
<trkpt lat="48.3472238" lon="14.3413526">
<ele>427.107</ele>
<time>2025-04-23T08:02:56Z</time>
<hdop>50.51</hdop>
</trkpt>
<trkpt lat="48.347499" lon="14.3416091">
<ele>419.107</ele>
<time>2025-04-23T08:03:26Z</time>
<hdop>27.55</hdop>
</trkpt>
<trkpt lat="48.3475791" lon="14.3419169">
<ele>431.107</ele>
<time>2025-04-23T08:03:56Z</time>
<hdop>30.61</hdop>
</trkpt>
<trkpt lat="48.3479411" lon="14.3424058">
<ele>440.108</ele>
<time>2025-04-23T08:04:26Z</time>
<hdop>64.29</hdop>
</trkpt>
<trkpt lat="48.3476232" lon="14.3416289">
<ele>424.107</ele>
<time>2025-04-23T08:04:56Z</time>
<hdop>34.18</hdop>
</trkpt>
<trkpt lat="48.347638" lon="14.3416016">
<ele>427.107</ele>
<time>2025-04-23T08:05:56Z</time>
<hdop>27.04</hdop>
</trkpt>
<trkpt lat="48.3492991" lon="14.3414698">
<ele>454.107</ele>
<time>2025-04-23T08:06:26Z</time>
<hdop>26.53</hdop>
</trkpt>
<trkpt lat="48.3495863" lon="14.3414288">
<ele>453.106</ele>
<time>2025-04-23T08:06:56Z</time>
<hdop>34.69</hdop>
</trkpt>
<trkpt lat="48.3499814" lon="14.3412456">
<ele>456.106</ele>
<time>2025-04-23T08:07:26Z</time>
<hdop>80.1</hdop>
</trkpt>
<trkpt lat="48.3502745" lon="14.3413249">
<ele>472.106</ele>
<time>2025-04-23T08:07:56Z</time>
<hdop>51.53</hdop>
</trkpt>
<trkpt lat="48.3506242" lon="14.3411676">
<ele>472.106</ele>
<time>2025-04-23T08:08:27Z</time>
<hdop>50.51</hdop>
</trkpt>
<trkpt lat="48.3509002" lon="14.3412859">
<ele>498.106</ele>
<time>2025-04-23T08:08:57Z</time>
<hdop>22.96</hdop>
</trkpt>
<trkpt lat="48.3512722" lon="14.3413939">
<ele>478.106</ele>
<time>2025-04-23T08:09:27Z</time>
<hdop>55.1</hdop>
</trkpt>
<trkpt lat="48.3515806" lon="14.3415745">
<ele>487.106</ele>
<time>2025-04-23T08:09:56Z</time>
<hdop>30.61</hdop>
</trkpt>
<trkpt lat="48.3519183" lon="14.341663">
<ele>499.106</ele>
<time>2025-04-23T08:10:26Z</time>
<hdop>25.51</hdop>
</trkpt>
<trkpt lat="48.3523462" lon="14.3417816">
<ele>497.106</ele>
<time>2025-04-23T08:10:56Z</time>
<hdop>23.98</hdop>
</trkpt>
<trkpt lat="48.3527259" lon="14.3422054">
<ele>501.106</ele>
<time>2025-04-23T08:11:29Z</time>
<hdop>50.51</hdop>
</trkpt>
<trkpt lat="48.3532486" lon="14.3432632">
<ele>509.107</ele>
<time>2025-04-23T08:12:26Z</time>
<hdop>30.1</hdop>
</trkpt>
<trkpt lat="48.3537392" lon="14.3439242">
<ele>515.107</ele>
<time>2025-04-23T08:12:56Z</time>
<hdop>33.67</hdop>
</trkpt>
<trkpt lat="48.3542635" lon="14.3436842">
<ele>511.107</ele>
<time>2025-04-23T08:13:26Z</time>
<hdop>81.12</hdop>
</trkpt>
<trkpt lat="48.354707" lon="14.3434154">
<ele>517.106</ele>
<time>2025-04-23T08:13:56Z</time>
<hdop>20.41</hdop>
</trkpt>
<trkpt lat="48.3551051" lon="14.3432176">
<ele>534.106</ele>
<time>2025-04-23T08:14:26Z</time>
<hdop>30.61</hdop>
</trkpt>
<trkpt lat="48.3554878" lon="14.342856">
<ele>543.106</ele>
<time>2025-04-23T08:14:56Z</time>
<hdop>33.67</hdop>
</trkpt>
<trkpt lat="48.3558841" lon="14.3422579">
<ele>521.105</ele>
<time>2025-04-23T08:15:26Z</time>
<hdop>22.96</hdop>
</trkpt>
<trkpt lat="48.3564904" lon="14.34142">
<ele>543.104</ele>
<time>2025-04-23T08:15:56Z</time>
<hdop>22.96</hdop>
</trkpt>
<trkpt lat="48.3570396" lon="14.3407679">
<ele>543.104</ele>
<time>2025-04-23T08:16:26Z</time>
<hdop>23.47</hdop>
</trkpt>
<trkpt lat="48.3574421" lon="14.341095">
<ele>548.104</ele>
<time>2025-04-23T08:16:56Z</time>
<hdop>24.49</hdop>
</trkpt>
<trkpt lat="48.3568716" lon="14.3416512">
<ele>582.104</ele>
<time>2025-04-23T08:17:27Z</time>
<hdop>56.63</hdop>
</trkpt>
<trkpt lat="48.3571004" lon="14.3424092">
<ele>551.105</ele>
<time>2025-04-23T08:17:56Z</time>
<hdop>20.92</hdop>
</trkpt>
<trkpt lat="48.3572232" lon="14.3429723">
<ele>563.105</ele>
<time>2025-04-23T08:18:26Z</time>
<hdop>36.73</hdop>
</trkpt>
<trkpt lat="48.357382" lon="14.3434897">
<ele>569.106</ele>
<time>2025-04-23T08:18:56Z</time>
<hdop>21.94</hdop>
</trkpt>
<trkpt lat="48.3573857" lon="14.3440154">
<ele>583.106</ele>
<time>2025-04-23T08:19:27Z</time>
<hdop>60.2</hdop>
</trkpt>
<trkpt lat="48.3579256" lon="14.3447561">
<ele>556.106</ele>
<time>2025-04-23T08:19:56Z</time>
<hdop>32.14</hdop>
</trkpt>
<trkpt lat="48.3581039" lon="14.3454948">
<ele>584.107</ele>
<time>2025-04-23T08:20:26Z</time>
<hdop>26.02</hdop>
</trkpt>
<trkpt lat="48.3585153" lon="14.3458286">
<ele>581.107</ele>
<time>2025-04-23T08:20:56Z</time>
<hdop>21.43</hdop>
</trkpt>
<trkpt lat="48.3588713" lon="14.3461018">
<ele>579.107</ele>
<time>2025-04-23T08:21:26Z</time>
<hdop>42.86</hdop>
</trkpt>
<trkpt lat="48.3592831" lon="14.3464099">
<ele>587.107</ele>
<time>2025-04-23T08:21:56Z</time>
<hdop>28.57</hdop>
</trkpt>
<trkpt lat="48.3596824" lon="14.3467308">
<ele>592.107</ele>
<time>2025-04-23T08:22:26Z</time>
<hdop>23.98</hdop>
</trkpt>
<trkpt lat="48.3600426" lon="14.3472255">
<ele>591.107</ele>
<time>2025-04-23T08:22:56Z</time>
<hdop>36.73</hdop>
</trkpt>
<trkpt lat="48.3606483" lon="14.347563">
<ele>598.107</ele>
<time>2025-04-23T08:23:26Z</time>
<hdop>30.1</hdop>
</trkpt>
<trkpt lat="48.3613241" lon="14.3471165">
<ele>600.107</ele>
<time>2025-04-23T08:23:56Z</time>
<hdop>59.18</hdop>
</trkpt>
<trkpt lat="48.3621926" lon="14.3464064">
<ele>604.106</ele>
<time>2025-04-23T08:24:26Z</time>
<hdop>23.98</hdop>
</trkpt>
<trkpt lat="48.3626635" lon="14.3455062">
<ele>595.105</ele>
<time>2025-04-23T08:24:56Z</time>
<hdop>54.59</hdop>
</trkpt>
<trkpt lat="48.3632014" lon="14.3455398">
<ele>600.105</ele>
<time>2025-04-23T08:25:27Z</time>
<hdop>45.41</hdop>
</trkpt>
<trkpt lat="48.3636691" lon="14.3460132">
<ele>603.105</ele>
<time>2025-04-23T08:25:56Z</time>
<hdop>36.73</hdop>
</trkpt>
<trkpt lat="48.3640166" lon="14.3469575">
<ele>609.106</ele>
<time>2025-04-23T08:26:26Z</time>
<hdop>50.51</hdop>
</trkpt>
<trkpt lat="48.3632199" lon="14.3497737">
<ele>613.108</ele>
<time>2025-04-23T08:26:56Z</time>
<hdop>50.0</hdop>
</trkpt>
<trkpt lat="48.3628885" lon="14.3532479">
<ele>595.111</ele>
<time>2025-04-23T08:27:26Z</time>
<hdop>36.22</hdop>
</trkpt>
<trkpt lat="48.3624513" lon="14.3577095">
<ele>587.114</ele>
<time>2025-04-23T08:27:56Z</time>
<hdop>21.94</hdop>
</trkpt>
<trkpt lat="48.3632805" lon="14.3579579">
<ele>560.114</ele>
<time>2025-04-23T08:28:26Z</time>
<hdop>58.16</hdop>
</trkpt>
<trkpt lat="48.364096" lon="14.3595945">
<ele>567.115</ele>
<time>2025-04-23T08:28:56Z</time>
<hdop>22.96</hdop>
</trkpt>
<trkpt lat="48.3658588" lon="14.3582254">
<ele>552.113</ele>
<time>2025-04-23T08:29:26Z</time>
<hdop>18.37</hdop>
</trkpt>
<trkpt lat="48.3659799" lon="14.3583557">
<ele>561.114</ele>
<time>2025-04-23T08:29:56Z</time>
<hdop>36.22</hdop>
</trkpt>
<trkpt lat="48.36593" lon="14.3582491">
<ele>548.113</ele>
<time>2025-04-23T08:30:26Z</time>
<hdop>22.45</hdop>
</trkpt>
<trkpt lat="48.3658543" lon="14.3582271">
<ele>556.113</ele>
<time>2025-04-23T08:30:56Z</time>
<hdop>31.63</hdop>
</trkpt>
<trkpt lat="48.3668121" lon="14.357508">
<ele>548.113</ele>
<time>2025-04-23T08:31:26Z</time>
<hdop>58.67</hdop>
</trkpt>
<trkpt lat="48.368933" lon="14.3551547">
<ele>532.11</ele>
<time>2025-04-23T08:32:07Z</time>
<hdop>29.59</hdop>
</trkpt>
<trkpt lat="48.3692108" lon="14.3552731">
<ele>540.11</ele>
<time>2025-04-23T08:32:37Z</time>
<hdop>31.12</hdop>
</trkpt>
<trkpt lat="48.3698915" lon="14.3554938">
<ele>534.11</ele>
<time>2025-04-23T08:33:07Z</time>
<hdop>32.65</hdop>
</trkpt>
<trkpt lat="48.3708406" lon="14.3551134">
<ele>564.11</ele>
<time>2025-04-23T08:33:37Z</time>
<hdop>57.65</hdop>
</trkpt>
<trkpt lat="48.3710165" lon="14.3549915">
<ele>538.11</ele>
<time>2025-04-23T08:34:07Z</time>
<hdop>32.14</hdop>
</trkpt>
<trkpt lat="48.3712274" lon="14.3549608">
<ele>558.11</ele>
<time>2025-04-23T08:34:37Z</time>
<hdop>26.02</hdop>
</trkpt>
<trkpt lat="48.3710247" lon="14.3549754">
<ele>538.11</ele>
<time>2025-04-23T08:35:17Z</time>
<hdop>70.92</hdop>
</trkpt>
<trkpt lat="48.3714482" lon="14.3548462">
<ele>543.109</ele>
<time>2025-04-23T08:37:12Z</time>
<hdop>69.39</hdop>
</trkpt>
<trkpt lat="48.3729891" lon="14.3531606">
<ele>589.108</ele>
<time>2025-04-23T08:38:07Z</time>
<hdop>12.76</hdop>
</trkpt>
<trkpt lat="48.3729127" lon="14.3543302">
<ele>581.109</ele>
<time>2025-04-23T08:39:10Z</time>
<hdop>33.67</hdop>
</trkpt>
<trkpt lat="48.3724084" lon="14.3557259">
<ele>583.11</ele>
<time>2025-04-23T08:39:40Z</time>
<hdop>50.0</hdop>
</trkpt>
<trkpt lat="48.3720466" lon="14.3572961">
<ele>581.111</ele>
<time>2025-04-23T08:40:10Z</time>
<hdop>58.67</hdop>
</trkpt>
<trkpt lat="48.3719364" lon="14.3598488">
<ele>551.113</ele>
<time>2025-04-23T08:40:41Z</time>
<hdop>50.0</hdop>
</trkpt>
<trkpt lat="48.3728231" lon="14.3619817">
<ele>521.114</ele>
<time>2025-04-23T08:41:10Z</time>
<hdop>59.69</hdop>
</trkpt>
<trkpt lat="48.3730778" lon="14.3638914">
<ele>522.115</ele>
<time>2025-04-23T08:41:40Z</time>
<hdop>70.41</hdop>
</trkpt>
<trkpt lat="48.373307" lon="14.3654652">
<ele>552.116</ele>
<time>2025-04-23T08:42:10Z</time>
<hdop>95.41</hdop>
</trkpt>
<trkpt lat="48.3745445" lon="14.3664838">
<ele>505.117</ele>
<time>2025-04-23T08:42:40Z</time>
<hdop>62.24</hdop>
</trkpt>
<trkpt lat="48.3759746" lon="14.3644258">
<ele>510.115</ele>
<time>2025-04-23T08:43:10Z</time>
<hdop>48.47</hdop>
</trkpt>
<trkpt lat="48.3766115" lon="14.363454">
<ele>511.114</ele>
<time>2025-04-23T08:43:40Z</time>
<hdop>33.16</hdop>
</trkpt>
<trkpt lat="48.3770843" lon="14.3626563">
<ele>519.113</ele>
<time>2025-04-23T08:44:10Z</time>
<hdop>71.43</hdop>
</trkpt>
<trkpt lat="48.3774524" lon="14.3621266">
<ele>518.113</ele>
<time>2025-04-23T08:44:40Z</time>
<hdop>36.22</hdop>
</trkpt>
<trkpt lat="48.3780913" lon="14.3612917">
<ele>514.112</ele>
<time>2025-04-23T08:45:10Z</time>
<hdop>47.96</hdop>
</trkpt>
<trkpt lat="48.3780596" lon="14.3622836">
<ele>539.113</ele>
<time>2025-04-23T08:45:40Z</time>
<hdop>76.02</hdop>
</trkpt>
<trkpt lat="48.3782088" lon="14.3631004">
<ele>535.113</ele>
<time>2025-04-23T08:46:10Z</time>
<hdop>91.33</hdop>
</trkpt>
<trkpt lat="48.3784363" lon="14.3634389">
<ele>530.113</ele>
<time>2025-04-23T08:46:40Z</time>
<hdop>53.57</hdop>
</trkpt>
<trkpt lat="48.3784631" lon="14.3639502">
<ele>525.114</ele>
<time>2025-04-23T08:47:10Z</time>
<hdop>55.1</hdop>
</trkpt>
<trkpt lat="48.3788766" lon="14.3649921">
<ele>580.114</ele>
<time>2025-04-23T08:49:10Z</time>
<hdop>44.9</hdop>
</trkpt>
<trkpt lat="48.3795004" lon="14.3653526">
<ele>536.114</ele>
<time>2025-04-23T08:49:42Z</time>
<hdop>38.78</hdop>
</trkpt>
<trkpt lat="48.379951" lon="14.3652535">
<ele>570.114</ele>
<time>2025-04-23T08:50:10Z</time>
<hdop>72.96</hdop>
</trkpt>
<trkpt lat="48.381908" lon="14.3642">
<ele>549.113</ele>
<time>2025-04-23T08:50:40Z</time>
<hdop>50.51</hdop>
</trkpt>
<trkpt lat="48.3825216" lon="14.3635977">
<ele>586.112</ele>
<time>2025-04-23T08:51:10Z</time>
<hdop>61.73</hdop>
</trkpt>
<trkpt lat="48.3826487" lon="14.3641267">
<ele>587.113</ele>
<time>2025-04-23T08:51:40Z</time>
<hdop>70.92</hdop>
</trkpt>
<trkpt lat="48.382299" lon="14.3659999">
<ele>575.114</ele>
<time>2025-04-23T08:52:10Z</time>
<hdop>69.9</hdop>
</trkpt>
<trkpt lat="48.3824617" lon="14.3668581">
<ele>575.115</ele>
<time>2025-04-23T08:52:40Z</time>
<hdop>65.31</hdop>
</trkpt>
<trkpt lat="48.3828645" lon="14.3673615">
<ele>579.115</ele>
<time>2025-04-23T08:53:10Z</time>
<hdop>73.47</hdop>
</trkpt>
<trkpt lat="48.3833644" lon="14.3676854">
<ele>577.115</ele>
<time>2025-04-23T08:53:40Z</time>
<hdop>55.1</hdop>
</trkpt>
<trkpt lat="48.3837875" lon="14.3682315">
<ele>587.115</ele>
<time>2025-04-23T08:54:10Z</time>
<hdop>61.73</hdop>
</trkpt>
<trkpt lat="48.3839805" lon="14.3689845">
<ele>581.116</ele>
<time>2025-04-23T08:54:40Z</time>
<hdop>38.27</hdop>
</trkpt>
<trkpt lat="48.3843721" lon="14.3695407">
<ele>591.116</ele>
<time>2025-04-23T08:55:10Z</time>
<hdop>62.76</hdop>
</trkpt>
<trkpt lat="48.3845208" lon="14.3700018">
<ele>601.116</ele>
<time>2025-04-23T08:55:40Z</time>
<hdop>18.88</hdop>
</trkpt>
<trkpt lat="48.384419" lon="14.3699348">
<ele>593.116</ele>
<time>2025-04-23T08:56:10Z</time>
<hdop>14.8</hdop>
</trkpt>
<trkpt lat="48.3843878" lon="14.3701497">
<ele>609.116</ele>
<time>2025-04-23T08:56:40Z</time>
<hdop>39.29</hdop>
</trkpt>
<trkpt lat="48.3845125" lon="14.3699361">
<ele>600.116</ele>
<time>2025-04-23T08:57:10Z</time>
<hdop>51.53</hdop>
</trkpt>
<trkpt lat="48.384593" lon="14.3701495">
<ele>602.116</ele>
<time>2025-04-23T08:57:40Z</time>
<hdop>50.51</hdop>
</trkpt>
<trkpt lat="48.3848902" lon="14.3713374">
<ele>603.117</ele>
<time>2025-04-23T08:58:10Z</time>
<hdop>58.16</hdop>
</trkpt>
<trkpt lat="48.385159" lon="14.3726795">
<ele>602.118</ele>
<time>2025-04-23T08:58:40Z</time>
<hdop>54.59</hdop>
</trkpt>
<trkpt lat="48.3852036" lon="14.3738975">
<ele>616.119</ele>
<time>2025-04-23T08:59:10Z</time>
<hdop>51.02</hdop>
</trkpt>
<trkpt lat="48.3855523" lon="14.3754181">
<ele>620.12</ele>
<time>2025-04-23T08:59:40Z</time>
<hdop>56.12</hdop>
</trkpt>
<trkpt lat="48.3864325" lon="14.3756759">
<ele>561.12</ele>
<time>2025-04-23T09:00:10Z</time>
<hdop>100.51</hdop>
</trkpt>
<trkpt lat="48.3861254" lon="14.3771549">
<ele>648.121</ele>
<time>2025-04-23T09:00:40Z</time>
<hdop>57.14</hdop>
</trkpt>
<trkpt lat="48.3864769" lon="14.3769254">
<ele>587.121</ele>
<time>2025-04-23T09:01:17Z</time>
<hdop>110.2</hdop>
</trkpt>
<trkpt lat="48.3866708" lon="14.3779238">
<ele>620.121</ele>
<time>2025-04-23T09:02:15Z</time>
<hdop>88.27</hdop>
</trkpt>
<trkpt lat="48.3871721" lon="14.3782135">
<ele>609.121</ele>
<time>2025-04-23T09:02:45Z</time>
<hdop>103.57</hdop>
</trkpt>
<trkpt lat="48.3881545" lon="14.377764">
<ele>606.121</ele>
<time>2025-04-23T09:04:50Z</time>
<hdop>40.82</hdop>
</trkpt>
<trkpt lat="48.3883014" lon="14.3778782">
<ele>617.121</ele>
<time>2025-04-23T09:05:20Z</time>
<hdop>32.14</hdop>
</trkpt>
<trkpt lat="48.3886795" lon="14.3776871">
<ele>621.12</ele>
<time>2025-04-23T09:05:50Z</time>
<hdop>36.73</hdop>
</trkpt>
<trkpt lat="48.3891582" lon="14.3769072">
<ele>624.12</ele>
<time>2025-04-23T09:06:20Z</time>
<hdop>54.08</hdop>
</trkpt>
<trkpt lat="48.3897376" lon="14.3761134">
<ele>628.119</ele>
<time>2025-04-23T09:06:50Z</time>
<hdop>61.73</hdop>
</trkpt>
<trkpt lat="48.389994" lon="14.3749648">
<ele>612.118</ele>
<time>2025-04-23T09:07:20Z</time>
<hdop>40.82</hdop>
</trkpt>
<trkpt lat="48.390465" lon="14.3745723">
<ele>630.118</ele>
<time>2025-04-23T09:07:50Z</time>
<hdop>38.27</hdop>
</trkpt>
<trkpt lat="48.3907185" lon="14.3741498">
<ele>622.117</ele>
<time>2025-04-23T09:08:20Z</time>
<hdop>58.16</hdop>
</trkpt>
<trkpt lat="48.3914958" lon="14.374118">
<ele>618.117</ele>
<time>2025-04-23T09:08:50Z</time>
<hdop>29.08</hdop>
</trkpt>
<trkpt lat="48.3926592" lon="14.374307">
<ele>625.117</ele>
<time>2025-04-23T09:09:20Z</time>
<hdop>27.55</hdop>
</trkpt>
<trkpt lat="48.3944602" lon="14.3727198">
<ele>602.115</ele>
<time>2025-04-23T09:09:50Z</time>
<hdop>59.69</hdop>
</trkpt>
<trkpt lat="48.3950357" lon="14.3720227">
<ele>604.114</ele>
<time>2025-04-23T09:10:20Z</time>
<hdop>29.08</hdop>
</trkpt>
<trkpt lat="48.3958501" lon="14.3712779">
<ele>626.114</ele>
<time>2025-04-23T09:10:50Z</time>
<hdop>44.9</hdop>
</trkpt>
<trkpt lat="48.39733" lon="14.3708059">
<ele>588.113</ele>
<time>2025-04-23T09:11:20Z</time>
<hdop>25.0</hdop>
</trkpt>
<trkpt lat="48.3982651" lon="14.3702897">
<ele>599.112</ele>
<time>2025-04-23T09:11:50Z</time>
<hdop>36.22</hdop>
</trkpt>
<trkpt lat="48.3989166" lon="14.3698059">
<ele>599.112</ele>
<time>2025-04-23T09:12:20Z</time>
<hdop>34.18</hdop>
</trkpt>
<trkpt lat="48.3995061" lon="14.3692006">
<ele>588.111</ele>
<time>2025-04-23T09:12:51Z</time>
<hdop>75.0</hdop>
</trkpt>
<trkpt lat="48.4002226" lon="14.3671718">
<ele>597.109</ele>
<time>2025-04-23T09:13:20Z</time>
<hdop>20.41</hdop>
</trkpt>
<trkpt lat="48.4009641" lon="14.366748">
<ele>584.109</ele>
<time>2025-04-23T09:13:50Z</time>
<hdop>25.0</hdop>
</trkpt>
<trkpt lat="48.40102" lon="14.3667398">
<ele>584.109</ele>
<time>2025-04-23T09:15:12Z</time>
<hdop>5.61</hdop>
</trkpt>
<trkpt lat="48.4010318" lon="14.3667262">
<ele>585.109</ele>
<time>2025-04-23T09:15:40Z</time>
<hdop>3.06</hdop>
</trkpt>
<trkpt lat="48.4014629" lon="14.3664477">
<ele>581.108</ele>
<time>2025-04-23T09:16:27Z</time>
<hdop>32.14</hdop>
</trkpt>
<trkpt lat="48.402149" lon="14.3661865">
<ele>582.108</ele>
<time>2025-04-23T09:16:57Z</time>
<hdop>35.2</hdop>
</trkpt>
<trkpt lat="48.4029977" lon="14.3659148">
<ele>588.108</ele>
<time>2025-04-23T09:17:27Z</time>
<hdop>34.18</hdop>
</trkpt>
<trkpt lat="48.4031395" lon="14.3662648">
<ele>644.108</ele>
<time>2025-04-23T09:17:57Z</time>
<hdop>52.04</hdop>
</trkpt>
<trkpt lat="48.4031332" lon="14.3667297">
<ele>604.108</ele>
<time>2025-04-23T09:18:27Z</time>
<hdop>73.98</hdop>
</trkpt>
<trkpt lat="48.4038759" lon="14.3665374">
<ele>610.108</ele>
<time>2025-04-23T09:18:57Z</time>
<hdop>43.88</hdop>
</trkpt>
<trkpt lat="48.4040622" lon="14.3669953">
<ele>612.108</ele>
<time>2025-04-23T09:19:27Z</time>
<hdop>33.67</hdop>
</trkpt>
<trkpt lat="48.4041971" lon="14.3675552">
<ele>624.108</ele>
<time>2025-04-23T09:19:57Z</time>
<hdop>54.08</hdop>
</trkpt>
<trkpt lat="48.4045036" lon="14.3676378">
<ele>623.108</ele>
<time>2025-04-23T09:20:27Z</time>
<hdop>48.98</hdop>
</trkpt>
<trkpt lat="48.4045201" lon="14.3678992">
<ele>620.109</ele>
<time>2025-04-23T09:20:57Z</time>
<hdop>21.43</hdop>
</trkpt>
<trkpt lat="48.4045396" lon="14.3677593">
<ele>629.108</ele>
<time>2025-04-23T09:22:57Z</time>
<hdop>15.31</hdop>
</trkpt>
<trkpt lat="48.4045095" lon="14.3681555">
<ele>629.109</ele>
<time>2025-04-23T09:23:57Z</time>
<hdop>35.71</hdop>
</trkpt>
<trkpt lat="48.4047787" lon="14.3682018">
<ele>648.109</ele>
<time>2025-04-23T09:24:27Z</time>
<hdop>35.71</hdop>
</trkpt>
<trkpt lat="48.4052082" lon="14.367946">
<ele>638.108</ele>
<time>2025-04-23T09:24:57Z</time>
<hdop>39.8</hdop>
</trkpt>
<trkpt lat="48.4059803" lon="14.3679673">
<ele>638.108</ele>
<time>2025-04-23T09:25:27Z</time>
<hdop>20.92</hdop>
</trkpt>
<trkpt lat="48.406713" lon="14.3681157">
<ele>646.108</ele>
<time>2025-04-23T09:25:57Z</time>
<hdop>38.27</hdop>
</trkpt>
<trkpt lat="48.4072552" lon="14.3683659">
<ele>654.108</ele>
<time>2025-04-23T09:26:27Z</time>
<hdop>38.27</hdop>
</trkpt>
<trkpt lat="48.4078336" lon="14.3685331">
<ele>654.108</ele>
<time>2025-04-23T09:26:57Z</time>
<hdop>38.78</hdop>
</trkpt>
<trkpt lat="48.4081104" lon="14.3687281">
<ele>665.108</ele>
<time>2025-04-23T09:27:24Z</time>
<hdop>6.63</hdop>
</trkpt>
<trkpt lat="48.4091922" lon="14.3695193">
<ele>643.108</ele>
<time>2025-04-23T09:28:12Z</time>
<hdop>45.92</hdop>
</trkpt>
<trkpt lat="48.4089014" lon="14.370268">
<ele>655.109</ele>
<time>2025-04-23T09:28:44Z</time>
<hdop>116.84</hdop>
</trkpt>
<trkpt lat="48.4089108" lon="14.3713278">
<ele>686.11</ele>
<time>2025-04-23T09:29:12Z</time>
<hdop>164.29</hdop>
</trkpt>
<trkpt lat="48.4085786" lon="14.3730305">
<ele>650.111</ele>
<time>2025-04-23T09:29:42Z</time>
<hdop>95.41</hdop>
</trkpt>
<trkpt lat="48.4086957" lon="14.3732962">
<ele>662.111</ele>
<time>2025-04-23T09:30:10Z</time>
<hdop>5.61</hdop>
</trkpt>
<trkpt lat="48.4093167" lon="14.3730395">
<ele>658.111</ele>
<time>2025-04-23T09:30:59Z</time>
<hdop>43.37</hdop>
</trkpt>
<trkpt lat="48.4099202" lon="14.3733841">
<ele>669.111</ele>
<time>2025-04-23T09:31:29Z</time>
<hdop>54.08</hdop>
</trkpt>
<trkpt lat="48.4103387" lon="14.3737435">
<ele>672.111</ele>
<time>2025-04-23T09:31:59Z</time>
<hdop>29.59</hdop>
</trkpt>
<trkpt lat="48.4106829" lon="14.373995">
<ele>671.111</ele>
<time>2025-04-23T09:32:29Z</time>
<hdop>64.29</hdop>
</trkpt>
<trkpt lat="48.4111593" lon="14.37462">
<ele>676.111</ele>
<time>2025-04-23T09:32:59Z</time>
<hdop>53.57</hdop>
</trkpt>
<trkpt lat="48.4123557" lon="14.3764346">
<ele>673.112</ele>
<time>2025-04-23T09:33:29Z</time>
<hdop>23.47</hdop>
</trkpt>
<trkpt lat="48.4132141" lon="14.3765316">
<ele>682.112</ele>
<time>2025-04-23T09:34:00Z</time>
<hdop>46.43</hdop>
</trkpt>
<trkpt lat="48.413943" lon="14.3765634">
<ele>672.112</ele>
<time>2025-04-23T09:34:29Z</time>
<hdop>35.71</hdop>
</trkpt>
<trkpt lat="48.4146728" lon="14.3762683">
<ele>679.111</ele>
<time>2025-04-23T09:34:59Z</time>
<hdop>28.57</hdop>
</trkpt>
<trkpt lat="48.4152346" lon="14.3753954">
<ele>686.111</ele>
<time>2025-04-23T09:35:30Z</time>
<hdop>77.04</hdop>
</trkpt>
<trkpt lat="48.4157524" lon="14.3745696">
<ele>696.11</ele>
<time>2025-04-23T09:35:59Z</time>
<hdop>41.84</hdop>
</trkpt>
<trkpt lat="48.4163003" lon="14.3740118">
<ele>676.109</ele>
<time>2025-04-23T09:36:29Z</time>
<hdop>34.18</hdop>
</trkpt>
<trkpt lat="48.4171091" lon="14.3743806">
<ele>698.109</ele>
<time>2025-04-23T09:36:59Z</time>
<hdop>59.69</hdop>
</trkpt>
<trkpt lat="48.4179864" lon="14.3746707">
<ele>697.109</ele>
<time>2025-04-23T09:37:29Z</time>
<hdop>32.65</hdop>
</trkpt>
<trkpt lat="48.4183124" lon="14.3761645">
<ele>707.11</ele>
<time>2025-04-23T09:38:00Z</time>
<hdop>54.08</hdop>
</trkpt>
<trkpt lat="48.4185548" lon="14.3778103">
<ele>691.111</ele>
<time>2025-04-23T09:38:29Z</time>
<hdop>12.76</hdop>
</trkpt>
<trkpt lat="48.418564" lon="14.3778121">
<ele>695.111</ele>
<time>2025-04-23T09:38:57Z</time>
<hdop>3.57</hdop>
</trkpt>
<trkpt lat="48.4199103" lon="14.3781717">
<ele>692.111</ele>
<time>2025-04-23T09:39:30Z</time>
<hdop>23.98</hdop>
</trkpt>
<trkpt lat="48.4206163" lon="14.3783071">
<ele>699.111</ele>
<time>2025-04-23T09:40:00Z</time>
<hdop>35.2</hdop>
</trkpt>
<trkpt lat="48.4216512" lon="14.3762775">
<ele>717.109</ele>
<time>2025-04-23T09:40:30Z</time>
<hdop>68.37</hdop>
</trkpt>
<trkpt lat="48.4226095" lon="14.3757711">
<ele>707.109</ele>
<time>2025-04-23T09:41:00Z</time>
<hdop>77.55</hdop>
</trkpt>
<trkpt lat="48.4237093" lon="14.3742352">
<ele>719.107</ele>
<time>2025-04-23T09:41:30Z</time>
<hdop>148.98</hdop>
</trkpt>
<trkpt lat="48.4243817" lon="14.3718172">
<ele>640.105</ele>
<time>2025-04-23T09:42:00Z</time>
<hdop>148.47</hdop>
</trkpt>
<trkpt lat="48.4247746" lon="14.3708146">
<ele>595.104</ele>
<time>2025-04-23T09:42:32Z</time>
<hdop>207.65</hdop>
</trkpt>
<trkpt lat="48.4258288" lon="14.368561">
<ele>676.103</ele>
<time>2025-04-23T09:43:00Z</time>
<hdop>132.65</hdop>
</trkpt>
<trkpt lat="48.426586" lon="14.3701104">
<ele>687.103</ele>
<time>2025-04-23T09:43:30Z</time>
<hdop>160.2</hdop>
</trkpt>
<trkpt lat="48.4281099" lon="14.3708468">
<ele>693.103</ele>
<time>2025-04-23T09:44:00Z</time>
<hdop>121.43</hdop>
</trkpt>
<trkpt lat="48.428035" lon="14.3728239">
<ele>643.105</ele>
<time>2025-04-23T09:44:30Z</time>
<hdop>60.71</hdop>
</trkpt>
<trkpt lat="48.4275862" lon="14.3766717">
<ele>630.108</ele>
<time>2025-04-23T09:45:00Z</time>
<hdop>42.86</hdop>
</trkpt>
<trkpt lat="48.4277984" lon="14.3775856">
<ele>589.108</ele>
<time>2025-04-23T09:45:30Z</time>
<hdop>56.12</hdop>
</trkpt>
<trkpt lat="48.4317505" lon="14.37468">
<ele>582.105</ele>
<time>2025-04-23T09:46:00Z</time>
<hdop>42.35</hdop>
</trkpt>
<trkpt lat="48.4322836" lon="14.3760221">
<ele>611.106</ele>
<time>2025-04-23T09:47:06Z</time>
<hdop>38.27</hdop>
</trkpt>
<trkpt lat="48.4314703" lon="14.3775235">
<ele>560.107</ele>
<time>2025-04-23T09:47:56Z</time>
<hdop>42.86</hdop>
</trkpt>
<trkpt lat="48.4306636" lon="14.3791265">
<ele>556.109</ele>
<time>2025-04-23T09:48:26Z</time>
<hdop>34.69</hdop>
</trkpt>
<trkpt lat="48.4301556" lon="14.3805352">
<ele>550.11</ele>
<time>2025-04-23T09:48:56Z</time>
<hdop>44.9</hdop>
</trkpt>
<trkpt lat="48.4309372" lon="14.3813957">
<ele>554.11</ele>
<time>2025-04-23T09:49:26Z</time>
<hdop>39.29</hdop>
</trkpt>
<trkpt lat="48.4314854" lon="14.3817234">
<ele>565.11</ele>
<time>2025-04-23T09:49:56Z</time>
<hdop>46.43</hdop>
</trkpt>
<trkpt lat="48.431832" lon="14.3819674">
<ele>586.11</ele>
<time>2025-04-23T09:50:26Z</time>
<hdop>36.22</hdop>
</trkpt>
<trkpt lat="48.4323612" lon="14.382574">
<ele>578.11</ele>
<time>2025-04-23T09:50:56Z</time>
<hdop>63.78</hdop>
</trkpt>
<trkpt lat="48.4325291" lon="14.3828274">
<ele>620.111</ele>
<time>2025-04-23T09:51:26Z</time>
<hdop>45.41</hdop>
</trkpt>
<trkpt lat="48.432735" lon="14.383091">
<ele>592.111</ele>
<time>2025-04-23T09:51:56Z</time>
<hdop>53.06</hdop>
</trkpt>
<trkpt lat="48.4334306" lon="14.3852844">
<ele>619.112</ele>
<time>2025-04-23T09:53:26Z</time>
<hdop>53.57</hdop>
</trkpt>
<trkpt lat="48.4334886" lon="14.386654">
<ele>598.113</ele>
<time>2025-04-23T09:54:26Z</time>
<hdop>44.39</hdop>
</trkpt>
<trkpt lat="48.4335878" lon="14.3873157">
<ele>599.113</ele>
<time>2025-04-23T09:54:56Z</time>
<hdop>47.45</hdop>
</trkpt>
<trkpt lat="48.4338189" lon="14.3878183">
<ele>627.114</ele>
<time>2025-04-23T09:55:26Z</time>
<hdop>43.37</hdop>
</trkpt>
<trkpt lat="48.433795" lon="14.3883282">
<ele>623.114</ele>
<time>2025-04-23T09:55:56Z</time>
<hdop>34.18</hdop>
</trkpt>
<trkpt lat="48.433795" lon="14.3883282">
<ele>614.114</ele>
<time>2025-04-23T09:56:23Z</time>
<hdop>5.61</hdop>
</trkpt>
<trkpt lat="48.4337747" lon="14.3881851">
<ele>623.114</ele>
<time>2025-04-23T09:57:11Z</time>
<hdop>22.96</hdop>
</trkpt>
<trkpt lat="48.4339695" lon="14.3881798">
<ele>623.114</ele>
<time>2025-04-23T09:57:41Z</time>
<hdop>25.0</hdop>
</trkpt>
<trkpt lat="48.4336103" lon="14.3883845">
<ele>635.114</ele>
<time>2025-04-23T09:58:11Z</time>
<hdop>79.08</hdop>
</trkpt>
<trkpt lat="48.4331101" lon="14.3883046">
<ele>619.114</ele>
<time>2025-04-23T09:59:41Z</time>
<hdop>63.27</hdop>
</trkpt>
<trkpt lat="48.4324893" lon="14.3892698">
<ele>647.115</ele>
<time>2025-04-23T10:00:11Z</time>
<hdop>33.67</hdop>
</trkpt>
<trkpt lat="48.4321687" lon="14.389509">
<ele>661.115</ele>
<time>2025-04-23T10:00:41Z</time>
<hdop>36.73</hdop>
</trkpt>
<trkpt lat="48.4319967" lon="14.3898556">
<ele>657.116</ele>
<time>2025-04-23T10:01:11Z</time>
<hdop>32.14</hdop>
</trkpt>
<trkpt lat="48.4319966" lon="14.3898467">
<ele>668.116</ele>
<time>2025-04-23T10:01:38Z</time>
<hdop>10.2</hdop>
</trkpt>
<trkpt lat="48.4319937" lon="14.3897941">
<ele>655.116</ele>
<time>2025-04-23T10:02:28Z</time>
<hdop>52.04</hdop>
</trkpt>
<trkpt lat="48.4318798" lon="14.3900324">
<ele>655.116</ele>
<time>2025-04-23T10:02:58Z</time>
<hdop>39.8</hdop>
</trkpt>
<trkpt lat="48.4313495" lon="14.3911465">
<ele>647.117</ele>
<time>2025-04-23T10:03:30Z</time>
<hdop>135.2</hdop>
</trkpt>
<trkpt lat="48.4308448" lon="14.392498">
<ele>676.118</ele>
<time>2025-04-23T10:04:03Z</time>
<hdop>124.49</hdop>
</trkpt>
<trkpt lat="48.4304059" lon="14.3931393">
<ele>693.119</ele>
<time>2025-04-23T10:04:34Z</time>
<hdop>146.43</hdop>
</trkpt>
<trkpt lat="48.4296943" lon="14.3932095">
<ele>685.119</ele>
<time>2025-04-23T10:05:03Z</time>
<hdop>102.04</hdop>
</trkpt>
<trkpt lat="48.4292488" lon="14.3932229">
<ele>641.119</ele>
<time>2025-04-23T10:05:33Z</time>
<hdop>98.47</hdop>
</trkpt>
<trkpt lat="48.4282084" lon="14.3947048">
<ele>678.12</ele>
<time>2025-04-23T10:06:03Z</time>
<hdop>123.47</hdop>
</trkpt>
<trkpt lat="48.4280238" lon="14.3953695">
<ele>678.121</ele>
<time>2025-04-23T10:06:33Z</time>
<hdop>88.27</hdop>
</trkpt>
<trkpt lat="48.4279024" lon="14.3960742">
<ele>680.121</ele>
<time>2025-04-23T10:07:03Z</time>
<hdop>61.22</hdop>
</trkpt>
<trkpt lat="48.4277326" lon="14.3967936">
<ele>687.122</ele>
<time>2025-04-23T10:07:33Z</time>
<hdop>74.49</hdop>
</trkpt>
<trkpt lat="48.4267329" lon="14.3969104">
<ele>690.122</ele>
<time>2025-04-23T10:08:14Z</time>
<hdop>73.47</hdop>
</trkpt>
<trkpt lat="48.4264827" lon="14.3970924">
<ele>695.123</ele>
<time>2025-04-23T10:08:48Z</time>
<hdop>14.8</hdop>
</trkpt>
<trkpt lat="48.4267832" lon="14.3973961">
<ele>686.123</ele>
<time>2025-04-23T10:09:28Z</time>
<hdop>73.47</hdop>
</trkpt>
<trkpt lat="48.4273499" lon="14.3978226">
<ele>696.123</ele>
<time>2025-04-23T10:09:58Z</time>
<hdop>62.76</hdop>
</trkpt>
<trkpt lat="48.4278713" lon="14.3976267">
<ele>706.123</ele>
<time>2025-04-23T10:10:28Z</time>
<hdop>54.59</hdop>
</trkpt>
<trkpt lat="48.4274035" lon="14.3986514">
<ele>696.123</ele>
<time>2025-04-23T10:11:09Z</time>
<hdop>63.78</hdop>
</trkpt>
<trkpt lat="48.427436" lon="14.3993295">
<ele>718.124</ele>
<time>2025-04-23T10:11:58Z</time>
<hdop>64.29</hdop>
</trkpt>
<trkpt lat="48.4274366" lon="14.3998744">
<ele>720.124</ele>
<time>2025-04-23T10:12:28Z</time>
<hdop>55.61</hdop>
</trkpt>
<trkpt lat="48.4278145" lon="14.4001308">
<ele>727.124</ele>
<time>2025-04-23T10:13:07Z</time>
<hdop>69.39</hdop>
</trkpt>
<trkpt lat="48.4274877" lon="14.4010575">
<ele>736.125</ele>
<time>2025-04-23T10:13:58Z</time>
<hdop>51.02</hdop>
</trkpt>
<trkpt lat="48.4274309" lon="14.4016763">
<ele>730.126</ele>
<time>2025-04-23T10:14:28Z</time>
<hdop>57.65</hdop>
</trkpt>
<trkpt lat="48.4274146" lon="14.4022973">
<ele>729.126</ele>
<time>2025-04-23T10:14:58Z</time>
<hdop>60.2</hdop>
</trkpt>
<trkpt lat="48.4273188" lon="14.4028682">
<ele>743.126</ele>
<time>2025-04-23T10:15:28Z</time>
<hdop>63.27</hdop>
</trkpt>
<trkpt lat="48.4272706" lon="14.4028883">
<ele>779.126</ele>
<time>2025-04-23T10:15:58Z</time>
<hdop>59.18</hdop>
</trkpt>
<trkpt lat="48.4274856" lon="14.4027944">
<ele>743.126</ele>
<time>2025-04-23T10:16:28Z</time>
<hdop>139.29</hdop>
</trkpt>
<trkpt lat="48.4280112" lon="14.4034609">
<ele>739.127</ele>
<time>2025-04-23T10:17:00Z</time>
<hdop>53.57</hdop>
</trkpt>
<trkpt lat="48.4282651" lon="14.4027867">
<ele>714.126</ele>
<time>2025-04-23T10:17:28Z</time>
<hdop>55.61</hdop>
</trkpt>
<trkpt lat="48.4282291" lon="14.4021753">
<ele>737.126</ele>
<time>2025-04-23T10:17:58Z</time>
<hdop>50.51</hdop>
</trkpt>
<trkpt lat="48.4296993" lon="14.4006152">
<ele>748.124</ele>
<time>2025-04-23T10:18:28Z</time>
<hdop>100.0</hdop>
</trkpt>
<trkpt lat="48.4311577" lon="14.4002612">
<ele>746.123</ele>
<time>2025-04-23T10:18:58Z</time>
<hdop>76.53</hdop>
</trkpt>
<trkpt lat="48.431996" lon="14.3995718">
<ele>732.123</ele>
<time>2025-04-23T10:19:28Z</time>
<hdop>63.27</hdop>
</trkpt>
<trkpt lat="48.4320023" lon="14.3995758">
<ele>727.123</ele>
<time>2025-04-23T10:19:58Z</time>
<hdop>37.24</hdop>
</trkpt>
<trkpt lat="48.4319659" lon="14.3995088">
<ele>734.123</ele>
<time>2025-04-23T10:20:42Z</time>
<hdop>11.22</hdop>
</trkpt>
<trkpt lat="48.4319389" lon="14.3994386">
<ele>730.123</ele>
<time>2025-04-23T10:21:12Z</time>
<hdop>25.51</hdop>
</trkpt>
<trkpt lat="48.4327223" lon="14.3988805">
<ele>743.122</ele>
<time>2025-04-23T10:21:42Z</time>
<hdop>122.96</hdop>
</trkpt>
<trkpt lat="48.4333342" lon="14.3980904">
<ele>741.121</ele>
<time>2025-04-23T10:22:12Z</time>
<hdop>68.88</hdop>
</trkpt>
<trkpt lat="48.4329957" lon="14.3978406">
<ele>734.121</ele>
<time>2025-04-23T10:22:42Z</time>
<hdop>61.22</hdop>
</trkpt>
<trkpt lat="48.4327171" lon="14.3971794">
<ele>739.121</ele>
<time>2025-04-23T10:23:12Z</time>
<hdop>77.55</hdop>
</trkpt>
<trkpt lat="48.4326785" lon="14.3967564">
<ele>747.12</ele>
<time>2025-04-23T10:23:42Z</time>
<hdop>102.04</hdop>
</trkpt>
<trkpt lat="48.4323113" lon="14.3966015">
<ele>754.12</ele>
<time>2025-04-23T10:24:12Z</time>
<hdop>67.86</hdop>
</trkpt>
<trkpt lat="48.4318773" lon="14.3973382">
<ele>754.121</ele>
<time>2025-04-23T10:24:42Z</time>
<hdop>77.55</hdop>
</trkpt>
<trkpt lat="48.4317797" lon="14.3973751">
<ele>771.121</ele>
<time>2025-04-23T10:25:12Z</time>
<hdop>77.04</hdop>
</trkpt>
<trkpt lat="48.4313085" lon="14.3976604">
<ele>742.121</ele>
<time>2025-04-23T10:25:42Z</time>
<hdop>158.67</hdop>
</trkpt>
<trkpt lat="48.4312239" lon="14.3977962">
<ele>759.122</ele>
<time>2025-04-23T10:26:12Z</time>
<hdop>130.1</hdop>
</trkpt>
<trkpt lat="48.4310562" lon="14.3979685">
<ele>750.122</ele>
<time>2025-04-23T10:26:42Z</time>
<hdop>104.08</hdop>
</trkpt>
<trkpt lat="48.4307303" lon="14.3981691">
<ele>776.122</ele>
<time>2025-04-23T10:27:42Z</time>
<hdop>52.55</hdop>
</trkpt>
<trkpt lat="48.4302031" lon="14.3983797">
<ele>780.122</ele>
<time>2025-04-23T10:28:12Z</time>
<hdop>41.33</hdop>
</trkpt>
<trkpt lat="48.4300416" lon="14.3983552">
<ele>796.122</ele>
<time>2025-04-23T10:29:12Z</time>
<hdop>65.82</hdop>
</trkpt>
<trkpt lat="48.4300895" lon="14.3983584">
<ele>789.122</ele>
<time>2025-04-23T10:30:12Z</time>
<hdop>94.9</hdop>
</trkpt>
<trkpt lat="48.4300762" lon="14.3982731">
<ele>783.122</ele>
<time>2025-04-23T10:32:42Z</time>
<hdop>47.96</hdop>
</trkpt>
<trkpt lat="48.4301004" lon="14.398359">
<ele>792.122</ele>
<time>2025-04-23T10:33:42Z</time>
<hdop>57.14</hdop>
</trkpt>
<trkpt lat="48.4302312" lon="14.3982544">
<ele>777.122</ele>
<time>2025-04-23T10:34:15Z</time>
<hdop>65.82</hdop>
</trkpt>
<trkpt lat="48.430093" lon="14.398375">
<ele>818.122</ele>
<time>2025-04-23T10:36:12Z</time>
<hdop>64.29</hdop>
</trkpt>
<trkpt lat="48.4300376" lon="14.3982949">
<ele>788.122</ele>
<time>2025-04-23T10:37:12Z</time>
<hdop>65.82</hdop>
</trkpt>
<trkpt lat="48.4300376" lon="14.3982949">
<ele>790.122</ele>
<time>2025-04-23T10:37:42Z</time>
<hdop>41.84</hdop>
</trkpt>
<trkpt lat="48.4300376" lon="14.3982949">
<ele>779.122</ele>
<time>2025-04-23T10:38:12Z</time>
<hdop>85.2</hdop>
</trkpt>
<trkpt lat="48.4300954" lon="14.398384">
<ele>795.122</ele>
<time>2025-04-23T10:42:12Z</time>
<hdop>56.12</hdop>
</trkpt>
<trkpt lat="48.4301303" lon="14.398362">
<ele>780.122</ele>
<time>2025-04-23T10:43:12Z</time>
<hdop>32.14</hdop>
</trkpt>
<trkpt lat="48.4301303" lon="14.398362">
<ele>779.122</ele>
<time>2025-04-23T10:43:42Z</time>
<hdop>45.92</hdop>
</trkpt>
<trkpt lat="48.4300905" lon="14.3982826">
<ele>785.122</ele>
<time>2025-04-23T10:44:12Z</time>
<hdop>47.45</hdop>
</trkpt>
<trkpt lat="48.4301884" lon="14.3983252">
<ele>773.122</ele>
<time>2025-04-23T10:45:42Z</time>
<hdop>53.57</hdop>
</trkpt>
<trkpt lat="48.4301884" lon="14.3983252">
<ele>760.122</ele>
<time>2025-04-23T10:46:13Z</time>
<hdop>54.08</hdop>
</trkpt>
<trkpt lat="48.4301504" lon="14.398388">
<ele>788.122</ele>
<time>2025-04-23T10:46:42Z</time>
<hdop>74.49</hdop>
</trkpt>
<trkpt lat="48.4299145" lon="14.3985644">
<ele>756.123</ele>
<time>2025-04-23T10:47:12Z</time>
<hdop>102.55</hdop>
</trkpt>
<trkpt lat="48.429395" lon="14.3989574">
<ele>736.123</ele>
<time>2025-04-23T10:47:44Z</time>
<hdop>197.45</hdop>
</trkpt>
<trkpt lat="48.4288901" lon="14.3992633">
<ele>773.123</ele>
<time>2025-04-23T10:48:15Z</time>
<hdop>217.35</hdop>
</trkpt>
<trkpt lat="48.4286978" lon="14.4007202">
<ele>763.124</ele>
<time>2025-04-23T10:49:12Z</time>
<hdop>33.67</hdop>
</trkpt>
<trkpt lat="48.4286659" lon="14.4010618">
<ele>749.125</ele>
<time>2025-04-23T10:49:42Z</time>
<hdop>54.08</hdop>
</trkpt>
<trkpt lat="48.4286659" lon="14.4010618">
<ele>758.125</ele>
<time>2025-04-23T10:50:12Z</time>
<hdop>44.9</hdop>
</trkpt>
<trkpt lat="48.4286659" lon="14.4010618">
<ele>778.125</ele>
<time>2025-04-23T10:50:42Z</time>
<hdop>46.94</hdop>
</trkpt>
<trkpt lat="48.4286659" lon="14.4010618">
<ele>776.125</ele>
<time>2025-04-23T10:51:12Z</time>
<hdop>66.84</hdop>
</trkpt>
<trkpt lat="48.4286773" lon="14.401083">
<ele>746.125</ele>
<time>2025-04-23T10:51:42Z</time>
<hdop>50.0</hdop>
</trkpt>
<trkpt lat="48.4284024" lon="14.401877">
<ele>751.125</ele>
<time>2025-04-23T10:52:12Z</time>
<hdop>46.43</hdop>
</trkpt>
<trkpt lat="48.4288396" lon="14.4016423">
<ele>741.125</ele>
<time>2025-04-23T10:52:42Z</time>
<hdop>43.37</hdop>
</trkpt>
<trkpt lat="48.4304211" lon="14.4002625">
<ele>727.124</ele>
<time>2025-04-23T10:53:12Z</time>
<hdop>52.04</hdop>
</trkpt>
<trkpt lat="48.4316193" lon="14.3999408">
<ele>723.123</ele>
<time>2025-04-23T10:53:42Z</time>
<hdop>40.31</hdop>
</trkpt>
<trkpt lat="48.4322936" lon="14.3991463">
<ele>728.122</ele>
<time>2025-04-23T10:54:12Z</time>
<hdop>50.0</hdop>
</trkpt>
<trkpt lat="48.4332342" lon="14.3981221">
<ele>727.121</ele>
<time>2025-04-23T10:54:42Z</time>
<hdop>11.73</hdop>
</trkpt>
<trkpt lat="48.4332342" lon="14.3981221">
<ele>732.121</ele>
<time>2025-04-23T10:55:12Z</time>
<hdop>12.24</hdop>
</trkpt>
<trkpt lat="48.4332342" lon="14.3981221">
<ele>721.121</ele>
<time>2025-04-23T10:55:42Z</time>
<hdop>14.8</hdop>
</trkpt>
<trkpt lat="48.4332342" lon="14.3981221">
<ele>718.121</ele>
<time>2025-04-23T10:56:12Z</time>
<hdop>12.24</hdop>
</trkpt>
<trkpt lat="48.4332342" lon="14.3981221">
<ele>734.121</ele>
<time>2025-04-23T10:56:42Z</time>
<hdop>14.29</hdop>
</trkpt>
<trkpt lat="48.4332342" lon="14.3981221">
<ele>747.121</ele>
<time>2025-04-23T10:57:12Z</time>
<hdop>15.31</hdop>
</trkpt>
<trkpt lat="48.4332342" lon="14.3981221">
<ele>737.121</ele>
<time>2025-04-23T10:57:42Z</time>
<hdop>16.84</hdop>
</trkpt>
<trkpt lat="48.4332379" lon="14.3980818">
<ele>735.121</ele>
<time>2025-04-23T10:58:12Z</time>
<hdop>13.27</hdop>
</trkpt>
<trkpt lat="48.4334637" lon="14.3979765">
<ele>734.121</ele>
<time>2025-04-23T10:58:42Z</time>
<hdop>33.67</hdop>
</trkpt>
<trkpt lat="48.4344524" lon="14.3988158">
<ele>731.121</ele>
<time>2025-04-23T10:59:12Z</time>
<hdop>31.63</hdop>
</trkpt>
<trkpt lat="48.4337018" lon="14.4002273">
<ele>734.123</ele>
<time>2025-04-23T10:59:42Z</time>
<hdop>34.69</hdop>
</trkpt>
<trkpt lat="48.433549" lon="14.4013701">
<ele>734.123</ele>
<time>2025-04-23T11:00:12Z</time>
<hdop>24.49</hdop>
</trkpt>
<trkpt lat="48.4337402" lon="14.4026396">
<ele>746.124</ele>
<time>2025-04-23T11:00:42Z</time>
<hdop>43.88</hdop>
</trkpt>
<trkpt lat="48.4337895" lon="14.4042651">
<ele>715.125</ele>
<time>2025-04-23T11:01:12Z</time>
<hdop>56.12</hdop>
</trkpt>
<trkpt lat="48.4347742" lon="14.4046463">
<ele>750.125</ele>
<time>2025-04-23T11:01:42Z</time>
<hdop>40.31</hdop>
</trkpt>
<trkpt lat="48.4350525" lon="14.4051574">
<ele>770.126</ele>
<time>2025-04-23T11:02:12Z</time>
<hdop>36.73</hdop>
</trkpt>
<trkpt lat="48.4351161" lon="14.4055972">
<ele>758.126</ele>
<time>2025-04-23T11:02:43Z</time>
<hdop>44.39</hdop>
</trkpt>
<trkpt lat="48.4352996" lon="14.4060828">
<ele>777.126</ele>
<time>2025-04-23T11:03:12Z</time>
<hdop>34.18</hdop>
</trkpt>
<trkpt lat="48.4355124" lon="14.4064379">
<ele>789.126</ele>
<time>2025-04-23T11:03:42Z</time>
<hdop>31.63</hdop>
</trkpt>
<trkpt lat="48.4357352" lon="14.4067255">
<ele>785.127</ele>
<time>2025-04-23T11:04:12Z</time>
<hdop>26.02</hdop>
</trkpt>
<trkpt lat="48.4359317" lon="14.4067596">
<ele>786.127</ele>
<time>2025-04-23T11:04:42Z</time>
<hdop>25.0</hdop>
</trkpt>
<trkpt lat="48.4361539" lon="14.4067728">
<ele>778.126</ele>
<time>2025-04-23T11:05:12Z</time>
<hdop>28.57</hdop>
</trkpt>
<trkpt lat="48.4360844" lon="14.4067877">
<ele>781.127</ele>
<time>2025-04-23T11:06:07Z</time>
<hdop>9.69</hdop>
</trkpt>
<trkpt lat="48.4363878" lon="14.4069986">
<ele>783.127</ele>
<time>2025-04-23T11:06:34Z</time>
<hdop>5.61</hdop>
</trkpt>
<trkpt lat="48.436936" lon="14.4073186">
<ele>789.127</ele>
<time>2025-04-23T11:07:02Z</time>
<hdop>8.16</hdop>
</trkpt>
<trkpt lat="48.4373617" lon="14.4077175">
<ele>798.127</ele>
<time>2025-04-23T11:07:30Z</time>
<hdop>7.65</hdop>
</trkpt>
<trkpt lat="48.4376534" lon="14.4077461">
<ele>784.127</ele>
<time>2025-04-23T11:08:25Z</time>
<hdop>6.63</hdop>
</trkpt>
<trkpt lat="48.4382804" lon="14.4077177">
<ele>789.126</ele>
<time>2025-04-23T11:08:53Z</time>
<hdop>9.18</hdop>
</trkpt>
<trkpt lat="48.4388719" lon="14.4073556">
<ele>791.126</ele>
<time>2025-04-23T11:09:20Z</time>
<hdop>9.18</hdop>
</trkpt>
<trkpt lat="48.43936" lon="14.4067252">
<ele>795.125</ele>
<time>2025-04-23T11:09:47Z</time>
<hdop>9.18</hdop>
</trkpt>
<trkpt lat="48.4410691" lon="14.4061034">
<ele>762.124</ele>
<time>2025-04-23T11:10:45Z</time>
<hdop>61.73</hdop>
</trkpt>
<trkpt lat="48.4413534" lon="14.4060136">
<ele>812.124</ele>
<time>2025-04-23T11:11:14Z</time>
<hdop>25.0</hdop>
</trkpt>
<trkpt lat="48.4414034" lon="14.4059926">
<ele>791.124</ele>
<time>2025-04-23T11:11:44Z</time>
<hdop>41.33</hdop>
</trkpt>
<trkpt lat="48.4419346" lon="14.4054871">
<ele>810.124</ele>
<time>2025-04-23T11:12:14Z</time>
<hdop>43.37</hdop>
</trkpt>
<trkpt lat="48.4418475" lon="14.4050877">
<ele>811.124</ele>
<time>2025-04-23T11:12:44Z</time>
<hdop>26.53</hdop>
</trkpt>
<trkpt lat="48.442155" lon="14.4049087">
<ele>826.123</ele>
<time>2025-04-23T11:13:14Z</time>
<hdop>64.8</hdop>
</trkpt>
<trkpt lat="48.4432318" lon="14.4049901">
<ele>818.123</ele>
<time>2025-04-23T11:13:44Z</time>
<hdop>42.86</hdop>
</trkpt>
<trkpt lat="48.4436693" lon="14.4043448">
<ele>825.122</ele>
<time>2025-04-23T11:14:14Z</time>
<hdop>32.65</hdop>
</trkpt>
<trkpt lat="48.4438114" lon="14.4031086">
<ele>810.122</ele>
<time>2025-04-23T11:14:44Z</time>
<hdop>31.12</hdop>
</trkpt>
<trkpt lat="48.4441377" lon="14.4020589">
<ele>808.121</ele>
<time>2025-04-23T11:15:14Z</time>
<hdop>25.0</hdop>
</trkpt>
<trkpt lat="48.4450217" lon="14.4018678">
<ele>807.12</ele>
<time>2025-04-23T11:15:44Z</time>
<hdop>48.47</hdop>
</trkpt>
<trkpt lat="48.4452054" lon="14.4018896">
<ele>806.12</ele>
<time>2025-04-23T11:16:14Z</time>
<hdop>16.33</hdop>
</trkpt>
<trkpt lat="48.4453877" lon="14.40206">
<ele>816.12</ele>
<time>2025-04-23T11:16:45Z</time>
<hdop>54.59</hdop>
</trkpt>
<trkpt lat="48.4458226" lon="14.4019929">
<ele>820.12</ele>
<time>2025-04-23T11:17:14Z</time>
<hdop>41.33</hdop>
</trkpt>
<trkpt lat="48.4460628" lon="14.4014868">
<ele>800.12</ele>
<time>2025-04-23T11:17:44Z</time>
<hdop>43.88</hdop>
</trkpt>
<trkpt lat="48.4462953" lon="14.4010122">
<ele>815.119</ele>
<time>2025-04-23T11:18:14Z</time>
<hdop>18.88</hdop>
</trkpt>
<trkpt lat="48.4467882" lon="14.4004914">
<ele>836.119</ele>
<time>2025-04-23T11:18:44Z</time>
<hdop>21.94</hdop>
</trkpt>
<trkpt lat="48.4471651" lon="14.3999236">
<ele>837.118</ele>
<time>2025-04-23T11:19:14Z</time>
<hdop>57.14</hdop>
</trkpt>
<trkpt lat="48.4474227" lon="14.3993808">
<ele>874.118</ele>
<time>2025-04-23T11:19:46Z</time>
<hdop>71.94</hdop>
</trkpt>
<trkpt lat="48.4479808" lon="14.3991123">
<ele>860.117</ele>
<time>2025-04-23T11:20:14Z</time>
<hdop>31.12</hdop>
</trkpt>
<trkpt lat="48.4485093" lon="14.3996502">
<ele>849.118</ele>
<time>2025-04-23T11:20:44Z</time>
<hdop>35.2</hdop>
</trkpt>
<trkpt lat="48.4492314" lon="14.4002934">
<ele>838.118</ele>
<time>2025-04-23T11:21:14Z</time>
<hdop>47.45</hdop>
</trkpt>
<trkpt lat="48.4496773" lon="14.4003391">
<ele>857.118</ele>
<time>2025-04-23T11:21:44Z</time>
<hdop>20.92</hdop>
</trkpt>
<trkpt lat="48.4501311" lon="14.3993346">
<ele>864.117</ele>
<time>2025-04-23T11:22:14Z</time>
<hdop>85.71</hdop>
</trkpt>
<trkpt lat="48.4507288" lon="14.3992746">
<ele>859.117</ele>
<time>2025-04-23T11:22:45Z</time>
<hdop>37.24</hdop>
</trkpt>
<trkpt lat="48.4511526" lon="14.3996927">
<ele>845.117</ele>
<time>2025-04-23T11:23:14Z</time>
<hdop>25.0</hdop>
</trkpt>
<trkpt lat="48.451525" lon="14.4002687">
<ele>906.117</ele>
<time>2025-04-23T11:23:45Z</time>
<hdop>45.92</hdop>
</trkpt>
<trkpt lat="48.4516696" lon="14.4006367">
<ele>900.117</ele>
<time>2025-04-23T11:24:14Z</time>
<hdop>34.69</hdop>
</trkpt>
<trkpt lat="48.4521511" lon="14.4008505">
<ele>875.117</ele>
<time>2025-04-23T11:24:44Z</time>
<hdop>45.92</hdop>
</trkpt>
<trkpt lat="48.4523162" lon="14.4005775">
<ele>878.117</ele>
<time>2025-04-23T11:25:14Z</time>
<hdop>40.82</hdop>
</trkpt>
<trkpt lat="48.4524322" lon="14.4007503">
<ele>882.117</ele>
<time>2025-04-23T11:25:45Z</time>
<hdop>51.02</hdop>
</trkpt>
<trkpt lat="48.4524709" lon="14.4009575">
<ele>883.117</ele>
<time>2025-04-23T11:26:15Z</time>
<hdop>28.57</hdop>
</trkpt>
<trkpt lat="48.4524709" lon="14.4009575">
<ele>895.117</ele>
<time>2025-04-23T11:26:45Z</time>
<hdop>42.35</hdop>
</trkpt>
<trkpt lat="48.4530789" lon="14.4005422">
<ele>904.117</ele>
<time>2025-04-23T11:27:14Z</time>
<hdop>41.84</hdop>
</trkpt>
<trkpt lat="48.4537277" lon="14.4006517">
<ele>906.117</ele>
<time>2025-04-23T11:27:44Z</time>
<hdop>108.67</hdop>
</trkpt>
<trkpt lat="48.4541526" lon="14.4011541">
<ele>934.117</ele>
<time>2025-04-23T11:28:14Z</time>
<hdop>37.76</hdop>
</trkpt>
<trkpt lat="48.4540343" lon="14.4017531">
<ele>934.117</ele>
<time>2025-04-23T11:28:44Z</time>
<hdop>74.49</hdop>
</trkpt>
<trkpt lat="48.4537658" lon="14.4020812">
<ele>926.118</ele>
<time>2025-04-23T11:29:14Z</time>
<hdop>34.18</hdop>
</trkpt>
<trkpt lat="48.4535016" lon="14.4025262">
<ele>936.118</ele>
<time>2025-04-23T11:29:44Z</time>
<hdop>32.65</hdop>
</trkpt>
<trkpt lat="48.4534391" lon="14.4021966">
<ele>954.118</ele>
<time>2025-04-23T11:30:14Z</time>
<hdop>45.92</hdop>
</trkpt>
<trkpt lat="48.4535844" lon="14.4019134">
<ele>924.118</ele>
<time>2025-04-23T11:30:44Z</time>
<hdop>26.02</hdop>
</trkpt>
<trkpt lat="48.4538299" lon="14.4016161">
<ele>890.117</ele>
<time>2025-04-23T11:31:14Z</time>
<hdop>34.18</hdop>
</trkpt>
<trkpt lat="48.4537976" lon="14.4016673">
<ele>931.117</ele>
<time>2025-04-23T11:31:44Z</time>
<hdop>20.92</hdop>
</trkpt>
<trkpt lat="48.4541136" lon="14.4015994">
<ele>909.117</ele>
<time>2025-04-23T11:32:14Z</time>
<hdop>59.18</hdop>
</trkpt>
<trkpt lat="48.4537092" lon="14.4014484">
<ele>911.117</ele>
<time>2025-04-23T11:32:45Z</time>
<hdop>90.31</hdop>
</trkpt>
<trkpt lat="48.4536331" lon="14.4023554">
<ele>933.118</ele>
<time>2025-04-23T11:33:14Z</time>
<hdop>25.0</hdop>
</trkpt>
<trkpt lat="48.4535889" lon="14.4023841">
<ele>950.118</ele>
<time>2025-04-23T11:33:44Z</time>
<hdop>20.92</hdop>
</trkpt>
<trkpt lat="48.4533695" lon="14.4025108">
<ele>943.118</ele>
<time>2025-04-23T11:34:14Z</time>
<hdop>19.39</hdop>
</trkpt>
<trkpt lat="48.4532395" lon="14.4024137">
<ele>960.118</ele>
<time>2025-04-23T11:34:44Z</time>
<hdop>29.59</hdop>
</trkpt>
<trkpt lat="48.4535287" lon="14.4022729">
<ele>939.118</ele>
<time>2025-04-23T11:35:14Z</time>
<hdop>29.08</hdop>
</trkpt>
<trkpt lat="48.4534952" lon="14.4021231">
<ele>927.118</ele>
<time>2025-04-23T11:35:44Z</time>
<hdop>32.65</hdop>
</trkpt>
<trkpt lat="48.4533988" lon="14.4021532">
<ele>926.118</ele>
<time>2025-04-23T11:36:15Z</time>
<hdop>82.65</hdop>
</trkpt>
<trkpt lat="48.4533988" lon="14.4021532">
<ele>929.118</ele>
<time>2025-04-23T11:36:45Z</time>
<hdop>46.94</hdop>
</trkpt>
<trkpt lat="48.4533988" lon="14.4021532">
<ele>947.118</ele>
<time>2025-04-23T11:37:14Z</time>
<hdop>40.82</hdop>
</trkpt>
<trkpt lat="48.4533988" lon="14.4021532">
<ele>952.118</ele>
<time>2025-04-23T11:37:44Z</time>
<hdop>37.24</hdop>
</trkpt>
<trkpt lat="48.4533988" lon="14.4021532">
<ele>915.118</ele>
<time>2025-04-23T11:38:15Z</time>
<hdop>95.92</hdop>
</trkpt>
<trkpt lat="48.4534912" lon="14.4020819">
<ele>929.118</ele>
<time>2025-04-23T11:38:44Z</time>
<hdop>85.2</hdop>
</trkpt>
<trkpt lat="48.4535679" lon="14.4020407">
<ele>936.118</ele>
<time>2025-04-23T11:39:14Z</time>
<hdop>38.78</hdop>
</trkpt>
<trkpt lat="48.4540909" lon="14.400782">
<ele>913.117</ele>
<time>2025-04-23T11:39:44Z</time>
<hdop>40.82</hdop>
</trkpt>
<trkpt lat="48.454526" lon="14.4002903">
<ele>934.116</ele>
<time>2025-04-23T11:40:14Z</time>
<hdop>87.76</hdop>
</trkpt>
<trkpt lat="48.4554405" lon="14.3996509">
<ele>898.115</ele>
<time>2025-04-23T11:40:44Z</time>
<hdop>38.27</hdop>
</trkpt>
<trkpt lat="48.4565" lon="14.3985257">
<ele>874.114</ele>
<time>2025-04-23T11:41:14Z</time>
<hdop>47.45</hdop>
</trkpt>
<trkpt lat="48.4564055" lon="14.3984897">
<ele>882.114</ele>
<time>2025-04-23T11:41:44Z</time>
<hdop>44.9</hdop>
</trkpt>
<trkpt lat="48.4559808" lon="14.396828">
<ele>869.113</ele>
<time>2025-04-23T11:42:14Z</time>
<hdop>48.47</hdop>
</trkpt>
<trkpt lat="48.4562196" lon="14.3955761">
<ele>855.112</ele>
<time>2025-04-23T11:42:44Z</time>
<hdop>37.24</hdop>
</trkpt>
<trkpt lat="48.4575315" lon="14.3949083">
<ele>848.111</ele>
<time>2025-04-23T11:43:14Z</time>
<hdop>68.88</hdop>
</trkpt>
<trkpt lat="48.4580018" lon="14.3946963">
<ele>860.111</ele>
<time>2025-04-23T11:43:44Z</time>
<hdop>46.94</hdop>
</trkpt>
<trkpt lat="48.4588709" lon="14.393898">
<ele>811.11</ele>
<time>2025-04-23T11:44:14Z</time>
<hdop>55.1</hdop>
</trkpt>
<trkpt lat="48.4605213" lon="14.393091">
<ele>814.109</ele>
<time>2025-04-23T11:44:47Z</time>
<hdop>37.24</hdop>
</trkpt>
<trkpt lat="48.4615698" lon="14.3927347">
<ele>800.109</ele>
<time>2025-04-23T11:45:44Z</time>
<hdop>36.73</hdop>
</trkpt>
<trkpt lat="48.4616435" lon="14.3910584">
<ele>806.107</ele>
<time>2025-04-23T11:46:14Z</time>
<hdop>17.86</hdop>
</trkpt>
<trkpt lat="48.4639971" lon="14.3891978">
<ele>800.105</ele>
<time>2025-04-23T11:46:44Z</time>
<hdop>42.35</hdop>
</trkpt>
<trkpt lat="48.4641729" lon="14.389121">
<ele>809.105</ele>
<time>2025-04-23T11:47:14Z</time>
<hdop>11.73</hdop>
</trkpt>
<trkpt lat="48.464422" lon="14.3881306">
<ele>798.105</ele>
<time>2025-04-23T11:47:44Z</time>
<hdop>39.8</hdop>
</trkpt>
<trkpt lat="48.4647458" lon="14.3868489">
<ele>811.104</ele>
<time>2025-04-23T11:48:14Z</time>
<hdop>52.55</hdop>
</trkpt>
<trkpt lat="48.4661949" lon="14.3852398">
<ele>780.102</ele>
<time>2025-04-23T11:48:44Z</time>
<hdop>50.0</hdop>
</trkpt>
<trkpt lat="48.4663049" lon="14.384197">
<ele>802.101</ele>
<time>2025-04-23T11:49:14Z</time>
<hdop>27.04</hdop>
</trkpt>
<trkpt lat="48.4662669" lon="14.38351">
<ele>819.101</ele>
<time>2025-04-23T11:49:44Z</time>
<hdop>19.39</hdop>
</trkpt>
<trkpt lat="48.4662824" lon="14.3827665">
<ele>825.1</ele>
<time>2025-04-23T11:50:14Z</time>
<hdop>37.76</hdop>
</trkpt>
<trkpt lat="48.4661032" lon="14.3825158">
<ele>856.1</ele>
<time>2025-04-23T11:50:44Z</time>
<hdop>22.96</hdop>
</trkpt>
<trkpt lat="48.4660605" lon="14.3819023">
<ele>848.1</ele>
<time>2025-04-23T11:51:14Z</time>
<hdop>61.22</hdop>
</trkpt>
<trkpt lat="48.465951" lon="14.3814165">
<ele>845.099</ele>
<time>2025-04-23T11:51:44Z</time>
<hdop>25.51</hdop>
</trkpt>
<trkpt lat="48.4659916" lon="14.3808731">
<ele>843.099</ele>
<time>2025-04-23T11:52:14Z</time>
<hdop>53.57</hdop>
</trkpt>
<trkpt lat="48.4660854" lon="14.3821142">
<ele>820.1</ele>
<time>2025-04-23T11:52:44Z</time>
<hdop>100.0</hdop>
</trkpt>
<trkpt lat="48.4658106" lon="14.3790687">
<ele>850.098</ele>
<time>2025-04-23T11:53:14Z</time>
<hdop>23.98</hdop>
</trkpt>
<trkpt lat="48.465619" lon="14.3779543">
<ele>843.097</ele>
<time>2025-04-23T11:53:44Z</time>
<hdop>25.0</hdop>
</trkpt>
<trkpt lat="48.4650624" lon="14.3767053">
<ele>843.096</ele>
<time>2025-04-23T11:54:14Z</time>
<hdop>21.43</hdop>
</trkpt>
<trkpt lat="48.4641227" lon="14.375993">
<ele>849.096</ele>
<time>2025-04-23T11:54:44Z</time>
<hdop>31.12</hdop>
</trkpt>
<trkpt lat="48.4632851" lon="14.3759108">
<ele>823.096</ele>
<time>2025-04-23T11:55:14Z</time>
<hdop>42.86</hdop>
</trkpt>
<trkpt lat="48.4605017" lon="14.3766987">
<ele>847.098</ele>
<time>2025-04-23T11:55:44Z</time>
<hdop>43.88</hdop>
</trkpt>
<trkpt lat="48.4588165" lon="14.377584">
<ele>835.099</ele>
<time>2025-04-23T11:56:14Z</time>
<hdop>34.18</hdop>
</trkpt>
<trkpt lat="48.4583139" lon="14.3785147">
<ele>856.1</ele>
<time>2025-04-23T11:56:47Z</time>
<hdop>81.12</hdop>
</trkpt>
<trkpt lat="48.4572943" lon="14.3797566">
<ele>824.101</ele>
<time>2025-04-23T11:57:15Z</time>
<hdop>25.51</hdop>
</trkpt>
<trkpt lat="48.4552826" lon="14.381203">
<ele>806.102</ele>
<time>2025-04-23T11:57:44Z</time>
<hdop>49.49</hdop>
</trkpt>
<trkpt lat="48.4544921" lon="14.3816509">
<ele>800.103</ele>
<time>2025-04-23T11:58:14Z</time>
<hdop>31.12</hdop>
</trkpt>
<trkpt lat="48.4540944" lon="14.3785564">
<ele>808.101</ele>
<time>2025-04-23T11:58:44Z</time>
<hdop>55.61</hdop>
</trkpt>
<trkpt lat="48.4547829" lon="14.3769806">
<ele>825.1</ele>
<time>2025-04-23T11:59:14Z</time>
<hdop>36.73</hdop>
</trkpt>
<trkpt lat="48.4561415" lon="14.3753223">
<ele>821.098</ele>
<time>2025-04-23T11:59:44Z</time>
<hdop>46.43</hdop>
</trkpt>
<trkpt lat="48.4564765" lon="14.3744813">
<ele>781.097</ele>
<time>2025-04-23T12:00:14Z</time>
<hdop>52.04</hdop>
</trkpt>
<trkpt lat="48.4569202" lon="14.3729789">
<ele>772.096</ele>
<time>2025-04-23T12:00:44Z</time>
<hdop>42.35</hdop>
</trkpt>
<trkpt lat="48.4575483" lon="14.3722754">
<ele>779.095</ele>
<time>2025-04-23T12:01:14Z</time>
<hdop>54.59</hdop>
</trkpt>
<trkpt lat="48.4582419" lon="14.3715338">
<ele>790.095</ele>
<time>2025-04-23T12:01:44Z</time>
<hdop>36.22</hdop>
</trkpt>
<trkpt lat="48.4586961" lon="14.3716467">
<ele>771.095</ele>
<time>2025-04-23T12:02:14Z</time>
<hdop>27.04</hdop>
</trkpt>
<trkpt lat="48.4587064" lon="14.370708">
<ele>815.094</ele>
<time>2025-04-23T12:02:45Z</time>
<hdop>82.65</hdop>
</trkpt>
<trkpt lat="48.4591048" lon="14.3688289">
<ele>742.093</ele>
<time>2025-04-23T12:03:14Z</time>
<hdop>29.59</hdop>
</trkpt>
<trkpt lat="48.4591609" lon="14.368208">
<ele>770.092</ele>
<time>2025-04-23T12:03:44Z</time>
<hdop>20.92</hdop>
</trkpt>
<trkpt lat="48.4589423" lon="14.3680673">
<ele>747.092</ele>
<time>2025-04-23T12:04:14Z</time>
<hdop>20.41</hdop>
</trkpt>
<trkpt lat="48.4584616" lon="14.3673643">
<ele>721.092</ele>
<time>2025-04-23T12:04:44Z</time>
<hdop>34.18</hdop>
</trkpt>
<trkpt lat="48.4592219" lon="14.3657492">
<ele>685.09</ele>
<time>2025-04-23T12:05:14Z</time>
<hdop>59.69</hdop>
</trkpt>
<trkpt lat="48.4583399" lon="14.3648693">
<ele>706.09</ele>
<time>2025-04-23T12:05:44Z</time>
<hdop>33.16</hdop>
</trkpt>
<trkpt lat="48.4577091" lon="14.3648905">
<ele>710.09</ele>
<time>2025-04-23T12:06:14Z</time>
<hdop>65.82</hdop>
</trkpt>
<trkpt lat="48.4574994" lon="14.3651702">
<ele>708.09</ele>
<time>2025-04-23T12:06:46Z</time>
<hdop>18.37</hdop>
</trkpt>
<trkpt lat="48.4559561" lon="14.3655296">
<ele>708.091</ele>
<time>2025-04-23T12:07:15Z</time>
<hdop>80.1</hdop>
</trkpt>
<trkpt lat="48.455175" lon="14.3654124">
<ele>701.091</ele>
<time>2025-04-23T12:07:44Z</time>
<hdop>59.69</hdop>
</trkpt>
<trkpt lat="48.4535221" lon="14.3649782">
<ele>706.092</ele>
<time>2025-04-23T12:08:14Z</time>
<hdop>79.59</hdop>
</trkpt>
<trkpt lat="48.4522265" lon="14.3638969">
<ele>695.091</ele>
<time>2025-04-23T12:08:46Z</time>
<hdop>26.02</hdop>
</trkpt>
<trkpt lat="48.4515482" lon="14.3628888">
<ele>679.091</ele>
<time>2025-04-23T12:09:14Z</time>
<hdop>25.51</hdop>
</trkpt>
<trkpt lat="48.4528697" lon="14.3592796">
<ele>680.088</ele>
<time>2025-04-23T12:09:44Z</time>
<hdop>39.8</hdop>
</trkpt>
<trkpt lat="48.4537998" lon="14.3553644">
<ele>672.085</ele>
<time>2025-04-23T12:10:14Z</time>
<hdop>34.69</hdop>
</trkpt>
<trkpt lat="48.4537383" lon="14.3528137">
<ele>641.083</ele>
<time>2025-04-23T12:10:44Z</time>
<hdop>40.82</hdop>
</trkpt>
<trkpt lat="48.4547825" lon="14.3522657">
<ele>636.082</ele>
<time>2025-04-23T12:11:14Z</time>
<hdop>74.49</hdop>
</trkpt>
<trkpt lat="48.4551346" lon="14.3513655">
<ele>654.081</ele>
<time>2025-04-23T12:11:44Z</time>
<hdop>25.51</hdop>
</trkpt>
<trkpt lat="48.4555667" lon="14.3510413">
<ele>641.081</ele>
<time>2025-04-23T12:12:14Z</time>
<hdop>45.92</hdop>
</trkpt>
<trkpt lat="48.455921" lon="14.3504468">
<ele>661.08</ele>
<time>2025-04-23T12:12:44Z</time>
<hdop>41.84</hdop>
</trkpt>
<trkpt lat="48.4560443" lon="14.3499439">
<ele>654.08</ele>
<time>2025-04-23T12:13:14Z</time>
<hdop>19.39</hdop>
</trkpt>
<trkpt lat="48.4560278" lon="14.3493439">
<ele>659.08</ele>
<time>2025-04-23T12:13:44Z</time>
<hdop>36.73</hdop>
</trkpt>
<trkpt lat="48.456166" lon="14.3492433">
<ele>650.08</ele>
<time>2025-04-23T12:14:14Z</time>
<hdop>33.67</hdop>
</trkpt>
<trkpt lat="48.456166" lon="14.3491626">
<ele>665.08</ele>
<time>2025-04-23T12:15:44Z</time>
<hdop>34.69</hdop>
</trkpt>
<trkpt lat="48.4561375" lon="14.3492291">
<ele>679.08</ele>
<time>2025-04-23T12:16:44Z</time>
<hdop>15.31</hdop>
</trkpt>
<trkpt lat="48.4561472" lon="14.3492328">
<ele>683.08</ele>
<time>2025-04-23T12:46:47Z</time>
<hdop>34.69</hdop>
</trkpt>
<trkpt lat="48.4561472" lon="14.3492328">
<ele>667.08</ele>
<time>2025-04-23T12:47:16Z</time>
<hdop>21.43</hdop>
</trkpt>
<trkpt lat="48.4561376" lon="14.3492302">
<ele>685.08</ele>
<time>2025-04-23T12:47:46Z</time>
<hdop>21.43</hdop>
</trkpt>
<trkpt lat="48.4561522" lon="14.3491807">
<ele>677.08</ele>
<time>2025-04-23T12:53:46Z</time>
<hdop>30.61</hdop>
</trkpt>
<trkpt lat="48.4562012" lon="14.3492504">
<ele>659.08</ele>
<time>2025-04-23T13:00:02Z</time>
<hdop>9.69</hdop>
</trkpt>
<trkpt lat="48.4560467" lon="14.3487424">
<ele>669.079</ele>
<time>2025-04-23T13:00:58Z</time>
<hdop>18.37</hdop>
</trkpt>
<trkpt lat="48.455791" lon="14.3479514">
<ele>669.079</ele>
<time>2025-04-23T13:01:26Z</time>
<hdop>13.78</hdop>
</trkpt>
<trkpt lat="48.4553641" lon="14.347297">
<ele>671.078</ele>
<time>2025-04-23T13:01:54Z</time>
<hdop>13.27</hdop>
</trkpt>
<trkpt lat="48.4547468" lon="14.347948">
<ele>670.079</ele>
<time>2025-04-23T13:02:21Z</time>
<hdop>18.88</hdop>
</trkpt>
<trkpt lat="48.4544991" lon="14.3485733">
<ele>669.08</ele>
<time>2025-04-23T13:02:49Z</time>
<hdop>22.45</hdop>
</trkpt>
<trkpt lat="48.4539973" lon="14.3489015">
<ele>672.08</ele>
<time>2025-04-23T13:03:16Z</time>
<hdop>17.86</hdop>
</trkpt>
<trkpt lat="48.453521" lon="14.3489458">
<ele>673.08</ele>
<time>2025-04-23T13:03:44Z</time>
<hdop>27.55</hdop>
</trkpt>
<trkpt lat="48.4530108" lon="14.3488348">
<ele>675.08</ele>
<time>2025-04-23T13:04:12Z</time>
<hdop>34.18</hdop>
</trkpt>
<trkpt lat="48.4524981" lon="14.3490532">
<ele>680.081</ele>
<time>2025-04-23T13:04:39Z</time>
<hdop>16.84</hdop>
</trkpt>
<trkpt lat="48.4519225" lon="14.3493248">
<ele>692.081</ele>
<time>2025-04-23T13:05:06Z</time>
<hdop>10.71</hdop>
</trkpt>
<trkpt lat="48.4514293" lon="14.3495264">
<ele>697.081</ele>
<time>2025-04-23T13:05:34Z</time>
<hdop>16.84</hdop>
</trkpt>
<trkpt lat="48.4510631" lon="14.3495765">
<ele>713.081</ele>
<time>2025-04-23T13:06:01Z</time>
<hdop>19.39</hdop>
</trkpt>
<trkpt lat="48.4510975" lon="14.3484475">
<ele>709.081</ele>
<time>2025-04-23T13:06:55Z</time>
<hdop>20.92</hdop>
</trkpt>
<trkpt lat="48.4513892" lon="14.3476819">
<ele>712.08</ele>
<time>2025-04-23T13:07:22Z</time>
<hdop>9.18</hdop>
</trkpt>
<trkpt lat="48.4518129" lon="14.3470975">
<ele>717.079</ele>
<time>2025-04-23T13:07:49Z</time>
<hdop>12.24</hdop>
</trkpt>
<trkpt lat="48.4521626" lon="14.3466567">
<ele>719.079</ele>
<time>2025-04-23T13:08:17Z</time>
<hdop>13.78</hdop>
</trkpt>
<trkpt lat="48.4521993" lon="14.3467963">
<ele>723.079</ele>
<time>2025-04-23T13:08:45Z</time>
<hdop>5.1</hdop>
</trkpt>
<trkpt lat="48.452037" lon="14.3461605">
<ele>726.079</ele>
<time>2025-04-23T13:09:12Z</time>
<hdop>11.73</hdop>
</trkpt>
<trkpt lat="48.4519088" lon="14.3455787">
<ele>732.078</ele>
<time>2025-04-23T13:09:39Z</time>
<hdop>11.22</hdop>
</trkpt>
<trkpt lat="48.4519035" lon="14.3449262">
<ele>734.078</ele>
<time>2025-04-23T13:10:06Z</time>
<hdop>10.2</hdop>
</trkpt>
<trkpt lat="48.451966" lon="14.34394">
<ele>732.077</ele>
<time>2025-04-23T13:10:34Z</time>
<hdop>9.18</hdop>
</trkpt>
<trkpt lat="48.4520896" lon="14.3430722">
<ele>730.076</ele>
<time>2025-04-23T13:11:01Z</time>
<hdop>19.39</hdop>
</trkpt>
<trkpt lat="48.4522155" lon="14.3415184">
<ele>734.075</ele>
<time>2025-04-23T13:11:28Z</time>
<hdop>17.86</hdop>
</trkpt>
<trkpt lat="48.4520622" lon="14.3392318">
<ele>733.074</ele>
<time>2025-04-23T13:11:56Z</time>
<hdop>9.69</hdop>
</trkpt>
<trkpt lat="48.4518745" lon="14.3389675">
<ele>738.074</ele>
<time>2025-04-23T13:12:23Z</time>
<hdop>20.41</hdop>
</trkpt>
<trkpt lat="48.4516532" lon="14.339258">
<ele>741.074</ele>
<time>2025-04-23T13:12:50Z</time>
<hdop>22.45</hdop>
</trkpt>
<trkpt lat="48.4514083" lon="14.339522">
<ele>744.074</ele>
<time>2025-04-23T13:13:18Z</time>
<hdop>26.53</hdop>
</trkpt>
<trkpt lat="48.4512177" lon="14.3397659">
<ele>749.074</ele>
<time>2025-04-23T13:13:46Z</time>
<hdop>27.04</hdop>
</trkpt>
<trkpt lat="48.4507874" lon="14.3400028">
<ele>760.075</ele>
<time>2025-04-23T13:14:41Z</time>
<hdop>21.94</hdop>
</trkpt>
<trkpt lat="48.4504713" lon="14.3399633">
<ele>765.075</ele>
<time>2025-04-23T13:15:09Z</time>
<hdop>23.47</hdop>
</trkpt>
<trkpt lat="48.4501383" lon="14.3396978">
<ele>767.075</ele>
<time>2025-04-23T13:15:37Z</time>
<hdop>13.27</hdop>
</trkpt>
<trkpt lat="48.4492618" lon="14.3394745">
<ele>782.075</ele>
<time>2025-04-23T13:16:32Z</time>
<hdop>11.22</hdop>
</trkpt>
<trkpt lat="48.4488597" lon="14.3397408">
<ele>781.075</ele>
<time>2025-04-23T13:16:59Z</time>
<hdop>10.71</hdop>
</trkpt>
<trkpt lat="48.4483468" lon="14.3399614">
<ele>785.075</ele>
<time>2025-04-23T13:17:27Z</time>
<hdop>15.82</hdop>
</trkpt>
<trkpt lat="48.4480705" lon="14.3392472">
<ele>789.075</ele>
<time>2025-04-23T13:17:55Z</time>
<hdop>11.22</hdop>
</trkpt>
<trkpt lat="48.4472212" lon="14.3389363">
<ele>796.075</ele>
<time>2025-04-23T13:18:50Z</time>
<hdop>12.76</hdop>
</trkpt>
<trkpt lat="48.4468588" lon="14.3385865">
<ele>801.075</ele>
<time>2025-04-23T13:19:18Z</time>
<hdop>11.73</hdop>
</trkpt>
<trkpt lat="48.4465829" lon="14.3380764">
<ele>801.075</ele>
<time>2025-04-23T13:19:45Z</time>
<hdop>13.78</hdop>
</trkpt>
<trkpt lat="48.4465903" lon="14.3374764">
<ele>808.074</ele>
<time>2025-04-23T13:20:13Z</time>
<hdop>11.73</hdop>
</trkpt>
<trkpt lat="48.446436" lon="14.3366332">
<ele>808.074</ele>
<time>2025-04-23T13:20:41Z</time>
<hdop>11.73</hdop>
</trkpt>
<trkpt lat="48.4457486" lon="14.3368745">
<ele>811.074</ele>
<time>2025-04-23T13:21:36Z</time>
<hdop>26.02</hdop>
</trkpt>
<trkpt lat="48.4454757" lon="14.3375348">
<ele>813.075</ele>
<time>2025-04-23T13:22:04Z</time>
<hdop>28.06</hdop>
</trkpt>
<trkpt lat="48.4447242" lon="14.3389219">
<ele>815.076</ele>
<time>2025-04-23T13:22:31Z</time>
<hdop>27.55</hdop>
</trkpt>
<trkpt lat="48.444805" lon="14.3405294">
<ele>807.077</ele>
<time>2025-04-23T13:22:59Z</time>
<hdop>21.94</hdop>
</trkpt>
<trkpt lat="48.4445539" lon="14.3440159">
<ele>809.079</ele>
<time>2025-04-23T13:23:27Z</time>
<hdop>12.24</hdop>
</trkpt>
<trkpt lat="48.4442786" lon="14.3443063">
<ele>809.08</ele>
<time>2025-04-23T13:24:22Z</time>
<hdop>8.67</hdop>
</trkpt>
<trkpt lat="48.443955" lon="14.3436111">
<ele>813.079</ele>
<time>2025-04-23T13:24:50Z</time>
<hdop>8.67</hdop>
</trkpt>
<trkpt lat="48.443876" lon="14.3429452">
<ele>817.079</ele>
<time>2025-04-23T13:25:18Z</time>
<hdop>10.71</hdop>
</trkpt>
<trkpt lat="48.4438137" lon="14.3422594">
<ele>817.078</ele>
<time>2025-04-23T13:25:46Z</time>
<hdop>15.31</hdop>
</trkpt>
<trkpt lat="48.4438663" lon="14.3418706">
<ele>814.078</ele>
<time>2025-04-23T13:26:13Z</time>
<hdop>19.9</hdop>
</trkpt>
<trkpt lat="48.4436569" lon="14.3412642">
<ele>826.078</ele>
<time>2025-04-23T13:26:40Z</time>
<hdop>14.29</hdop>
</trkpt>
<trkpt lat="48.4434708" lon="14.3411256">
<ele>835.078</ele>
<time>2025-04-23T13:27:08Z</time>
<hdop>8.67</hdop>
</trkpt>
<trkpt lat="48.4430008" lon="14.3412458">
<ele>840.078</ele>
<time>2025-04-23T13:27:36Z</time>
<hdop>10.71</hdop>
</trkpt>
<trkpt lat="48.4425153" lon="14.341116">
<ele>846.078</ele>
<time>2025-04-23T13:28:04Z</time>
<hdop>10.2</hdop>
</trkpt>
<trkpt lat="48.4423202" lon="14.3408543">
<ele>846.078</ele>
<time>2025-04-23T13:28:32Z</time>
<hdop>11.22</hdop>
</trkpt>
<trkpt lat="48.4421571" lon="14.3407879">
<ele>852.078</ele>
<time>2025-04-23T13:29:00Z</time>
<hdop>11.73</hdop>
</trkpt>
<trkpt lat="48.4418709" lon="14.3417935">
<ele>851.079</ele>
<time>2025-04-23T13:29:28Z</time>
<hdop>11.22</hdop>
</trkpt>
<trkpt lat="48.4418146" lon="14.3419685">
<ele>851.079</ele>
<time>2025-04-23T13:29:56Z</time>
<hdop>6.12</hdop>
</trkpt>
<trkpt lat="48.4418011" lon="14.3419868">
<ele>853.079</ele>
<time>2025-04-23T13:31:31Z</time>
<hdop>12.24</hdop>
</trkpt>
<trkpt lat="48.4418011" lon="14.3419868">
<ele>850.079</ele>
<time>2025-04-23T13:31:59Z</time>
<hdop>19.9</hdop>
</trkpt>
<trkpt lat="48.4417568" lon="14.3420414">
<ele>888.079</ele>
<time>2025-04-23T13:33:17Z</time>
<hdop>81.63</hdop>
</trkpt>
<trkpt lat="48.4417568" lon="14.3420414">
<ele>869.079</ele>
<time>2025-04-23T13:33:47Z</time>
<hdop>30.61</hdop>
</trkpt>
<trkpt lat="48.4417568" lon="14.3420414">
<ele>876.079</ele>
<time>2025-04-23T13:34:16Z</time>
<hdop>28.57</hdop>
</trkpt>
<trkpt lat="48.4417568" lon="14.3420414">
<ele>893.079</ele>
<time>2025-04-23T13:34:49Z</time>
<hdop>76.53</hdop>
</trkpt>
<trkpt lat="48.4417568" lon="14.3420414">
<ele>878.079</ele>
<time>2025-04-23T13:35:47Z</time>
<hdop>51.53</hdop>
</trkpt>
<trkpt lat="48.4417568" lon="14.3420414">
<ele>899.079</ele>
<time>2025-04-23T13:36:20Z</time>
<hdop>40.82</hdop>
</trkpt>
<trkpt lat="48.4417544" lon="14.3419541">
<ele>875.079</ele>
<time>2025-04-23T13:37:16Z</time>
<hdop>48.47</hdop>
</trkpt>
<trkpt lat="48.4417591" lon="14.3420594">
<ele>859.079</ele>
<time>2025-04-23T13:44:47Z</time>
<hdop>133.16</hdop>
</trkpt>
<trkpt lat="48.4417846" lon="14.3420062">
<ele>906.079</ele>
<time>2025-04-23T13:56:48Z</time>
<hdop>135.71</hdop>
</trkpt>
<trkpt lat="48.4417803" lon="14.3420224">
<ele>874.079</ele>
<time>2025-04-23T13:57:18Z</time>
<hdop>101.53</hdop>
</trkpt>
<trkpt lat="48.4417917" lon="14.3420054">
<ele>897.079</ele>
<time>2025-04-23T13:57:49Z</time>
<hdop>141.33</hdop>
</trkpt>
<trkpt lat="48.4417888" lon="14.3420174">
<ele>884.079</ele>
<time>2025-04-23T13:58:46Z</time>
<hdop>103.06</hdop>
</trkpt>
<trkpt lat="48.4417758" lon="14.3419654">
<ele>859.079</ele>
<time>2025-04-23T14:01:51Z</time>
<hdop>189.29</hdop>
</trkpt>
<trkpt lat="48.4417407" lon="14.3419637">
<ele>892.079</ele>
<time>2025-04-23T14:03:46Z</time>
<hdop>204.59</hdop>
</trkpt>
<trkpt lat="48.4417219" lon="14.3420464">
<ele>887.079</ele>
<time>2025-04-23T14:04:46Z</time>
<hdop>23.98</hdop>
</trkpt>
<trkpt lat="48.4416216" lon="14.3422396">
<ele>877.079</ele>
<time>2025-04-23T14:07:16Z</time>
<hdop>51.02</hdop>
</trkpt>
<trkpt lat="48.4410314" lon="14.344956">
<ele>819.081</ele>
<time>2025-04-23T14:07:46Z</time>
<hdop>30.1</hdop>
</trkpt>
<trkpt lat="48.440485" lon="14.3448316">
<ele>871.081</ele>
<time>2025-04-23T14:08:26Z</time>
<hdop>94.9</hdop>
</trkpt>
<trkpt lat="48.4398433" lon="14.3429076">
<ele>826.08</ele>
<time>2025-04-23T14:09:16Z</time>
<hdop>67.86</hdop>
</trkpt>
<trkpt lat="48.4400448" lon="14.3403421">
<ele>826.078</ele>
<time>2025-04-23T14:09:46Z</time>
<hdop>55.61</hdop>
</trkpt>
<trkpt lat="48.4397763" lon="14.3388462">
<ele>835.077</ele>
<time>2025-04-23T14:10:16Z</time>
<hdop>45.41</hdop>
</trkpt>
<trkpt lat="48.439079" lon="14.3373442">
<ele>834.076</ele>
<time>2025-04-23T14:10:46Z</time>
<hdop>55.1</hdop>
</trkpt>
<trkpt lat="48.4385003" lon="14.3360018">
<ele>843.076</ele>
<time>2025-04-23T14:11:16Z</time>
<hdop>47.45</hdop>
</trkpt>
<trkpt lat="48.4386514" lon="14.3348409">
<ele>813.075</ele>
<time>2025-04-23T14:11:46Z</time>
<hdop>64.8</hdop>
</trkpt>
<trkpt lat="48.4387085" lon="14.3334213">
<ele>832.074</ele>
<time>2025-04-23T14:12:16Z</time>
<hdop>77.55</hdop>
</trkpt>
<trkpt lat="48.4388976" lon="14.332183">
<ele>853.073</ele>
<time>2025-04-23T14:12:46Z</time>
<hdop>86.73</hdop>
</trkpt>
<trkpt lat="48.4385072" lon="14.330663">
<ele>854.072</ele>
<time>2025-04-23T14:13:16Z</time>
<hdop>70.92</hdop>
</trkpt>
<trkpt lat="48.4379828" lon="14.3296007">
<ele>850.071</ele>
<time>2025-04-23T14:13:46Z</time>
<hdop>94.39</hdop>
</trkpt>
<trkpt lat="48.4371748" lon="14.3281764">
<ele>848.07</ele>
<time>2025-04-23T14:14:19Z</time>
<hdop>135.71</hdop>
</trkpt>
<trkpt lat="48.4364972" lon="14.326126">
<ele>847.069</ele>
<time>2025-04-23T14:15:08Z</time>
<hdop>48.98</hdop>
</trkpt>
<trkpt lat="48.435831" lon="14.3233382">
<ele>853.067</ele>
<time>2025-04-23T14:15:58Z</time>
<hdop>129.59</hdop>
</trkpt>
<trkpt lat="48.4353856" lon="14.3218789">
<ele>874.066</ele>
<time>2025-04-23T14:16:46Z</time>
<hdop>79.59</hdop>
</trkpt>
<trkpt lat="48.4352794" lon="14.3196351">
<ele>857.065</ele>
<time>2025-04-23T14:17:16Z</time>
<hdop>48.47</hdop>
</trkpt>
<trkpt lat="48.4352843" lon="14.3186842">
<ele>872.064</ele>
<time>2025-04-23T14:17:46Z</time>
<hdop>79.08</hdop>
</trkpt>
<trkpt lat="48.4347323" lon="14.3170235">
<ele>877.063</ele>
<time>2025-04-23T14:18:16Z</time>
<hdop>85.71</hdop>
</trkpt>
<trkpt lat="48.4350744" lon="14.3160459">
<ele>873.062</ele>
<time>2025-04-23T14:18:50Z</time>
<hdop>47.45</hdop>
</trkpt>
<trkpt lat="48.4353505" lon="14.3148281">
<ele>870.061</ele>
<time>2025-04-23T14:19:46Z</time>
<hdop>65.31</hdop>
</trkpt>
<trkpt lat="48.4339246" lon="14.3122938">
<ele>841.06</ele>
<time>2025-04-23T14:20:16Z</time>
<hdop>84.18</hdop>
</trkpt>
<trkpt lat="48.4329621" lon="14.3119953">
<ele>875.06</ele>
<time>2025-04-23T14:20:46Z</time>
<hdop>47.45</hdop>
</trkpt>
<trkpt lat="48.4309164" lon="14.3096149">
<ele>834.059</ele>
<time>2025-04-23T14:21:17Z</time>
<hdop>78.06</hdop>
</trkpt>
<trkpt lat="48.4290036" lon="14.3088109">
<ele>815.059</ele>
<time>2025-04-23T14:21:46Z</time>
<hdop>72.96</hdop>
</trkpt>
<trkpt lat="48.4281846" lon="14.3114274">
<ele>838.061</ele>
<time>2025-04-23T14:22:16Z</time>
<hdop>72.45</hdop>
</trkpt>
<trkpt lat="48.4270071" lon="14.3118817">
<ele>810.062</ele>
<time>2025-04-23T14:22:46Z</time>
<hdop>55.61</hdop>
</trkpt>
<trkpt lat="48.4266852" lon="14.3114829">
<ele>807.062</ele>
<time>2025-04-23T14:23:16Z</time>
<hdop>43.37</hdop>
</trkpt>
<trkpt lat="48.4260481" lon="14.3086678">
<ele>812.06</ele>
<time>2025-04-23T14:23:46Z</time>
<hdop>47.45</hdop>
</trkpt>
<trkpt lat="48.4250488" lon="14.308642">
<ele>818.06</ele>
<time>2025-04-23T14:24:36Z</time>
<hdop>88.27</hdop>
</trkpt>
<trkpt lat="48.4238712" lon="14.3071822">
<ele>822.06</ele>
<time>2025-04-23T14:25:16Z</time>
<hdop>70.92</hdop>
</trkpt>
<trkpt lat="48.423723" lon="14.3067096">
<ele>846.059</ele>
<time>2025-04-23T14:25:46Z</time>
<hdop>59.18</hdop>
</trkpt>
<trkpt lat="48.4229839" lon="14.3064534">
<ele>800.059</ele>
<time>2025-04-23T14:26:16Z</time>
<hdop>51.53</hdop>
</trkpt>
<trkpt lat="48.4222607" lon="14.3060014">
<ele>818.059</ele>
<time>2025-04-23T14:26:46Z</time>
<hdop>47.96</hdop>
</trkpt>
<trkpt lat="48.4213543" lon="14.3055153">
<ele>808.059</ele>
<time>2025-04-23T14:27:16Z</time>
<hdop>26.02</hdop>
</trkpt>
<trkpt lat="48.4204313" lon="14.3060752">
<ele>822.06</ele>
<time>2025-04-23T14:27:46Z</time>
<hdop>25.51</hdop>
</trkpt>
<trkpt lat="48.4191332" lon="14.3065296">
<ele>802.06</ele>
<time>2025-04-23T14:28:16Z</time>
<hdop>50.0</hdop>
</trkpt>
<trkpt lat="48.4178373" lon="14.3063256">
<ele>813.061</ele>
<time>2025-04-23T14:28:46Z</time>
<hdop>50.0</hdop>
</trkpt>
<trkpt lat="48.4166422" lon="14.3061364">
<ele>814.061</ele>
<time>2025-04-23T14:29:16Z</time>
<hdop>65.31</hdop>
</trkpt>
<trkpt lat="48.4160406" lon="14.3060793">
<ele>810.061</ele>
<time>2025-04-23T14:29:46Z</time>
<hdop>57.65</hdop>
</trkpt>
<trkpt lat="48.4155088" lon="14.3067535">
<ele>814.062</ele>
<time>2025-04-23T14:30:16Z</time>
<hdop>47.96</hdop>
</trkpt>
<trkpt lat="48.4150885" lon="14.3076883">
<ele>836.063</ele>
<time>2025-04-23T14:30:46Z</time>
<hdop>44.9</hdop>
</trkpt>
<trkpt lat="48.414692" lon="14.3088361">
<ele>825.063</ele>
<time>2025-04-23T14:31:16Z</time>
<hdop>37.76</hdop>
</trkpt>
<trkpt lat="48.4139685" lon="14.3097638">
<ele>817.064</ele>
<time>2025-04-23T14:31:46Z</time>
<hdop>47.96</hdop>
</trkpt>
<trkpt lat="48.4125979" lon="14.3111254">
<ele>847.066</ele>
<time>2025-04-23T14:32:16Z</time>
<hdop>46.43</hdop>
</trkpt>
<trkpt lat="48.411941" lon="14.3129777">
<ele>823.067</ele>
<time>2025-04-23T14:32:46Z</time>
<hdop>58.67</hdop>
</trkpt>
<trkpt lat="48.4111098" lon="14.3141312">
<ele>811.068</ele>
<time>2025-04-23T14:33:16Z</time>
<hdop>65.31</hdop>
</trkpt>
<trkpt lat="48.4103829" lon="14.3160091">
<ele>811.07</ele>
<time>2025-04-23T14:33:46Z</time>
<hdop>33.16</hdop>
</trkpt>
<trkpt lat="48.4099445" lon="14.3179972">
<ele>824.071</ele>
<time>2025-04-23T14:34:16Z</time>
<hdop>76.02</hdop>
</trkpt>
<trkpt lat="48.409294" lon="14.3185471">
<ele>840.072</ele>
<time>2025-04-23T14:34:46Z</time>
<hdop>95.92</hdop>
</trkpt>
<trkpt lat="48.4086518" lon="14.3193481">
<ele>812.073</ele>
<time>2025-04-23T14:35:16Z</time>
<hdop>30.1</hdop>
</trkpt>
<trkpt lat="48.4086889" lon="14.3197313">
<ele>816.073</ele>
<time>2025-04-23T14:35:46Z</time>
<hdop>18.88</hdop>
</trkpt>
<trkpt lat="48.4087951" lon="14.3200047">
<ele>802.073</ele>
<time>2025-04-23T14:41:16Z</time>
<hdop>106.12</hdop>
</trkpt>
<trkpt lat="48.4087448" lon="14.3198726">
<ele>839.073</ele>
<time>2025-04-23T14:44:13Z</time>
<hdop>48.47</hdop>
</trkpt>
<trkpt lat="48.4087582" lon="14.3199077">
<ele>835.073</ele>
<time>2025-04-23T14:50:13Z</time>
<hdop>71.43</hdop>
</trkpt>
<trkpt lat="48.4087553" lon="14.3199825">
<ele>804.073</ele>
<time>2025-04-23T14:51:13Z</time>
<hdop>78.57</hdop>
</trkpt>
<trkpt lat="48.4088502" lon="14.3200201">
<ele>792.073</ele>
<time>2025-04-23T14:54:13Z</time>
<hdop>91.84</hdop>
</trkpt>
<trkpt lat="48.4088394" lon="14.3201246">
<ele>799.073</ele>
<time>2025-04-23T14:54:43Z</time>
<hdop>87.76</hdop>
</trkpt>
<trkpt lat="48.408731" lon="14.3199589">
<ele>801.073</ele>
<time>2025-04-23T14:56:13Z</time>
<hdop>95.41</hdop>
</trkpt>
<trkpt lat="48.408731" lon="14.3199589">
<ele>794.073</ele>
<time>2025-04-23T14:56:43Z</time>
<hdop>75.0</hdop>
</trkpt>
<trkpt lat="48.408731" lon="14.3199589">
<ele>823.073</ele>
<time>2025-04-23T14:57:13Z</time>
<hdop>101.53</hdop>
</trkpt>
<trkpt lat="48.408731" lon="14.3199589">
<ele>810.073</ele>
<time>2025-04-23T14:57:43Z</time>
<hdop>32.65</hdop>
</trkpt>
<trkpt lat="48.4087701" lon="14.3199046">
<ele>789.073</ele>
<time>2025-04-23T15:07:13Z</time>
<hdop>79.59</hdop>
</trkpt>
<trkpt lat="48.408553" lon="14.3202651">
<ele>805.073</ele>
<time>2025-04-23T15:09:43Z</time>
<hdop>60.71</hdop>
</trkpt>
<trkpt lat="48.4084293" lon="14.3198922">
<ele>812.073</ele>
<time>2025-04-23T15:27:13Z</time>
<hdop>21.94</hdop>
</trkpt>
<trkpt lat="48.408036" lon="14.3194192">
<ele>793.073</ele>
<time>2025-04-23T15:30:13Z</time>
<hdop>44.39</hdop>
</trkpt>
<trkpt lat="48.4073097" lon="14.3186545">
<ele>795.073</ele>
<time>2025-04-23T15:30:43Z</time>
<hdop>42.35</hdop>
</trkpt>
<trkpt lat="48.4068664" lon="14.3180146">
<ele>812.072</ele>
<time>2025-04-23T15:31:13Z</time>
<hdop>50.51</hdop>
</trkpt>
<trkpt lat="48.4059418" lon="14.3151601">
<ele>811.071</ele>
<time>2025-04-23T15:31:43Z</time>
<hdop>70.92</hdop>
</trkpt>
<trkpt lat="48.4053568" lon="14.3115552">
<ele>787.068</ele>
<time>2025-04-23T15:32:13Z</time>
<hdop>34.69</hdop>
</trkpt>
<trkpt lat="48.4045536" lon="14.3112445">
<ele>780.068</ele>
<time>2025-04-23T15:32:45Z</time>
<hdop>119.39</hdop>
</trkpt>
<trkpt lat="48.4015439" lon="14.3137085">
<ele>786.071</ele>
<time>2025-04-23T15:33:13Z</time>
<hdop>32.14</hdop>
</trkpt>
<trkpt lat="48.3991501" lon="14.3151594">
<ele>746.073</ele>
<time>2025-04-23T15:33:43Z</time>
<hdop>39.29</hdop>
</trkpt>
<trkpt lat="48.3971063" lon="14.3162894">
<ele>737.074</ele>
<time>2025-04-23T15:34:13Z</time>
<hdop>60.71</hdop>
</trkpt>
<trkpt lat="48.3949295" lon="14.3175248">
<ele>715.076</ele>
<time>2025-04-23T15:34:43Z</time>
<hdop>55.61</hdop>
</trkpt>
<trkpt lat="48.3920858" lon="14.3187884">
<ele>726.077</ele>
<time>2025-04-23T15:35:13Z</time>
<hdop>53.06</hdop>
</trkpt>
<trkpt lat="48.3890409" lon="14.320648">
<ele>727.08</ele>
<time>2025-04-23T15:35:43Z</time>
<hdop>66.33</hdop>
</trkpt>
<trkpt lat="48.3878964" lon="14.3198245">
<ele>759.079</ele>
<time>2025-04-23T15:36:13Z</time>
<hdop>90.82</hdop>
</trkpt>
<trkpt lat="48.3863052" lon="14.3184542">
<ele>711.079</ele>
<time>2025-04-23T15:36:43Z</time>
<hdop>63.27</hdop>
</trkpt>
<trkpt lat="48.3854558" lon="14.3178833">
<ele>705.079</ele>
<time>2025-04-23T15:37:13Z</time>
<hdop>55.1</hdop>
</trkpt>
<trkpt lat="48.3833627" lon="14.3190805">
<ele>686.08</ele>
<time>2025-04-23T15:37:43Z</time>
<hdop>28.57</hdop>
</trkpt>
<trkpt lat="48.3804608" lon="14.3173426">
<ele>679.08</ele>
<time>2025-04-23T15:38:13Z</time>
<hdop>54.59</hdop>
</trkpt>
<trkpt lat="48.3781641" lon="14.317251">
<ele>680.08</ele>
<time>2025-04-23T15:38:43Z</time>
<hdop>30.1</hdop>
</trkpt>
<trkpt lat="48.3768908" lon="14.3156393">
<ele>684.08</ele>
<time>2025-04-23T15:39:13Z</time>
<hdop>36.22</hdop>
</trkpt>
<trkpt lat="48.3752608" lon="14.3152685">
<ele>686.08</ele>
<time>2025-04-23T15:39:43Z</time>
<hdop>49.49</hdop>
</trkpt>
<trkpt lat="48.3731867" lon="14.3158103">
<ele>662.081</ele>
<time>2025-04-23T15:40:13Z</time>
<hdop>55.1</hdop>
</trkpt>
<trkpt lat="48.3716818" lon="14.3157362">
<ele>639.081</ele>
<time>2025-04-23T15:40:43Z</time>
<hdop>31.63</hdop>
</trkpt>
<trkpt lat="48.3689059" lon="14.3130752">
<ele>643.08</ele>
<time>2025-04-23T15:41:13Z</time>
<hdop>29.08</hdop>
</trkpt>
<trkpt lat="48.3665986" lon="14.3120314">
<ele>625.08</ele>
<time>2025-04-23T15:41:43Z</time>
<hdop>43.37</hdop>
</trkpt>
<trkpt lat="48.3656884" lon="14.3105285">
<ele>644.079</ele>
<time>2025-04-23T15:42:13Z</time>
<hdop>50.51</hdop>
</trkpt>
<trkpt lat="48.3657217" lon="14.3093408">
<ele>637.079</ele>
<time>2025-04-23T15:42:43Z</time>
<hdop>46.94</hdop>
</trkpt>
<trkpt lat="48.3650734" lon="14.3080104">
<ele>632.078</ele>
<time>2025-04-23T15:43:13Z</time>
<hdop>58.67</hdop>
</trkpt>
<trkpt lat="48.3637952" lon="14.3067873">
<ele>643.077</ele>
<time>2025-04-23T15:43:43Z</time>
<hdop>31.63</hdop>
</trkpt>
<trkpt lat="48.3622535" lon="14.3047634">
<ele>646.076</ele>
<time>2025-04-23T15:44:13Z</time>
<hdop>94.9</hdop>
</trkpt>
<trkpt lat="48.3607792" lon="14.3046238">
<ele>628.077</ele>
<time>2025-04-23T15:44:43Z</time>
<hdop>38.78</hdop>
</trkpt>
<trkpt lat="48.3592322" lon="14.3059525">
<ele>620.078</ele>
<time>2025-04-23T15:45:13Z</time>
<hdop>120.92</hdop>
</trkpt>
<trkpt lat="48.3582439" lon="14.3077121">
<ele>619.08</ele>
<time>2025-04-23T15:45:43Z</time>
<hdop>53.06</hdop>
</trkpt>
<trkpt lat="48.357348" lon="14.3091588">
<ele>597.081</ele>
<time>2025-04-23T15:46:13Z</time>
<hdop>56.63</hdop>
</trkpt>
<trkpt lat="48.3551293" lon="14.3100557">
<ele>595.082</ele>
<time>2025-04-23T15:46:43Z</time>
<hdop>21.43</hdop>
</trkpt>
<trkpt lat="48.3533675" lon="14.3102406">
<ele>581.083</ele>
<time>2025-04-23T15:47:13Z</time>
<hdop>27.55</hdop>
</trkpt>
<trkpt lat="48.3518461" lon="14.309692">
<ele>562.083</ele>
<time>2025-04-23T15:47:43Z</time>
<hdop>23.47</hdop>
</trkpt>
<trkpt lat="48.3501455" lon="14.3103278">
<ele>574.084</ele>
<time>2025-04-23T15:48:13Z</time>
<hdop>81.12</hdop>
</trkpt>
<trkpt lat="48.3481995" lon="14.3107899">
<ele>541.085</ele>
<time>2025-04-23T15:48:43Z</time>
<hdop>38.78</hdop>
</trkpt>
<trkpt lat="48.3471708" lon="14.3103174">
<ele>528.085</ele>
<time>2025-04-23T15:49:13Z</time>
<hdop>73.47</hdop>
</trkpt>
<trkpt lat="48.3468473" lon="14.3094405">
<ele>525.084</ele>
<time>2025-04-23T15:49:43Z</time>
<hdop>103.06</hdop>
</trkpt>
<trkpt lat="48.3469563" lon="14.3087475">
<ele>518.084</ele>
<time>2025-04-23T15:50:13Z</time>
<hdop>57.65</hdop>
</trkpt>
<trkpt lat="48.3464447" lon="14.307175">
<ele>534.083</ele>
<time>2025-04-23T15:50:43Z</time>
<hdop>58.16</hdop>
</trkpt>
<trkpt lat="48.3459033" lon="14.3064706">
<ele>499.083</ele>
<time>2025-04-23T15:51:13Z</time>
<hdop>62.76</hdop>
</trkpt>
<trkpt lat="48.3452087" lon="14.3057386">
<ele>496.082</ele>
<time>2025-04-23T15:51:43Z</time>
<hdop>47.96</hdop>
</trkpt>
<trkpt lat="48.3451467" lon="14.3046842">
<ele>491.081</ele>
<time>2025-04-23T15:52:13Z</time>
<hdop>42.86</hdop>
</trkpt>
<trkpt lat="48.345106" lon="14.3042255">
<ele>508.081</ele>
<time>2025-04-23T15:52:43Z</time>
<hdop>56.12</hdop>
</trkpt>
<trkpt lat="48.3450702" lon="14.3041235">
<ele>491.081</ele>
<time>2025-04-23T15:53:13Z</time>
<hdop>47.45</hdop>
</trkpt>
<trkpt lat="48.3446156" lon="14.3041135">
<ele>467.081</ele>
<time>2025-04-23T15:53:43Z</time>
<hdop>61.73</hdop>
</trkpt>
<trkpt lat="48.3437525" lon="14.3048736">
<ele>490.082</ele>
<time>2025-04-23T15:54:14Z</time>
<hdop>95.92</hdop>
</trkpt>
<trkpt lat="48.3421726" lon="14.3051358">
<ele>434.083</ele>
<time>2025-04-23T15:54:43Z</time>
<hdop>56.12</hdop>
</trkpt>
<trkpt lat="48.3419677" lon="14.304518">
<ele>426.082</ele>
<time>2025-04-23T15:55:13Z</time>
<hdop>45.92</hdop>
</trkpt>
<trkpt lat="48.3404839" lon="14.3054402">
<ele>403.083</ele>
<time>2025-04-23T15:55:43Z</time>
<hdop>68.37</hdop>
</trkpt>
<trkpt lat="48.3400001" lon="14.3035893">
<ele>369.082</ele>
<time>2025-04-23T15:56:13Z</time>
<hdop>141.33</hdop>
</trkpt>
<trkpt lat="48.3397169" lon="14.3031264">
<ele>353.082</ele>
<time>2025-04-23T15:56:43Z</time>
<hdop>51.02</hdop>
</trkpt>
<trkpt lat="48.338801" lon="14.3025347">
<ele>362.082</ele>
<time>2025-04-23T15:57:13Z</time>
<hdop>75.0</hdop>
</trkpt>
<trkpt lat="48.3366086" lon="14.3045254">
<ele>331.084</ele>
<time>2025-04-23T15:57:43Z</time>
<hdop>27.55</hdop>
</trkpt>
<trkpt lat="48.3374894" lon="14.3012012">
<ele>321.081</ele>
<time>2025-04-23T15:58:13Z</time>
<hdop>35.71</hdop>
</trkpt>
<trkpt lat="48.338123" lon="14.3003188">
<ele>298.08</ele>
<time>2025-04-23T15:58:43Z</time>
<hdop>58.67</hdop>
</trkpt>
<trkpt lat="48.3361324" lon="14.3009297">
<ele>274.081</ele>
<time>2025-04-23T15:59:10Z</time>
<hdop>7.14</hdop>
</trkpt>
<trkpt lat="48.3344559" lon="14.3005056">
<ele>270.082</ele>
<time>2025-04-23T15:59:37Z</time>
<hdop>8.16</hdop>
</trkpt>
<trkpt lat="48.3344053" lon="14.3005233">
<ele>269.082</ele>
<time>2025-04-23T16:00:05Z</time>
<hdop>8.16</hdop>
</trkpt>
<trkpt lat="48.3342955" lon="14.3005141">
<ele>268.082</ele>
<time>2025-04-23T16:00:33Z</time>
<hdop>7.65</hdop>
</trkpt>
<trkpt lat="48.3337631" lon="14.3007432">
<ele>292.082</ele>
<time>2025-04-23T16:01:28Z</time>
<hdop>57.14</hdop>
</trkpt>
<trkpt lat="48.3334838" lon="14.2996534">
<ele>273.081</ele>
<time>2025-04-23T16:01:58Z</time>
<hdop>47.96</hdop>
</trkpt>
<trkpt lat="48.3308951" lon="14.2992087">
<ele>276.082</ele>
<time>2025-04-23T16:02:29Z</time>
<hdop>95.92</hdop>
</trkpt>
<trkpt lat="48.3292676" lon="14.2995113">
<ele>262.083</ele>
<time>2025-04-23T16:02:58Z</time>
<hdop>34.18</hdop>
</trkpt>
<trkpt lat="48.3277587" lon="14.2992215">
<ele>247.083</ele>
<time>2025-04-23T16:03:28Z</time>
<hdop>37.76</hdop>
</trkpt>
<trkpt lat="48.3264445" lon="14.2982829">
<ele>266.083</ele>
<time>2025-04-23T16:03:58Z</time>
<hdop>54.59</hdop>
</trkpt>
<trkpt lat="48.3251796" lon="14.2972679">
<ele>244.082</ele>
<time>2025-04-23T16:04:28Z</time>
<hdop>75.51</hdop>
</trkpt>
<trkpt lat="48.323944" lon="14.2984313">
<ele>254.083</ele>
<time>2025-04-23T16:05:01Z</time>
<hdop>47.96</hdop>
</trkpt>
<trkpt lat="48.3236003" lon="14.3001005">
<ele>239.085</ele>
<time>2025-04-23T16:05:36Z</time>
<hdop>37.76</hdop>
</trkpt>
<trkpt lat="48.322237" lon="14.2982104">
<ele>265.084</ele>
<time>2025-04-23T16:06:28Z</time>
<hdop>38.27</hdop>
</trkpt>
<trkpt lat="48.3211287" lon="14.2965781">
<ele>279.083</ele>
<time>2025-04-23T16:07:00Z</time>
<hdop>57.65</hdop>
</trkpt>
<trkpt lat="48.3204023" lon="14.2960454">
<ele>266.083</ele>
<time>2025-04-23T16:07:28Z</time>
<hdop>17.35</hdop>
</trkpt>
<trkpt lat="48.3199392" lon="14.2971309">
<ele>273.084</ele>
<time>2025-04-23T16:07:58Z</time>
<hdop>20.92</hdop>
</trkpt>
<trkpt lat="48.3193375" lon="14.2985173">
<ele>264.085</ele>
<time>2025-04-23T16:08:28Z</time>
<hdop>41.84</hdop>
</trkpt>
<trkpt lat="48.3184092" lon="14.3001866">
<ele>259.086</ele>
<time>2025-04-23T16:08:58Z</time>
<hdop>30.1</hdop>
</trkpt>
<trkpt lat="48.3170092" lon="14.3009569">
<ele>271.087</ele>
<time>2025-04-23T16:09:28Z</time>
<hdop>53.06</hdop>
</trkpt>
<trkpt lat="48.3162183" lon="14.3016471">
<ele>248.088</ele>
<time>2025-04-23T16:09:58Z</time>
<hdop>45.41</hdop>
</trkpt>
<trkpt lat="48.3153242" lon="14.3009167">
<ele>249.088</ele>
<time>2025-04-23T16:10:29Z</time>
<hdop>51.53</hdop>
</trkpt>
<trkpt lat="48.3149943" lon="14.3006238">
<ele>255.088</ele>
<time>2025-04-23T16:10:58Z</time>
<hdop>42.86</hdop>
</trkpt>
<trkpt lat="48.3149464" lon="14.3011078">
<ele>265.088</ele>
<time>2025-04-23T16:11:28Z</time>
<hdop>94.39</hdop>
</trkpt>
<trkpt lat="48.3148755" lon="14.3010852">
<ele>263.088</ele>
<time>2025-04-23T16:11:58Z</time>
<hdop>99.49</hdop>
</trkpt>
<trkpt lat="48.3145943" lon="14.3020303">
<ele>260.089</ele>
<time>2025-04-23T16:22:29Z</time>
<hdop>48.47</hdop>
</trkpt>
<trkpt lat="48.3147139" lon="14.3010444">
<ele>255.088</ele>
<time>2025-04-23T16:25:28Z</time>
<hdop>32.14</hdop>
</trkpt>
<trkpt lat="48.3143754" lon="14.3015535">
<ele>274.088</ele>
<time>2025-04-23T16:25:58Z</time>
<hdop>61.73</hdop>
</trkpt>
<trkpt lat="48.3133765" lon="14.3008419">
<ele>265.088</ele>
<time>2025-04-23T16:26:28Z</time>
<hdop>44.9</hdop>
</trkpt>
<trkpt lat="48.3129947" lon="14.3011359">
<ele>261.089</ele>
<time>2025-04-23T16:26:59Z</time>
<hdop>109.18</hdop>
</trkpt>
<trkpt lat="48.3116101" lon="14.2993341">
<ele>262.088</ele>
<time>2025-04-23T16:27:28Z</time>
<hdop>34.18</hdop>
</trkpt>
<trkpt lat="48.3106188" lon="14.2978759">
<ele>270.087</ele>
<time>2025-04-23T16:27:58Z</time>
<hdop>21.43</hdop>
</trkpt>
<trkpt lat="48.3097451" lon="14.2990085">
<ele>300.088</ele>
<time>2025-04-23T16:28:28Z</time>
<hdop>46.43</hdop>
</trkpt>
<trkpt lat="48.3091748" lon="14.2984033">
<ele>299.088</ele>
<time>2025-04-23T16:28:58Z</time>
<hdop>49.49</hdop>
</trkpt>
<trkpt lat="48.3079988" lon="14.296835">
<ele>278.087</ele>
<time>2025-04-23T16:29:28Z</time>
<hdop>45.92</hdop>
</trkpt>
<trkpt lat="48.307047" lon="14.2949649">
<ele>243.086</ele>
<time>2025-04-23T16:29:58Z</time>
<hdop>110.71</hdop>
</trkpt>
<trkpt lat="48.3066264" lon="14.2938535">
<ele>264.085</ele>
<time>2025-04-23T16:30:58Z</time>
<hdop>66.33</hdop>
</trkpt>
<trkpt lat="48.3066109" lon="14.2895245">
<ele>229.082</ele>
<time>2025-04-23T16:31:37Z</time>
<hdop>88.27</hdop>
</trkpt>
<trkpt lat="48.3050113" lon="14.2897987">
<ele>304.083</ele>
<time>2025-04-23T16:32:33Z</time>
<hdop>90.82</hdop>
</trkpt>
<trkpt lat="48.3045604" lon="14.2885779">
<ele>265.082</ele>
<time>2025-04-23T16:33:28Z</time>
<hdop>92.86</hdop>
</trkpt>
<trkpt lat="48.3041863" lon="14.2873123">
<ele>262.081</ele>
<time>2025-04-23T16:33:58Z</time>
<hdop>51.02</hdop>
</trkpt>
<trkpt lat="48.3036531" lon="14.2859314">
<ele>289.08</ele>
<time>2025-04-23T16:34:28Z</time>
<hdop>38.78</hdop>
</trkpt>
<trkpt lat="48.302705" lon="14.2862122">
<ele>283.081</ele>
<time>2025-04-23T16:35:01Z</time>
<hdop>179.08</hdop>
</trkpt>
<trkpt lat="48.3020373" lon="14.2866993">
<ele>277.082</ele>
<time>2025-04-23T16:35:29Z</time>
<hdop>69.9</hdop>
</trkpt>
<trkpt lat="48.3007565" lon="14.2871332">
<ele>275.082</ele>
<time>2025-04-23T16:35:58Z</time>
<hdop>52.55</hdop>
</trkpt>
<trkpt lat="48.2991887" lon="14.2877116">
<ele>282.083</ele>
<time>2025-04-23T16:36:28Z</time>
<hdop>110.71</hdop>
</trkpt>
<trkpt lat="48.2976029" lon="14.2875492">
<ele>254.083</ele>
<time>2025-04-23T16:36:58Z</time>
<hdop>60.2</hdop>
</trkpt>
<trkpt lat="48.2954698" lon="14.2868577">
<ele>377.084</ele>
<time>2025-04-23T16:37:28Z</time>
<hdop>45.92</hdop>
</trkpt>
<trkpt lat="48.2947411" lon="14.2861767">
<ele>310.083</ele>
<time>2025-04-23T16:37:58Z</time>
<hdop>31.12</hdop>
</trkpt>
<trkpt lat="48.2934956" lon="14.2852909">
<ele>272.083</ele>
<time>2025-04-23T16:38:30Z</time>
<hdop>75.51</hdop>
</trkpt>
<trkpt lat="48.2933111" lon="14.2846348">
<ele>279.083</ele>
<time>2025-04-23T16:38:58Z</time>
<hdop>61.73</hdop>
</trkpt>
<trkpt lat="48.2927537" lon="14.2851486">
<ele>277.083</ele>
<time>2025-04-23T16:39:28Z</time>
<hdop>58.16</hdop>
</trkpt>
<trkpt lat="48.2918477" lon="14.285198">
<ele>267.084</ele>
<time>2025-04-23T16:39:58Z</time>
<hdop>102.04</hdop>
</trkpt>
<trkpt lat="48.2914392" lon="14.2852715">
<ele>287.084</ele>
<time>2025-04-23T16:40:28Z</time>
<hdop>38.27</hdop>
</trkpt>
<trkpt lat="48.2906841" lon="14.2855609">
<ele>311.084</ele>
<time>2025-04-23T16:40:58Z</time>
<hdop>36.73</hdop>
</trkpt>
<trkpt lat="48.2904034" lon="14.2851696">
<ele>309.084</ele>
<time>2025-04-23T16:41:28Z</time>
<hdop>39.8</hdop>
</trkpt>
<trkpt lat="48.2903345" lon="14.2838323">
<ele>299.083</ele>
<time>2025-04-23T16:41:58Z</time>
<hdop>37.24</hdop>
</trkpt>
<trkpt lat="48.2904856" lon="14.2824952">
<ele>292.082</ele>
<time>2025-04-23T16:42:28Z</time>
<hdop>27.55</hdop>
</trkpt>
<trkpt lat="48.2898629" lon="14.2821453">
<ele>282.082</ele>
<time>2025-04-23T16:42:58Z</time>
<hdop>37.76</hdop>
</trkpt>
<trkpt lat="48.2890536" lon="14.2817022">
<ele>323.082</ele>
<time>2025-04-23T16:43:28Z</time>
<hdop>40.82</hdop>
</trkpt>
<trkpt lat="48.2881311" lon="14.2814117">
<ele>298.082</ele>
<time>2025-04-23T16:43:58Z</time>
<hdop>63.78</hdop>
</trkpt>
<trkpt lat="48.2875035" lon="14.2814117">
<ele>308.082</ele>
<time>2025-04-23T16:44:28Z</time>
<hdop>46.94</hdop>
</trkpt>
<trkpt lat="48.2865328" lon="14.2795856">
<ele>282.081</ele>
<time>2025-04-23T16:45:05Z</time>
<hdop>80.1</hdop>
</trkpt>
<trkpt lat="48.2854414" lon="14.2776638">
<ele>306.08</ele>
<time>2025-04-23T16:45:58Z</time>
<hdop>68.37</hdop>
</trkpt>
<trkpt lat="48.2855362" lon="14.2767335">
<ele>315.079</ele>
<time>2025-04-23T16:46:28Z</time>
<hdop>59.18</hdop>
</trkpt>
<trkpt lat="48.2857946" lon="14.2754834">
<ele>323.078</ele>
<time>2025-04-23T16:46:58Z</time>
<hdop>29.59</hdop>
</trkpt>
</trkseg>
</trk>
</gpx>
