<?xml version="1.0" encoding="UTF-8"?>
<gpx xmlns="http://www.topografix.com/GPX/1/1" version="1.1" creator="AlpineQuest 2.4.0c" xmlns:xsi="http://www.w3.org/2001/XMLSchema-instance" xsi:schemaLocation="http://www.topografix.com/GPX/1/1 http://www.topografix.com/GPX/1/1/gpx.xsd">
<metadata>
<desc>AlpineQuest Track 09.05.25 14:50:07</desc>
<link href="https://www.alpinequest.net" />
<time>2026-01-02T08:45:43Z</time>
</metadata>
<trk>
<name>Mtb_Summerau-Linz(Wolfi)</name>
<type>bicycle</type>
<extensions>
	<line xmlns="http://www.topografix.com/GPX/gpx_style/0/2">
		<color>C7C707</color>
	</line>
</extensions>
<trkseg>
<trkpt lat="48.5571981" lon="14.4494158">
<ele>665.119</ele>
<time>2025-05-09T12:50:07Z</time>
<hdop>18.37</hdop>
</trkpt>
<trkpt lat="48.5570207" lon="14.4492995">
<ele>665.119</ele>
<time>2025-05-09T12:50:59Z</time>
<hdop>16.84</hdop>
</trkpt>
<trkpt lat="48.5570207" lon="14.4492995">
<ele>665.119</ele>
<time>2025-05-09T12:51:29Z</time>
<hdop>12.24</hdop>
</trkpt>
<trkpt lat="48.5570207" lon="14.4492995">
<ele>661.119</ele>
<time>2025-05-09T12:51:59Z</time>
<hdop>12.76</hdop>
</trkpt>
<trkpt lat="48.5570387" lon="14.4492548">
<ele>673.119</ele>
<time>2025-05-09T12:52:29Z</time>
<hdop>28.06</hdop>
</trkpt>
<trkpt lat="48.5570386" lon="14.4492513">
<ele>660.119</ele>
<time>2025-05-09T12:52:59Z</time>
<hdop>21.94</hdop>
</trkpt>
<trkpt lat="48.5570207" lon="14.4489464">
<ele>651.119</ele>
<time>2025-05-09T12:53:29Z</time>
<hdop>19.39</hdop>
</trkpt>
<trkpt lat="48.5562242" lon="14.4467744">
<ele>669.117</ele>
<time>2025-05-09T12:53:59Z</time>
<hdop>12.76</hdop>
</trkpt>
<trkpt lat="48.5573411" lon="14.4453925">
<ele>658.116</ele>
<time>2025-05-09T12:54:29Z</time>
<hdop>13.78</hdop>
</trkpt>
<trkpt lat="48.5568958" lon="14.4435557">
<ele>660.115</ele>
<time>2025-05-09T12:54:59Z</time>
<hdop>9.18</hdop>
</trkpt>
<trkpt lat="48.5560709" lon="14.4411489">
<ele>658.114</ele>
<time>2025-05-09T12:55:29Z</time>
<hdop>9.69</hdop>
</trkpt>
<trkpt lat="48.5551101" lon="14.4389468">
<ele>658.112</ele>
<time>2025-05-09T12:55:59Z</time>
<hdop>10.2</hdop>
</trkpt>
<trkpt lat="48.5531647" lon="14.4364822">
<ele>654.111</ele>
<time>2025-05-09T12:56:29Z</time>
<hdop>11.22</hdop>
</trkpt>
<trkpt lat="48.5517827" lon="14.4363428">
<ele>654.112</ele>
<time>2025-05-09T12:57:23Z</time>
<hdop>1.53</hdop>
</trkpt>
<trkpt lat="48.5507041" lon="14.4373258">
<ele>655.113</ele>
<time>2025-05-09T12:57:51Z</time>
<hdop>1.53</hdop>
</trkpt>
<trkpt lat="48.5496803" lon="14.4371533">
<ele>657.113</ele>
<time>2025-05-09T12:58:19Z</time>
<hdop>1.53</hdop>
</trkpt>
<trkpt lat="48.548435" lon="14.4370486">
<ele>659.113</ele>
<time>2025-05-09T12:58:47Z</time>
<hdop>1.53</hdop>
</trkpt>
<trkpt lat="48.5466336" lon="14.437039">
<ele>654.114</ele>
<time>2025-05-09T12:59:15Z</time>
<hdop>2.55</hdop>
</trkpt>
<trkpt lat="48.5458908" lon="14.4376022">
<ele>676.114</ele>
<time>2025-05-09T12:59:50Z</time>
<hdop>16.84</hdop>
</trkpt>
<trkpt lat="48.5455591" lon="14.4380355">
<ele>663.115</ele>
<time>2025-05-09T13:00:20Z</time>
<hdop>40.82</hdop>
</trkpt>
<trkpt lat="48.5452774" lon="14.4384106">
<ele>681.115</ele>
<time>2025-05-09T13:00:48Z</time>
<hdop>6.12</hdop>
</trkpt>
<trkpt lat="48.5446514" lon="14.4382377">
<ele>697.115</ele>
<time>2025-05-09T13:01:31Z</time>
<hdop>11.73</hdop>
</trkpt>
<trkpt lat="48.5443074" lon="14.4379555">
<ele>691.115</ele>
<time>2025-05-09T13:02:01Z</time>
<hdop>15.82</hdop>
</trkpt>
<trkpt lat="48.5438775" lon="14.4378096">
<ele>707.115</ele>
<time>2025-05-09T13:02:31Z</time>
<hdop>13.78</hdop>
</trkpt>
<trkpt lat="48.5434837" lon="14.4377694">
<ele>710.115</ele>
<time>2025-05-09T13:03:01Z</time>
<hdop>19.39</hdop>
</trkpt>
<trkpt lat="48.543403" lon="14.4378253">
<ele>727.115</ele>
<time>2025-05-09T13:03:31Z</time>
<hdop>18.37</hdop>
</trkpt>
<trkpt lat="48.5434996" lon="14.4378269">
<ele>709.115</ele>
<time>2025-05-09T13:04:01Z</time>
<hdop>19.9</hdop>
</trkpt>
<trkpt lat="48.5434243" lon="14.4381126">
<ele>697.115</ele>
<time>2025-05-09T13:04:31Z</time>
<hdop>14.8</hdop>
</trkpt>
<trkpt lat="48.5424197" lon="14.4382145">
<ele>720.116</ele>
<time>2025-05-09T13:05:01Z</time>
<hdop>24.49</hdop>
</trkpt>
<trkpt lat="48.541771" lon="14.4383166">
<ele>717.116</ele>
<time>2025-05-09T13:05:31Z</time>
<hdop>15.31</hdop>
</trkpt>
<trkpt lat="48.5414711" lon="14.4381992">
<ele>719.116</ele>
<time>2025-05-09T13:06:01Z</time>
<hdop>15.82</hdop>
</trkpt>
<trkpt lat="48.5414503" lon="14.4383445">
<ele>756.116</ele>
<time>2025-05-09T13:06:31Z</time>
<hdop>17.86</hdop>
</trkpt>
<trkpt lat="48.5407603" lon="14.4383572">
<ele>701.116</ele>
<time>2025-05-09T13:06:59Z</time>
<hdop>18.37</hdop>
</trkpt>
<trkpt lat="48.5392425" lon="14.4375894">
<ele>698.116</ele>
<time>2025-05-09T13:07:27Z</time>
<hdop>1.53</hdop>
</trkpt>
<trkpt lat="48.5368813" lon="14.4372365">
<ele>706.117</ele>
<time>2025-05-09T13:08:21Z</time>
<hdop>1.53</hdop>
</trkpt>
<trkpt lat="48.5338567" lon="14.437163">
<ele>688.118</ele>
<time>2025-05-09T13:09:16Z</time>
<hdop>2.55</hdop>
</trkpt>
<trkpt lat="48.5331323" lon="14.4365568">
<ele>697.117</ele>
<time>2025-05-09T13:10:11Z</time>
<hdop>2.55</hdop>
</trkpt>
<trkpt lat="48.5324011" lon="14.43721">
<ele>696.118</ele>
<time>2025-05-09T13:10:38Z</time>
<hdop>1.53</hdop>
</trkpt>
<trkpt lat="48.5307271" lon="14.4392432">
<ele>688.12</ele>
<time>2025-05-09T13:11:06Z</time>
<hdop>2.55</hdop>
</trkpt>
<trkpt lat="48.5288709" lon="14.44067">
<ele>682.122</ele>
<time>2025-05-09T13:11:33Z</time>
<hdop>4.08</hdop>
</trkpt>
<trkpt lat="48.5270532" lon="14.4396488">
<ele>668.122</ele>
<time>2025-05-09T13:12:01Z</time>
<hdop>1.53</hdop>
</trkpt>
<trkpt lat="48.5255571" lon="14.4379107">
<ele>659.121</ele>
<time>2025-05-09T13:12:29Z</time>
<hdop>1.53</hdop>
</trkpt>
<trkpt lat="48.5235099" lon="14.4341668">
<ele>643.119</ele>
<time>2025-05-09T13:13:24Z</time>
<hdop>3.06</hdop>
</trkpt>
<trkpt lat="48.5217674" lon="14.4335886">
<ele>632.119</ele>
<time>2025-05-09T13:13:51Z</time>
<hdop>1.53</hdop>
</trkpt>
<trkpt lat="48.5195534" lon="14.432192">
<ele>628.119</ele>
<time>2025-05-09T13:14:45Z</time>
<hdop>2.04</hdop>
</trkpt>
<trkpt lat="48.5192618" lon="14.4321066">
<ele>635.119</ele>
<time>2025-05-09T13:15:13Z</time>
<hdop>2.55</hdop>
</trkpt>
<trkpt lat="48.5188657" lon="14.4336347">
<ele>631.12</ele>
<time>2025-05-09T13:15:41Z</time>
<hdop>1.53</hdop>
</trkpt>
<trkpt lat="48.5163672" lon="14.437595">
<ele>615.123</ele>
<time>2025-05-09T13:16:36Z</time>
<hdop>3.57</hdop>
</trkpt>
<trkpt lat="48.515279" lon="14.4400848">
<ele>614.126</ele>
<time>2025-05-09T13:17:04Z</time>
<hdop>6.12</hdop>
</trkpt>
<trkpt lat="48.5149217" lon="14.4424855">
<ele>606.127</ele>
<time>2025-05-09T13:17:32Z</time>
<hdop>3.57</hdop>
</trkpt>
<trkpt lat="48.5141386" lon="14.4421294">
<ele>608.127</ele>
<time>2025-05-09T13:18:00Z</time>
<hdop>5.1</hdop>
</trkpt>
<trkpt lat="48.514129" lon="14.4411863">
<ele>617.127</ele>
<time>2025-05-09T13:18:55Z</time>
<hdop>3.57</hdop>
</trkpt>
<trkpt lat="48.514129" lon="14.4411863">
<ele>599.127</ele>
<time>2025-05-09T13:19:30Z</time>
<hdop>33.67</hdop>
</trkpt>
<trkpt lat="48.514129" lon="14.4411863">
<ele>638.127</ele>
<time>2025-05-09T13:20:00Z</time>
<hdop>13.27</hdop>
</trkpt>
<trkpt lat="48.514129" lon="14.4411863">
<ele>619.127</ele>
<time>2025-05-09T13:20:30Z</time>
<hdop>15.31</hdop>
</trkpt>
<trkpt lat="48.5140505" lon="14.4410921">
<ele>630.127</ele>
<time>2025-05-09T13:21:00Z</time>
<hdop>19.39</hdop>
</trkpt>
<trkpt lat="48.5137912" lon="14.4407119">
<ele>622.126</ele>
<time>2025-05-09T13:21:30Z</time>
<hdop>12.24</hdop>
</trkpt>
<trkpt lat="48.5134931" lon="14.4403723">
<ele>627.126</ele>
<time>2025-05-09T13:22:00Z</time>
<hdop>10.71</hdop>
</trkpt>
<trkpt lat="48.5132509" lon="14.4400126">
<ele>640.126</ele>
<time>2025-05-09T13:22:30Z</time>
<hdop>12.24</hdop>
</trkpt>
<trkpt lat="48.513027" lon="14.4396541">
<ele>643.126</ele>
<time>2025-05-09T13:23:00Z</time>
<hdop>9.69</hdop>
</trkpt>
<trkpt lat="48.512733" lon="14.4394473">
<ele>655.126</ele>
<time>2025-05-09T13:23:30Z</time>
<hdop>8.67</hdop>
</trkpt>
<trkpt lat="48.5124168" lon="14.4393489">
<ele>654.126</ele>
<time>2025-05-09T13:24:00Z</time>
<hdop>9.18</hdop>
</trkpt>
<trkpt lat="48.5118223" lon="14.4391295">
<ele>666.126</ele>
<time>2025-05-09T13:24:54Z</time>
<hdop>2.04</hdop>
</trkpt>
<trkpt lat="48.5115303" lon="14.4390356">
<ele>668.126</ele>
<time>2025-05-09T13:25:21Z</time>
<hdop>2.55</hdop>
</trkpt>
<trkpt lat="48.5103467" lon="14.4393768">
<ele>678.127</ele>
<time>2025-05-09T13:26:16Z</time>
<hdop>3.06</hdop>
</trkpt>
<trkpt lat="48.5089222" lon="14.4395941">
<ele>683.127</ele>
<time>2025-05-09T13:27:10Z</time>
<hdop>3.06</hdop>
</trkpt>
<trkpt lat="48.5086088" lon="14.4400634">
<ele>685.128</ele>
<time>2025-05-09T13:27:37Z</time>
<hdop>2.55</hdop>
</trkpt>
<trkpt lat="48.5056527" lon="14.4404483">
<ele>659.129</ele>
<time>2025-05-09T13:28:32Z</time>
<hdop>2.55</hdop>
</trkpt>
<trkpt lat="48.5043513" lon="14.4403274">
<ele>671.129</ele>
<time>2025-05-09T13:29:27Z</time>
<hdop>2.55</hdop>
</trkpt>
<trkpt lat="48.5039267" lon="14.4402829">
<ele>673.129</ele>
<time>2025-05-09T13:29:54Z</time>
<hdop>2.55</hdop>
</trkpt>
<trkpt lat="48.5031671" lon="14.4400335">
<ele>680.129</ele>
<time>2025-05-09T13:30:48Z</time>
<hdop>1.53</hdop>
</trkpt>
<trkpt lat="48.5025657" lon="14.4392483">
<ele>690.129</ele>
<time>2025-05-09T13:31:42Z</time>
<hdop>2.55</hdop>
</trkpt>
<trkpt lat="48.5022728" lon="14.4385631">
<ele>694.128</ele>
<time>2025-05-09T13:32:10Z</time>
<hdop>4.08</hdop>
</trkpt>
<trkpt lat="48.5016433" lon="14.437048">
<ele>704.128</ele>
<time>2025-05-09T13:33:05Z</time>
<hdop>2.55</hdop>
</trkpt>
<trkpt lat="48.5014101" lon="14.4359672">
<ele>707.127</ele>
<time>2025-05-09T13:33:33Z</time>
<hdop>2.55</hdop>
</trkpt>
<trkpt lat="48.501202" lon="14.4349546">
<ele>716.126</ele>
<time>2025-05-09T13:34:28Z</time>
<hdop>2.55</hdop>
</trkpt>
<trkpt lat="48.5008231" lon="14.4356227">
<ele>720.127</ele>
<time>2025-05-09T13:34:55Z</time>
<hdop>2.55</hdop>
</trkpt>
<trkpt lat="48.5001927" lon="14.4356648">
<ele>722.127</ele>
<time>2025-05-09T13:35:23Z</time>
<hdop>2.55</hdop>
</trkpt>
<trkpt lat="48.5003642" lon="14.4345989">
<ele>723.126</ele>
<time>2025-05-09T13:35:50Z</time>
<hdop>2.55</hdop>
</trkpt>
<trkpt lat="48.5005453" lon="14.432798">
<ele>728.125</ele>
<time>2025-05-09T13:36:44Z</time>
<hdop>2.04</hdop>
</trkpt>
<trkpt lat="48.500817" lon="14.4319501">
<ele>730.124</ele>
<time>2025-05-09T13:37:11Z</time>
<hdop>2.55</hdop>
</trkpt>
<trkpt lat="48.4997171" lon="14.4313342">
<ele>722.124</ele>
<time>2025-05-09T13:37:39Z</time>
<hdop>5.61</hdop>
</trkpt>
<trkpt lat="48.4988246" lon="14.4300354">
<ele>715.124</ele>
<time>2025-05-09T13:38:07Z</time>
<hdop>4.59</hdop>
</trkpt>
<trkpt lat="48.4984315" lon="14.428774">
<ele>717.123</ele>
<time>2025-05-09T13:38:35Z</time>
<hdop>2.55</hdop>
</trkpt>
<trkpt lat="48.4986606" lon="14.4272791">
<ele>720.122</ele>
<time>2025-05-09T13:39:30Z</time>
<hdop>2.04</hdop>
</trkpt>
<trkpt lat="48.498631" lon="14.4271144">
<ele>722.122</ele>
<time>2025-05-09T13:40:25Z</time>
<hdop>2.55</hdop>
</trkpt>
<trkpt lat="48.4979989" lon="14.4255248">
<ele>725.121</ele>
<time>2025-05-09T13:41:08Z</time>
<hdop>11.22</hdop>
</trkpt>
<trkpt lat="48.4976167" lon="14.4251211">
<ele>726.12</ele>
<time>2025-05-09T13:41:38Z</time>
<hdop>10.71</hdop>
</trkpt>
<trkpt lat="48.4975985" lon="14.4251067">
<ele>732.12</ele>
<time>2025-05-09T13:42:08Z</time>
<hdop>11.73</hdop>
</trkpt>
<trkpt lat="48.4976309" lon="14.4251705">
<ele>734.12</ele>
<time>2025-05-09T13:42:38Z</time>
<hdop>11.22</hdop>
</trkpt>
<trkpt lat="48.4972144" lon="14.4251363">
<ele>741.121</ele>
<time>2025-05-09T13:43:08Z</time>
<hdop>11.22</hdop>
</trkpt>
<trkpt lat="48.4965889" lon="14.4251756">
<ele>738.121</ele>
<time>2025-05-09T13:43:38Z</time>
<hdop>18.37</hdop>
</trkpt>
<trkpt lat="48.497325" lon="14.4252239">
<ele>745.121</ele>
<time>2025-05-09T13:44:08Z</time>
<hdop>23.98</hdop>
</trkpt>
<trkpt lat="48.4957333" lon="14.4252658">
<ele>733.121</ele>
<time>2025-05-09T13:44:35Z</time>
<hdop>2.04</hdop>
</trkpt>
<trkpt lat="48.4947697" lon="14.4237404">
<ele>730.12</ele>
<time>2025-05-09T13:45:02Z</time>
<hdop>2.04</hdop>
</trkpt>
<trkpt lat="48.4943521" lon="14.4235979">
<ele>728.12</ele>
<time>2025-05-09T13:45:30Z</time>
<hdop>3.06</hdop>
</trkpt>
<trkpt lat="48.4936364" lon="14.4297104">
<ele>695.125</ele>
<time>2025-05-09T13:46:25Z</time>
<hdop>1.53</hdop>
</trkpt>
<trkpt lat="48.4925392" lon="14.4355202">
<ele>661.129</ele>
<time>2025-05-09T13:47:20Z</time>
<hdop>3.06</hdop>
</trkpt>
<trkpt lat="48.4930145" lon="14.4376302">
<ele>647.131</ele>
<time>2025-05-09T13:47:47Z</time>
<hdop>4.59</hdop>
</trkpt>
<trkpt lat="48.4919403" lon="14.4396978">
<ele>642.132</ele>
<time>2025-05-09T13:48:15Z</time>
<hdop>4.08</hdop>
</trkpt>
<trkpt lat="48.4916576" lon="14.4403973">
<ele>641.133</ele>
<time>2025-05-09T13:48:43Z</time>
<hdop>7.14</hdop>
</trkpt>
<trkpt lat="48.4914333" lon="14.4411309">
<ele>645.134</ele>
<time>2025-05-09T13:49:11Z</time>
<hdop>4.08</hdop>
</trkpt>
<trkpt lat="48.4908649" lon="14.4431274">
<ele>651.135</ele>
<time>2025-05-09T13:50:06Z</time>
<hdop>2.55</hdop>
</trkpt>
<trkpt lat="48.4908244" lon="14.4436756">
<ele>653.136</ele>
<time>2025-05-09T13:50:33Z</time>
<hdop>2.04</hdop>
</trkpt>
<trkpt lat="48.4913648" lon="14.4454041">
<ele>645.137</ele>
<time>2025-05-09T13:51:27Z</time>
<hdop>2.04</hdop>
</trkpt>
<trkpt lat="48.4907079" lon="14.448472">
<ele>620.139</ele>
<time>2025-05-09T13:51:55Z</time>
<hdop>1.53</hdop>
</trkpt>
<trkpt lat="48.4905994" lon="14.4504663">
<ele>622.141</ele>
<time>2025-05-09T13:52:22Z</time>
<hdop>2.55</hdop>
</trkpt>
<trkpt lat="48.4905784" lon="14.4516836">
<ele>627.141</ele>
<time>2025-05-09T13:52:50Z</time>
<hdop>3.06</hdop>
</trkpt>
<trkpt lat="48.4908723" lon="14.452972">
<ele>628.142</ele>
<time>2025-05-09T13:53:18Z</time>
<hdop>2.04</hdop>
</trkpt>
<trkpt lat="48.4921177" lon="14.4552411">
<ele>625.143</ele>
<time>2025-05-09T13:54:13Z</time>
<hdop>2.55</hdop>
</trkpt>
<trkpt lat="48.4905951" lon="14.456291">
<ele>629.145</ele>
<time>2025-05-09T13:55:08Z</time>
<hdop>1.53</hdop>
</trkpt>
<trkpt lat="48.4898354" lon="14.4571167">
<ele>632.145</ele>
<time>2025-05-09T13:55:35Z</time>
<hdop>3.06</hdop>
</trkpt>
<trkpt lat="48.4892191" lon="14.457185">
<ele>638.146</ele>
<time>2025-05-09T13:56:02Z</time>
<hdop>2.55</hdop>
</trkpt>
<trkpt lat="48.4882799" lon="14.4570755">
<ele>647.146</ele>
<time>2025-05-09T13:56:56Z</time>
<hdop>2.55</hdop>
</trkpt>
<trkpt lat="48.4880244" lon="14.457008">
<ele>652.146</ele>
<time>2025-05-09T13:57:24Z</time>
<hdop>3.06</hdop>
</trkpt>
<trkpt lat="48.4875891" lon="14.4569289">
<ele>653.146</ele>
<time>2025-05-09T13:57:51Z</time>
<hdop>3.06</hdop>
</trkpt>
<trkpt lat="48.4862977" lon="14.4567297">
<ele>662.146</ele>
<time>2025-05-09T13:58:46Z</time>
<hdop>3.06</hdop>
</trkpt>
<trkpt lat="48.4852537" lon="14.4568053">
<ele>660.147</ele>
<time>2025-05-09T13:59:13Z</time>
<hdop>1.53</hdop>
</trkpt>
<trkpt lat="48.4842246" lon="14.4559641">
<ele>660.146</ele>
<time>2025-05-09T13:59:41Z</time>
<hdop>2.04</hdop>
</trkpt>
<trkpt lat="48.4832991" lon="14.457081">
<ele>650.147</ele>
<time>2025-05-09T14:00:09Z</time>
<hdop>1.53</hdop>
</trkpt>
<trkpt lat="48.4810464" lon="14.4571757">
<ele>645.148</ele>
<time>2025-05-09T14:01:04Z</time>
<hdop>1.53</hdop>
</trkpt>
<trkpt lat="48.4804854" lon="14.4565137">
<ele>644.148</ele>
<time>2025-05-09T14:01:31Z</time>
<hdop>2.04</hdop>
</trkpt>
<trkpt lat="48.4769135" lon="14.4563062">
<ele>612.149</ele>
<time>2025-05-09T14:02:26Z</time>
<hdop>2.04</hdop>
</trkpt>
<trkpt lat="48.4746722" lon="14.4563051">
<ele>585.15</ele>
<time>2025-05-09T14:03:20Z</time>
<hdop>1.53</hdop>
</trkpt>
<trkpt lat="48.4733473" lon="14.4565193">
<ele>582.15</ele>
<time>2025-05-09T14:03:48Z</time>
<hdop>2.55</hdop>
</trkpt>
<trkpt lat="48.4724232" lon="14.456237">
<ele>580.15</ele>
<time>2025-05-09T14:04:16Z</time>
<hdop>1.53</hdop>
</trkpt>
<trkpt lat="48.4710743" lon="14.4560021">
<ele>587.151</ele>
<time>2025-05-09T14:05:11Z</time>
<hdop>3.57</hdop>
</trkpt>
<trkpt lat="48.4701083" lon="14.4562967">
<ele>596.151</ele>
<time>2025-05-09T14:06:06Z</time>
<hdop>3.06</hdop>
</trkpt>
<trkpt lat="48.4692272" lon="14.4564694">
<ele>607.151</ele>
<time>2025-05-09T14:07:01Z</time>
<hdop>3.57</hdop>
</trkpt>
<trkpt lat="48.4688125" lon="14.456443">
<ele>611.152</ele>
<time>2025-05-09T14:07:29Z</time>
<hdop>2.04</hdop>
</trkpt>
<trkpt lat="48.4684256" lon="14.4563594">
<ele>613.152</ele>
<time>2025-05-09T14:07:57Z</time>
<hdop>2.55</hdop>
</trkpt>
<trkpt lat="48.468094" lon="14.4564289">
<ele>618.152</ele>
<time>2025-05-09T14:08:25Z</time>
<hdop>2.55</hdop>
</trkpt>
<trkpt lat="48.4677884" lon="14.4564322">
<ele>621.152</ele>
<time>2025-05-09T14:08:52Z</time>
<hdop>2.04</hdop>
</trkpt>
<trkpt lat="48.4674385" lon="14.4564536">
<ele>625.152</ele>
<time>2025-05-09T14:09:20Z</time>
<hdop>2.55</hdop>
</trkpt>
<trkpt lat="48.4668205" lon="14.456636">
<ele>639.152</ele>
<time>2025-05-09T14:10:15Z</time>
<hdop>2.04</hdop>
</trkpt>
<trkpt lat="48.4662243" lon="14.4569319">
<ele>650.153</ele>
<time>2025-05-09T14:11:10Z</time>
<hdop>2.04</hdop>
</trkpt>
<trkpt lat="48.4659488" lon="14.4571589">
<ele>655.153</ele>
<time>2025-05-09T14:11:38Z</time>
<hdop>2.04</hdop>
</trkpt>
<trkpt lat="48.4656059" lon="14.4572352">
<ele>659.153</ele>
<time>2025-05-09T14:12:06Z</time>
<hdop>2.04</hdop>
</trkpt>
<trkpt lat="48.4654244" lon="14.4572502">
<ele>659.153</ele>
<time>2025-05-09T14:13:00Z</time>
<hdop>2.04</hdop>
</trkpt>
<trkpt lat="48.4654244" lon="14.4572502">
<ele>659.153</ele>
<time>2025-05-09T14:13:28Z</time>
<hdop>2.04</hdop>
</trkpt>
<trkpt lat="48.4654279" lon="14.4572628">
<ele>659.153</ele>
<time>2025-05-09T14:13:55Z</time>
<hdop>3.06</hdop>
</trkpt>
<trkpt lat="48.4654353" lon="14.4572688">
<ele>659.153</ele>
<time>2025-05-09T14:14:22Z</time>
<hdop>2.04</hdop>
</trkpt>
<trkpt lat="48.4651883" lon="14.4576841">
<ele>665.154</ele>
<time>2025-05-09T14:15:17Z</time>
<hdop>3.06</hdop>
</trkpt>
<trkpt lat="48.4640607" lon="14.4566284">
<ele>672.153</ele>
<time>2025-05-09T14:16:12Z</time>
<hdop>2.04</hdop>
</trkpt>
<trkpt lat="48.463634" lon="14.4560484">
<ele>676.153</ele>
<time>2025-05-09T14:16:40Z</time>
<hdop>3.06</hdop>
</trkpt>
<trkpt lat="48.4637683" lon="14.4552484">
<ele>681.152</ele>
<time>2025-05-09T14:17:07Z</time>
<hdop>3.06</hdop>
</trkpt>
<trkpt lat="48.4637029" lon="14.4535025">
<ele>683.151</ele>
<time>2025-05-09T14:18:02Z</time>
<hdop>2.55</hdop>
</trkpt>
<trkpt lat="48.4636075" lon="14.4527468">
<ele>685.151</ele>
<time>2025-05-09T14:18:30Z</time>
<hdop>2.55</hdop>
</trkpt>
<trkpt lat="48.4636" lon="14.4525224">
<ele>683.15</ele>
<time>2025-05-09T14:18:58Z</time>
<hdop>3.06</hdop>
</trkpt>
<trkpt lat="48.4635495" lon="14.4515624">
<ele>681.15</ele>
<time>2025-05-09T14:19:25Z</time>
<hdop>3.06</hdop>
</trkpt>
<trkpt lat="48.4636609" lon="14.4515297">
<ele>680.15</ele>
<time>2025-05-09T14:20:06Z</time>
<hdop>15.82</hdop>
</trkpt>
<trkpt lat="48.4635134" lon="14.4515299">
<ele>704.15</ele>
<time>2025-05-09T14:20:36Z</time>
<hdop>21.43</hdop>
</trkpt>
<trkpt lat="48.4638058" lon="14.4513722">
<ele>686.149</ele>
<time>2025-05-09T14:21:06Z</time>
<hdop>44.9</hdop>
</trkpt>
<trkpt lat="48.4642145" lon="14.4498101">
<ele>676.148</ele>
<time>2025-05-09T14:21:34Z</time>
<hdop>6.12</hdop>
</trkpt>
<trkpt lat="48.4642355" lon="14.4498193">
<ele>671.148</ele>
<time>2025-05-09T14:22:01Z</time>
<hdop>4.08</hdop>
</trkpt>
<trkpt lat="48.4653576" lon="14.4498286">
<ele>666.148</ele>
<time>2025-05-09T14:22:29Z</time>
<hdop>4.59</hdop>
</trkpt>
<trkpt lat="48.4665197" lon="14.4504229">
<ele>664.148</ele>
<time>2025-05-09T14:22:56Z</time>
<hdop>6.63</hdop>
</trkpt>
<trkpt lat="48.4673519" lon="14.4504208">
<ele>655.148</ele>
<time>2025-05-09T14:23:24Z</time>
<hdop>5.61</hdop>
</trkpt>
<trkpt lat="48.4680925" lon="14.450384">
<ele>644.147</ele>
<time>2025-05-09T14:23:51Z</time>
<hdop>3.57</hdop>
</trkpt>
<trkpt lat="48.4683131" lon="14.4501915">
<ele>644.147</ele>
<time>2025-05-09T14:24:19Z</time>
<hdop>2.55</hdop>
</trkpt>
<trkpt lat="48.4683131" lon="14.4501915">
<ele>644.147</ele>
<time>2025-05-09T14:25:14Z</time>
<hdop>2.55</hdop>
</trkpt>
<trkpt lat="48.4683131" lon="14.4501915">
<ele>644.147</ele>
<time>2025-05-09T14:25:41Z</time>
<hdop>2.04</hdop>
</trkpt>
<trkpt lat="48.4683022" lon="14.4501693">
<ele>646.147</ele>
<time>2025-05-09T14:26:09Z</time>
<hdop>2.55</hdop>
</trkpt>
<trkpt lat="48.4684328" lon="14.4489481">
<ele>638.146</ele>
<time>2025-05-09T14:26:37Z</time>
<hdop>4.08</hdop>
</trkpt>
<trkpt lat="48.4679885" lon="14.4478723">
<ele>620.146</ele>
<time>2025-05-09T14:27:04Z</time>
<hdop>3.57</hdop>
</trkpt>
<trkpt lat="48.4665877" lon="14.4475834">
<ele>604.146</ele>
<time>2025-05-09T14:27:58Z</time>
<hdop>2.04</hdop>
</trkpt>
<trkpt lat="48.4660895" lon="14.4466378">
<ele>599.145</ele>
<time>2025-05-09T14:28:26Z</time>
<hdop>2.55</hdop>
</trkpt>
<trkpt lat="48.4658209" lon="14.446558">
<ele>597.145</ele>
<time>2025-05-09T14:28:54Z</time>
<hdop>2.04</hdop>
</trkpt>
<trkpt lat="48.4661193" lon="14.4467182">
<ele>598.145</ele>
<time>2025-05-09T14:29:48Z</time>
<hdop>3.06</hdop>
</trkpt>
<trkpt lat="48.4661378" lon="14.4467154">
<ele>597.145</ele>
<time>2025-05-09T14:30:16Z</time>
<hdop>12.76</hdop>
</trkpt>
<trkpt lat="48.4659515" lon="14.4465783">
<ele>596.145</ele>
<time>2025-05-09T14:31:10Z</time>
<hdop>2.55</hdop>
</trkpt>
<trkpt lat="48.4649911" lon="14.4460046">
<ele>581.145</ele>
<time>2025-05-09T14:31:37Z</time>
<hdop>3.57</hdop>
</trkpt>
<trkpt lat="48.4635528" lon="14.4435489">
<ele>553.144</ele>
<time>2025-05-09T14:32:32Z</time>
<hdop>2.04</hdop>
</trkpt>
<trkpt lat="48.4620607" lon="14.4421643">
<ele>536.144</ele>
<time>2025-05-09T14:33:53Z</time>
<hdop>12.24</hdop>
</trkpt>
<trkpt lat="48.4620607" lon="14.4421643">
<ele>541.144</ele>
<time>2025-05-09T14:34:23Z</time>
<hdop>14.29</hdop>
</trkpt>
<trkpt lat="48.4621427" lon="14.4422622">
<ele>536.144</ele>
<time>2025-05-09T14:34:53Z</time>
<hdop>13.78</hdop>
</trkpt>
<trkpt lat="48.4620012" lon="14.4417076">
<ele>536.143</ele>
<time>2025-05-09T14:35:23Z</time>
<hdop>16.33</hdop>
</trkpt>
<trkpt lat="48.4610504" lon="14.4405283">
<ele>503.143</ele>
<time>2025-05-09T14:35:50Z</time>
<hdop>84.69</hdop>
</trkpt>
<trkpt lat="48.4597964" lon="14.4397808">
<ele>515.143</ele>
<time>2025-05-09T14:36:18Z</time>
<hdop>2.55</hdop>
</trkpt>
<trkpt lat="48.4593383" lon="14.4394131">
<ele>513.142</ele>
<time>2025-05-09T14:36:46Z</time>
<hdop>3.06</hdop>
</trkpt>
<trkpt lat="48.4583553" lon="14.4382078">
<ele>518.142</ele>
<time>2025-05-09T14:37:13Z</time>
<hdop>1.53</hdop>
</trkpt>
<trkpt lat="48.4576137" lon="14.437328">
<ele>521.141</ele>
<time>2025-05-09T14:37:40Z</time>
<hdop>2.55</hdop>
</trkpt>
<trkpt lat="48.456884" lon="14.4372741">
<ele>526.142</ele>
<time>2025-05-09T14:38:08Z</time>
<hdop>3.06</hdop>
</trkpt>
<trkpt lat="48.456796" lon="14.4383364">
<ele>522.142</ele>
<time>2025-05-09T14:38:36Z</time>
<hdop>2.04</hdop>
</trkpt>
<trkpt lat="48.4551363" lon="14.4393259">
<ele>520.144</ele>
<time>2025-05-09T14:39:30Z</time>
<hdop>5.1</hdop>
</trkpt>
<trkpt lat="48.4522252" lon="14.4410392">
<ele>511.146</ele>
<time>2025-05-09T14:40:24Z</time>
<hdop>4.08</hdop>
</trkpt>
<trkpt lat="48.4521462" lon="14.4410008">
<ele>577.146</ele>
<time>2025-05-09T14:41:08Z</time>
<hdop>14.29</hdop>
</trkpt>
<trkpt lat="48.452046" lon="14.4410131">
<ele>507.146</ele>
<time>2025-05-09T14:41:35Z</time>
<hdop>3.06</hdop>
</trkpt>
<trkpt lat="48.452046" lon="14.4410131">
<ele>507.146</ele>
<time>2025-05-09T14:42:03Z</time>
<hdop>3.57</hdop>
</trkpt>
<trkpt lat="48.452046" lon="14.4410131">
<ele>507.146</ele>
<time>2025-05-09T14:42:31Z</time>
<hdop>3.57</hdop>
</trkpt>
<trkpt lat="48.452046" lon="14.4410131">
<ele>507.146</ele>
<time>2025-05-09T14:42:58Z</time>
<hdop>3.57</hdop>
</trkpt>
<trkpt lat="48.452046" lon="14.4410131">
<ele>507.146</ele>
<time>2025-05-09T14:43:26Z</time>
<hdop>3.06</hdop>
</trkpt>
<trkpt lat="48.452046" lon="14.4410131">
<ele>507.146</ele>
<time>2025-05-09T14:43:53Z</time>
<hdop>2.04</hdop>
</trkpt>
<trkpt lat="48.452046" lon="14.4410131">
<ele>507.146</ele>
<time>2025-05-09T14:44:47Z</time>
<hdop>2.04</hdop>
</trkpt>
<trkpt lat="48.452046" lon="14.4410131">
<ele>507.146</ele>
<time>2025-05-09T14:45:14Z</time>
<hdop>2.04</hdop>
</trkpt>
<trkpt lat="48.452046" lon="14.4410131">
<ele>507.146</ele>
<time>2025-05-09T14:45:41Z</time>
<hdop>2.55</hdop>
</trkpt>
<trkpt lat="48.4513085" lon="14.4414753">
<ele>504.146</ele>
<time>2025-05-09T14:46:36Z</time>
<hdop>2.04</hdop>
</trkpt>
<trkpt lat="48.4507148" lon="14.4419054">
<ele>505.147</ele>
<time>2025-05-09T14:47:03Z</time>
<hdop>2.55</hdop>
</trkpt>
<trkpt lat="48.4497419" lon="14.4425314">
<ele>504.148</ele>
<time>2025-05-09T14:47:31Z</time>
<hdop>4.08</hdop>
</trkpt>
<trkpt lat="48.4483957" lon="14.4436124">
<ele>502.149</ele>
<time>2025-05-09T14:47:59Z</time>
<hdop>2.55</hdop>
</trkpt>
<trkpt lat="48.4469997" lon="14.4442742">
<ele>503.15</ele>
<time>2025-05-09T14:48:26Z</time>
<hdop>2.55</hdop>
</trkpt>
<trkpt lat="48.4456297" lon="14.4447098">
<ele>503.15</ele>
<time>2025-05-09T14:48:54Z</time>
<hdop>3.06</hdop>
</trkpt>
<trkpt lat="48.4458767" lon="14.4430015">
<ele>504.149</ele>
<time>2025-05-09T14:49:21Z</time>
<hdop>1.53</hdop>
</trkpt>
<trkpt lat="48.446283" lon="14.4415458">
<ele>508.148</ele>
<time>2025-05-09T14:49:48Z</time>
<hdop>3.06</hdop>
</trkpt>
<trkpt lat="48.4467428" lon="14.4407579">
<ele>513.147</ele>
<time>2025-05-09T14:50:16Z</time>
<hdop>3.06</hdop>
</trkpt>
<trkpt lat="48.4472077" lon="14.4400542">
<ele>522.147</ele>
<time>2025-05-09T14:50:43Z</time>
<hdop>3.06</hdop>
</trkpt>
<trkpt lat="48.4477757" lon="14.4384047">
<ele>533.145</ele>
<time>2025-05-09T14:51:37Z</time>
<hdop>3.57</hdop>
</trkpt>
<trkpt lat="48.4472502" lon="14.4367539">
<ele>537.144</ele>
<time>2025-05-09T14:52:32Z</time>
<hdop>3.06</hdop>
</trkpt>
<trkpt lat="48.4470533" lon="14.4358008">
<ele>538.144</ele>
<time>2025-05-09T14:52:59Z</time>
<hdop>3.06</hdop>
</trkpt>
<trkpt lat="48.446805" lon="14.4352198">
<ele>541.143</ele>
<time>2025-05-09T14:53:27Z</time>
<hdop>3.06</hdop>
</trkpt>
<trkpt lat="48.446371" lon="14.435054">
<ele>543.143</ele>
<time>2025-05-09T14:53:54Z</time>
<hdop>3.57</hdop>
</trkpt>
<trkpt lat="48.4458335" lon="14.4342843">
<ele>536.143</ele>
<time>2025-05-09T14:54:22Z</time>
<hdop>3.06</hdop>
</trkpt>
<trkpt lat="48.4450619" lon="14.4335075">
<ele>546.143</ele>
<time>2025-05-09T14:54:50Z</time>
<hdop>3.06</hdop>
</trkpt>
<trkpt lat="48.4441124" lon="14.4334446">
<ele>552.143</ele>
<time>2025-05-09T14:55:17Z</time>
<hdop>2.55</hdop>
</trkpt>
<trkpt lat="48.4429488" lon="14.4331437">
<ele>553.143</ele>
<time>2025-05-09T14:55:45Z</time>
<hdop>2.04</hdop>
</trkpt>
<trkpt lat="48.4424747" lon="14.4340916">
<ele>553.144</ele>
<time>2025-05-09T14:56:12Z</time>
<hdop>2.04</hdop>
</trkpt>
<trkpt lat="48.4422315" lon="14.4358266">
<ele>558.145</ele>
<time>2025-05-09T14:56:40Z</time>
<hdop>1.53</hdop>
</trkpt>
<trkpt lat="48.4418724" lon="14.4387743">
<ele>563.147</ele>
<time>2025-05-09T14:57:35Z</time>
<hdop>3.06</hdop>
</trkpt>
<trkpt lat="48.4406464" lon="14.4394686">
<ele>570.148</ele>
<time>2025-05-09T14:58:30Z</time>
<hdop>2.55</hdop>
</trkpt>
<trkpt lat="48.4403431" lon="14.4403427">
<ele>572.149</ele>
<time>2025-05-09T14:58:57Z</time>
<hdop>2.55</hdop>
</trkpt>
<trkpt lat="48.439586" lon="14.4418621">
<ele>584.15</ele>
<time>2025-05-09T14:59:52Z</time>
<hdop>3.06</hdop>
</trkpt>
<trkpt lat="48.4395187" lon="14.4423476">
<ele>586.151</ele>
<time>2025-05-09T15:00:19Z</time>
<hdop>2.04</hdop>
</trkpt>
<trkpt lat="48.4394756" lon="14.4428533">
<ele>590.151</ele>
<time>2025-05-09T15:00:47Z</time>
<hdop>3.57</hdop>
</trkpt>
<trkpt lat="48.4394874" lon="14.4436104">
<ele>594.152</ele>
<time>2025-05-09T15:01:14Z</time>
<hdop>3.06</hdop>
</trkpt>
<trkpt lat="48.439515" lon="14.444413">
<ele>597.152</ele>
<time>2025-05-09T15:01:42Z</time>
<hdop>2.55</hdop>
</trkpt>
<trkpt lat="48.4393593" lon="14.445248">
<ele>600.153</ele>
<time>2025-05-09T15:02:09Z</time>
<hdop>2.55</hdop>
</trkpt>
<trkpt lat="48.4389001" lon="14.4460396">
<ele>604.153</ele>
<time>2025-05-09T15:02:37Z</time>
<hdop>2.55</hdop>
</trkpt>
<trkpt lat="48.4385848" lon="14.446933">
<ele>607.154</ele>
<time>2025-05-09T15:03:04Z</time>
<hdop>2.55</hdop>
</trkpt>
<trkpt lat="48.4378402" lon="14.4482275">
<ele>612.155</ele>
<time>2025-05-09T15:03:59Z</time>
<hdop>3.06</hdop>
</trkpt>
<trkpt lat="48.4370893" lon="14.4472745">
<ele>615.155</ele>
<time>2025-05-09T15:04:54Z</time>
<hdop>2.55</hdop>
</trkpt>
<trkpt lat="48.4371604" lon="14.4464052">
<ele>616.154</ele>
<time>2025-05-09T15:05:21Z</time>
<hdop>2.55</hdop>
</trkpt>
<trkpt lat="48.4373529" lon="14.4455896">
<ele>621.154</ele>
<time>2025-05-09T15:05:49Z</time>
<hdop>2.55</hdop>
</trkpt>
<trkpt lat="48.4374919" lon="14.4449147">
<ele>626.153</ele>
<time>2025-05-09T15:06:16Z</time>
<hdop>3.06</hdop>
</trkpt>
<trkpt lat="48.4374987" lon="14.444359">
<ele>631.153</ele>
<time>2025-05-09T15:06:44Z</time>
<hdop>4.59</hdop>
</trkpt>
<trkpt lat="48.436936" lon="14.4433628">
<ele>636.152</ele>
<time>2025-05-09T15:07:39Z</time>
<hdop>3.06</hdop>
</trkpt>
<trkpt lat="48.4367674" lon="14.4420699">
<ele>646.151</ele>
<time>2025-05-09T15:08:33Z</time>
<hdop>3.06</hdop>
</trkpt>
<trkpt lat="48.4369471" lon="14.4412481">
<ele>650.151</ele>
<time>2025-05-09T15:09:01Z</time>
<hdop>3.06</hdop>
</trkpt>
<trkpt lat="48.4365779" lon="14.44089">
<ele>650.151</ele>
<time>2025-05-09T15:09:28Z</time>
<hdop>2.04</hdop>
</trkpt>
<trkpt lat="48.4361953" lon="14.4410164">
<ele>655.151</ele>
<time>2025-05-09T15:09:56Z</time>
<hdop>2.55</hdop>
</trkpt>
<trkpt lat="48.4359046" lon="14.4411015">
<ele>657.151</ele>
<time>2025-05-09T15:10:23Z</time>
<hdop>2.55</hdop>
</trkpt>
<trkpt lat="48.4352851" lon="14.4411241">
<ele>663.151</ele>
<time>2025-05-09T15:11:17Z</time>
<hdop>2.55</hdop>
</trkpt>
<trkpt lat="48.4349515" lon="14.4410203">
<ele>668.151</ele>
<time>2025-05-09T15:11:44Z</time>
<hdop>3.06</hdop>
</trkpt>
<trkpt lat="48.4347162" lon="14.4409138">
<ele>671.151</ele>
<time>2025-05-09T15:12:12Z</time>
<hdop>3.06</hdop>
</trkpt>
<trkpt lat="48.4347162" lon="14.4409138">
<ele>671.151</ele>
<time>2025-05-09T15:12:40Z</time>
<hdop>2.55</hdop>
</trkpt>
<trkpt lat="48.434703" lon="14.4408685">
<ele>679.151</ele>
<time>2025-05-09T15:13:13Z</time>
<hdop>10.2</hdop>
</trkpt>
<trkpt lat="48.434703" lon="14.4408685">
<ele>676.151</ele>
<time>2025-05-09T15:13:43Z</time>
<hdop>9.69</hdop>
</trkpt>
<trkpt lat="48.4347045" lon="14.4409444">
<ele>666.151</ele>
<time>2025-05-09T15:14:13Z</time>
<hdop>9.18</hdop>
</trkpt>
<trkpt lat="48.4342302" lon="14.440775">
<ele>675.151</ele>
<time>2025-05-09T15:14:43Z</time>
<hdop>9.18</hdop>
</trkpt>
<trkpt lat="48.4331906" lon="14.4401461">
<ele>670.151</ele>
<time>2025-05-09T15:15:13Z</time>
<hdop>15.82</hdop>
</trkpt>
<trkpt lat="48.4329539" lon="14.4399034">
<ele>648.151</ele>
<time>2025-05-09T15:15:41Z</time>
<hdop>13.27</hdop>
</trkpt>
<trkpt lat="48.4323386" lon="14.438544">
<ele>656.15</ele>
<time>2025-05-09T15:16:08Z</time>
<hdop>2.04</hdop>
</trkpt>
<trkpt lat="48.4317701" lon="14.437552">
<ele>651.15</ele>
<time>2025-05-09T15:16:35Z</time>
<hdop>2.55</hdop>
</trkpt>
<trkpt lat="48.4310326" lon="14.4372141">
<ele>651.15</ele>
<time>2025-05-09T15:17:03Z</time>
<hdop>1.53</hdop>
</trkpt>
<trkpt lat="48.4300524" lon="14.4374872">
<ele>651.15</ele>
<time>2025-05-09T15:17:31Z</time>
<hdop>2.55</hdop>
</trkpt>
<trkpt lat="48.4300376" lon="14.4363026">
<ele>661.149</ele>
<time>2025-05-09T15:18:26Z</time>
<hdop>3.06</hdop>
</trkpt>
<trkpt lat="48.4306964" lon="14.4358707">
<ele>675.149</ele>
<time>2025-05-09T15:19:20Z</time>
<hdop>3.06</hdop>
</trkpt>
<trkpt lat="48.4313087" lon="14.435177">
<ele>688.148</ele>
<time>2025-05-09T15:20:15Z</time>
<hdop>3.06</hdop>
</trkpt>
<trkpt lat="48.4315103" lon="14.4347006">
<ele>695.148</ele>
<time>2025-05-09T15:21:10Z</time>
<hdop>5.1</hdop>
</trkpt>
<trkpt lat="48.4316167" lon="14.4345459">
<ele>694.148</ele>
<time>2025-05-09T15:21:38Z</time>
<hdop>4.59</hdop>
</trkpt>
<trkpt lat="48.4314898" lon="14.4325997">
<ele>703.146</ele>
<time>2025-05-09T15:22:33Z</time>
<hdop>4.08</hdop>
</trkpt>
<trkpt lat="48.4312435" lon="14.4313429">
<ele>702.145</ele>
<time>2025-05-09T15:23:28Z</time>
<hdop>4.08</hdop>
</trkpt>
<trkpt lat="48.4312027" lon="14.429786">
<ele>701.144</ele>
<time>2025-05-09T15:23:55Z</time>
<hdop>2.55</hdop>
</trkpt>
<trkpt lat="48.4314128" lon="14.4287297">
<ele>705.144</ele>
<time>2025-05-09T15:24:23Z</time>
<hdop>3.57</hdop>
</trkpt>
<trkpt lat="48.431327" lon="14.4266147">
<ele>717.142</ele>
<time>2025-05-09T15:25:18Z</time>
<hdop>5.1</hdop>
</trkpt>
<trkpt lat="48.4311298" lon="14.4260328">
<ele>721.142</ele>
<time>2025-05-09T15:25:45Z</time>
<hdop>4.08</hdop>
</trkpt>
<trkpt lat="48.4311261" lon="14.4260134">
<ele>727.142</ele>
<time>2025-05-09T15:26:30Z</time>
<hdop>16.84</hdop>
</trkpt>
<trkpt lat="48.4311947" lon="14.4259734">
<ele>725.142</ele>
<time>2025-05-09T15:27:00Z</time>
<hdop>19.39</hdop>
</trkpt>
<trkpt lat="48.4319302" lon="14.4242648">
<ele>708.14</ele>
<time>2025-05-09T15:27:30Z</time>
<hdop>12.24</hdop>
</trkpt>
<trkpt lat="48.4319867" lon="14.4238268">
<ele>706.14</ele>
<time>2025-05-09T15:27:58Z</time>
<hdop>3.06</hdop>
</trkpt>
<trkpt lat="48.431916" lon="14.4233273">
<ele>706.14</ele>
<time>2025-05-09T15:28:25Z</time>
<hdop>3.57</hdop>
</trkpt>
<trkpt lat="48.4319568" lon="14.4194778">
<ele>708.137</ele>
<time>2025-05-09T15:29:20Z</time>
<hdop>4.59</hdop>
</trkpt>
<trkpt lat="48.432451" lon="14.418631">
<ele>703.136</ele>
<time>2025-05-09T15:29:48Z</time>
<hdop>3.57</hdop>
</trkpt>
<trkpt lat="48.4325062" lon="14.4181312">
<ele>708.136</ele>
<time>2025-05-09T15:30:15Z</time>
<hdop>3.06</hdop>
</trkpt>
<trkpt lat="48.4323633" lon="14.4175802">
<ele>711.135</ele>
<time>2025-05-09T15:30:43Z</time>
<hdop>4.08</hdop>
</trkpt>
<trkpt lat="48.4315459" lon="14.4158048">
<ele>701.134</ele>
<time>2025-05-09T15:31:11Z</time>
<hdop>6.12</hdop>
</trkpt>
<trkpt lat="48.4311953" lon="14.4138852">
<ele>717.133</ele>
<time>2025-05-09T15:32:06Z</time>
<hdop>4.08</hdop>
</trkpt>
<trkpt lat="48.4307788" lon="14.414152">
<ele>718.133</ele>
<time>2025-05-09T15:32:34Z</time>
<hdop>3.57</hdop>
</trkpt>
<trkpt lat="48.4300272" lon="14.4147899">
<ele>723.134</ele>
<time>2025-05-09T15:33:29Z</time>
<hdop>3.06</hdop>
</trkpt>
<trkpt lat="48.429969" lon="14.4155143">
<ele>727.135</ele>
<time>2025-05-09T15:33:57Z</time>
<hdop>2.55</hdop>
</trkpt>
<trkpt lat="48.4292803" lon="14.4170951">
<ele>729.136</ele>
<time>2025-05-09T15:34:52Z</time>
<hdop>2.55</hdop>
</trkpt>
<trkpt lat="48.4291491" lon="14.4171718">
<ele>730.136</ele>
<time>2025-05-09T15:35:20Z</time>
<hdop>2.04</hdop>
</trkpt>
<trkpt lat="48.4265723" lon="14.4177842">
<ele>713.137</ele>
<time>2025-05-09T15:35:47Z</time>
<hdop>2.55</hdop>
</trkpt>
<trkpt lat="48.4256003" lon="14.4159703">
<ele>692.136</ele>
<time>2025-05-09T15:36:42Z</time>
<hdop>4.59</hdop>
</trkpt>
<trkpt lat="48.4256003" lon="14.4159703">
<ele>692.136</ele>
<time>2025-05-09T15:37:10Z</time>
<hdop>4.08</hdop>
</trkpt>
<trkpt lat="48.4256003" lon="14.4159703">
<ele>692.136</ele>
<time>2025-05-09T15:37:38Z</time>
<hdop>3.57</hdop>
</trkpt>
<trkpt lat="48.4235365" lon="14.4155442">
<ele>658.137</ele>
<time>2025-05-09T15:38:05Z</time>
<hdop>3.57</hdop>
</trkpt>
<trkpt lat="48.4226124" lon="14.4149458">
<ele>647.136</ele>
<time>2025-05-09T15:38:32Z</time>
<hdop>2.04</hdop>
</trkpt>
<trkpt lat="48.42057" lon="14.4145591">
<ele>649.137</ele>
<time>2025-05-09T15:39:26Z</time>
<hdop>2.55</hdop>
</trkpt>
<trkpt lat="48.4175677" lon="14.4158014">
<ele>645.139</ele>
<time>2025-05-09T15:39:54Z</time>
<hdop>6.63</hdop>
</trkpt>
<trkpt lat="48.4166049" lon="14.4144696">
<ele>627.138</ele>
<time>2025-05-09T15:40:21Z</time>
<hdop>2.04</hdop>
</trkpt>
<trkpt lat="48.4153563" lon="14.4151119">
<ele>624.139</ele>
<time>2025-05-09T15:40:49Z</time>
<hdop>2.55</hdop>
</trkpt>
<trkpt lat="48.4138943" lon="14.4132569">
<ele>586.138</ele>
<time>2025-05-09T15:41:43Z</time>
<hdop>2.55</hdop>
</trkpt>
<trkpt lat="48.4118194" lon="14.4135451">
<ele>585.139</ele>
<time>2025-05-09T15:42:11Z</time>
<hdop>3.06</hdop>
</trkpt>
<trkpt lat="48.4108959" lon="14.4132256">
<ele>588.139</ele>
<time>2025-05-09T15:42:39Z</time>
<hdop>2.04</hdop>
</trkpt>
<trkpt lat="48.4099329" lon="14.4136676">
<ele>583.139</ele>
<time>2025-05-09T15:43:33Z</time>
<hdop>1.53</hdop>
</trkpt>
<trkpt lat="48.4066361" lon="14.4107009">
<ele>565.138</ele>
<time>2025-05-09T15:44:01Z</time>
<hdop>3.06</hdop>
</trkpt>
<trkpt lat="48.4063383" lon="14.4095785">
<ele>560.138</ele>
<time>2025-05-09T15:44:28Z</time>
<hdop>3.06</hdop>
</trkpt>
<trkpt lat="48.4067189" lon="14.4086967">
<ele>563.137</ele>
<time>2025-05-09T15:44:55Z</time>
<hdop>2.04</hdop>
</trkpt>
<trkpt lat="48.4070618" lon="14.4076697">
<ele>566.136</ele>
<time>2025-05-09T15:45:23Z</time>
<hdop>1.53</hdop>
</trkpt>
<trkpt lat="48.4053242" lon="14.4072366">
<ele>561.136</ele>
<time>2025-05-09T15:45:50Z</time>
<hdop>1.53</hdop>
</trkpt>
<trkpt lat="48.4010332" lon="14.4074663">
<ele>530.138</ele>
<time>2025-05-09T15:46:45Z</time>
<hdop>1.53</hdop>
</trkpt>
<trkpt lat="48.3996356" lon="14.4086475">
<ele>522.139</ele>
<time>2025-05-09T15:47:13Z</time>
<hdop>2.55</hdop>
</trkpt>
<trkpt lat="48.3986753" lon="14.4088575">
<ele>521.14</ele>
<time>2025-05-09T15:47:41Z</time>
<hdop>2.04</hdop>
</trkpt>
<trkpt lat="48.394658" lon="14.4076697">
<ele>504.14</ele>
<time>2025-05-09T15:48:35Z</time>
<hdop>1.53</hdop>
</trkpt>
<trkpt lat="48.3930201" lon="14.406923">
<ele>499.14</ele>
<time>2025-05-09T15:49:02Z</time>
<hdop>1.53</hdop>
</trkpt>
<trkpt lat="48.3908595" lon="14.4056682">
<ele>493.14</ele>
<time>2025-05-09T15:49:30Z</time>
<hdop>1.53</hdop>
</trkpt>
<trkpt lat="48.3887364" lon="14.405757">
<ele>487.14</ele>
<time>2025-05-09T15:49:58Z</time>
<hdop>1.53</hdop>
</trkpt>
<trkpt lat="48.3879335" lon="14.4067931">
<ele>497.141</ele>
<time>2025-05-09T15:50:25Z</time>
<hdop>3.06</hdop>
</trkpt>
<trkpt lat="48.3871168" lon="14.4070186">
<ele>503.142</ele>
<time>2025-05-09T15:51:19Z</time>
<hdop>3.06</hdop>
</trkpt>
<trkpt lat="48.3863152" lon="14.4076396">
<ele>509.142</ele>
<time>2025-05-09T15:52:13Z</time>
<hdop>2.55</hdop>
</trkpt>
<trkpt lat="48.3857111" lon="14.4104423">
<ele>505.145</ele>
<time>2025-05-09T15:52:41Z</time>
<hdop>2.04</hdop>
</trkpt>
<trkpt lat="48.3846347" lon="14.4121575">
<ele>465.146</ele>
<time>2025-05-09T15:53:36Z</time>
<hdop>2.04</hdop>
</trkpt>
<trkpt lat="48.3810698" lon="14.4120858">
<ele>464.147</ele>
<time>2025-05-09T15:54:04Z</time>
<hdop>1.53</hdop>
</trkpt>
<trkpt lat="48.3802879" lon="14.4128123">
<ele>463.148</ele>
<time>2025-05-09T15:54:32Z</time>
<hdop>1.53</hdop>
</trkpt>
<trkpt lat="48.378744" lon="14.4144937">
<ele>450.15</ele>
<time>2025-05-09T15:54:59Z</time>
<hdop>1.53</hdop>
</trkpt>
<trkpt lat="48.3759183" lon="14.4186077">
<ele>441.153</ele>
<time>2025-05-09T15:55:54Z</time>
<hdop>2.04</hdop>
</trkpt>
<trkpt lat="48.3754499" lon="14.4184585">
<ele>445.154</ele>
<time>2025-05-09T15:56:49Z</time>
<hdop>3.06</hdop>
</trkpt>
<trkpt lat="48.3746863" lon="14.4183586">
<ele>451.154</ele>
<time>2025-05-09T15:57:44Z</time>
<hdop>2.55</hdop>
</trkpt>
<trkpt lat="48.3732449" lon="14.4178142">
<ele>444.154</ele>
<time>2025-05-09T15:58:38Z</time>
<hdop>2.55</hdop>
</trkpt>
<trkpt lat="48.3709536" lon="14.4192406">
<ele>427.155</ele>
<time>2025-05-09T15:59:05Z</time>
<hdop>3.57</hdop>
</trkpt>
<trkpt lat="48.3704595" lon="14.4158626">
<ele>425.153</ele>
<time>2025-05-09T16:00:00Z</time>
<hdop>2.55</hdop>
</trkpt>
<trkpt lat="48.3694663" lon="14.4141516">
<ele>416.152</ele>
<time>2025-05-09T16:00:27Z</time>
<hdop>2.55</hdop>
</trkpt>
<trkpt lat="48.368556" lon="14.4103481">
<ele>395.15</ele>
<time>2025-05-09T16:00:55Z</time>
<hdop>2.04</hdop>
</trkpt>
<trkpt lat="48.3677647" lon="14.4054389">
<ele>379.147</ele>
<time>2025-05-09T16:01:49Z</time>
<hdop>3.06</hdop>
</trkpt>
<trkpt lat="48.3686946" lon="14.4046278">
<ele>363.146</ele>
<time>2025-05-09T16:02:17Z</time>
<hdop>3.57</hdop>
</trkpt>
<trkpt lat="48.3691227" lon="14.4028172">
<ele>362.144</ele>
<time>2025-05-09T16:03:11Z</time>
<hdop>4.08</hdop>
</trkpt>
<trkpt lat="48.3687561" lon="14.4017475">
<ele>362.144</ele>
<time>2025-05-09T16:03:38Z</time>
<hdop>3.57</hdop>
</trkpt>
<trkpt lat="48.3679068" lon="14.4008911">
<ele>367.143</ele>
<time>2025-05-09T16:04:33Z</time>
<hdop>4.59</hdop>
</trkpt>
<trkpt lat="48.3675089" lon="14.4008021">
<ele>372.143</ele>
<time>2025-05-09T16:05:00Z</time>
<hdop>4.08</hdop>
</trkpt>
<trkpt lat="48.3671131" lon="14.4005743">
<ele>376.143</ele>
<time>2025-05-09T16:05:28Z</time>
<hdop>3.57</hdop>
</trkpt>
<trkpt lat="48.3666935" lon="14.4005626">
<ele>382.143</ele>
<time>2025-05-09T16:05:56Z</time>
<hdop>3.57</hdop>
</trkpt>
<trkpt lat="48.3662861" lon="14.4004054">
<ele>386.143</ele>
<time>2025-05-09T16:06:23Z</time>
<hdop>3.57</hdop>
</trkpt>
<trkpt lat="48.3662092" lon="14.3999163">
<ele>398.143</ele>
<time>2025-05-09T16:07:21Z</time>
<hdop>12.76</hdop>
</trkpt>
<trkpt lat="48.3661354" lon="14.3997512">
<ele>406.143</ele>
<time>2025-05-09T16:07:50Z</time>
<hdop>27.04</hdop>
</trkpt>
<trkpt lat="48.3656146" lon="14.399616">
<ele>399.143</ele>
<time>2025-05-09T16:08:17Z</time>
<hdop>4.08</hdop>
</trkpt>
<trkpt lat="48.3652987" lon="14.3991575">
<ele>405.143</ele>
<time>2025-05-09T16:08:45Z</time>
<hdop>3.57</hdop>
</trkpt>
<trkpt lat="48.3653102" lon="14.3988175">
<ele>407.143</ele>
<time>2025-05-09T16:09:39Z</time>
<hdop>2.55</hdop>
</trkpt>
<trkpt lat="48.363512" lon="14.4003532">
<ele>389.144</ele>
<time>2025-05-09T16:10:07Z</time>
<hdop>2.55</hdop>
</trkpt>
<trkpt lat="48.3635987" lon="14.4030177">
<ele>367.146</ele>
<time>2025-05-09T16:10:34Z</time>
<hdop>5.1</hdop>
</trkpt>
<trkpt lat="48.3631839" lon="14.404466">
<ele>363.147</ele>
<time>2025-05-09T16:11:02Z</time>
<hdop>3.57</hdop>
</trkpt>
<trkpt lat="48.3631835" lon="14.4044652">
<ele>363.147</ele>
<time>2025-05-09T16:11:29Z</time>
<hdop>2.55</hdop>
</trkpt>
<trkpt lat="48.3629187" lon="14.404835">
<ele>359.148</ele>
<time>2025-05-09T16:11:57Z</time>
<hdop>2.55</hdop>
</trkpt>
<trkpt lat="48.3620723" lon="14.4063962">
<ele>346.149</ele>
<time>2025-05-09T16:12:24Z</time>
<hdop>2.55</hdop>
</trkpt>
<trkpt lat="48.3605554" lon="14.4080742">
<ele>338.151</ele>
<time>2025-05-09T16:12:52Z</time>
<hdop>2.04</hdop>
</trkpt>
<trkpt lat="48.3577674" lon="14.4086427">
<ele>332.152</ele>
<time>2025-05-09T16:13:46Z</time>
<hdop>2.55</hdop>
</trkpt>
<trkpt lat="48.3563691" lon="14.4078059">
<ele>334.152</ele>
<time>2025-05-09T16:14:14Z</time>
<hdop>2.04</hdop>
</trkpt>
<trkpt lat="48.3559437" lon="14.4072223">
<ele>330.152</ele>
<time>2025-05-09T16:15:09Z</time>
<hdop>3.06</hdop>
</trkpt>
<trkpt lat="48.355726" lon="14.4061967">
<ele>332.151</ele>
<time>2025-05-09T16:15:36Z</time>
<hdop>3.06</hdop>
</trkpt>
<trkpt lat="48.3551237" lon="14.4043067">
<ele>344.15</ele>
<time>2025-05-09T16:16:31Z</time>
<hdop>2.55</hdop>
</trkpt>
<trkpt lat="48.3547528" lon="14.4038229">
<ele>348.149</ele>
<time>2025-05-09T16:16:59Z</time>
<hdop>3.57</hdop>
</trkpt>
<trkpt lat="48.3548314" lon="14.4019713">
<ele>354.148</ele>
<time>2025-05-09T16:17:53Z</time>
<hdop>3.06</hdop>
</trkpt>
<trkpt lat="48.3552103" lon="14.4008739">
<ele>361.147</ele>
<time>2025-05-09T16:18:20Z</time>
<hdop>3.06</hdop>
</trkpt>
<trkpt lat="48.3548632" lon="14.3998372">
<ele>361.147</ele>
<time>2025-05-09T16:18:48Z</time>
<hdop>2.55</hdop>
</trkpt>
<trkpt lat="48.3540709" lon="14.3997641">
<ele>362.147</ele>
<time>2025-05-09T16:19:16Z</time>
<hdop>3.06</hdop>
</trkpt>
<trkpt lat="48.352909" lon="14.3993726">
<ele>370.147</ele>
<time>2025-05-09T16:20:11Z</time>
<hdop>2.55</hdop>
</trkpt>
<trkpt lat="48.352426" lon="14.3979656">
<ele>381.146</ele>
<time>2025-05-09T16:21:05Z</time>
<hdop>4.08</hdop>
</trkpt>
<trkpt lat="48.3519493" lon="14.3977543">
<ele>386.146</ele>
<time>2025-05-09T16:21:32Z</time>
<hdop>3.57</hdop>
</trkpt>
<trkpt lat="48.3515033" lon="14.3975351">
<ele>389.146</ele>
<time>2025-05-09T16:22:00Z</time>
<hdop>3.57</hdop>
</trkpt>
<trkpt lat="48.3511633" lon="14.3969682">
<ele>397.146</ele>
<time>2025-05-09T16:22:28Z</time>
<hdop>3.06</hdop>
</trkpt>
<trkpt lat="48.3511077" lon="14.396296">
<ele>399.145</ele>
<time>2025-05-09T16:22:55Z</time>
<hdop>2.04</hdop>
</trkpt>
<trkpt lat="48.3509452" lon="14.3947801">
<ele>405.144</ele>
<time>2025-05-09T16:23:50Z</time>
<hdop>2.04</hdop>
</trkpt>
<trkpt lat="48.3510824" lon="14.3938706">
<ele>410.143</ele>
<time>2025-05-09T16:24:18Z</time>
<hdop>2.55</hdop>
</trkpt>
<trkpt lat="48.3513016" lon="14.3928188">
<ele>413.143</ele>
<time>2025-05-09T16:24:45Z</time>
<hdop>3.06</hdop>
</trkpt>
<trkpt lat="48.3515293" lon="14.391716">
<ele>416.142</ele>
<time>2025-05-09T16:25:13Z</time>
<hdop>4.08</hdop>
</trkpt>
<trkpt lat="48.3516765" lon="14.3908176">
<ele>418.141</ele>
<time>2025-05-09T16:25:40Z</time>
<hdop>3.57</hdop>
</trkpt>
<trkpt lat="48.3518919" lon="14.390077">
<ele>426.141</ele>
<time>2025-05-09T16:26:08Z</time>
<hdop>3.06</hdop>
</trkpt>
<trkpt lat="48.3525968" lon="14.3891658">
<ele>437.14</ele>
<time>2025-05-09T16:27:02Z</time>
<hdop>2.04</hdop>
</trkpt>
<trkpt lat="48.3529845" lon="14.3885964">
<ele>441.139</ele>
<time>2025-05-09T16:27:30Z</time>
<hdop>2.04</hdop>
</trkpt>
<trkpt lat="48.3533518" lon="14.3880281">
<ele>443.139</ele>
<time>2025-05-09T16:27:57Z</time>
<hdop>2.04</hdop>
</trkpt>
<trkpt lat="48.3539781" lon="14.3867703">
<ele>451.138</ele>
<time>2025-05-09T16:28:51Z</time>
<hdop>3.57</hdop>
</trkpt>
<trkpt lat="48.354179" lon="14.3860266">
<ele>457.137</ele>
<time>2025-05-09T16:29:19Z</time>
<hdop>3.06</hdop>
</trkpt>
<trkpt lat="48.3544689" lon="14.3846781">
<ele>460.136</ele>
<time>2025-05-09T16:30:14Z</time>
<hdop>3.57</hdop>
</trkpt>
<trkpt lat="48.3540666" lon="14.3824704">
<ele>459.134</ele>
<time>2025-05-09T16:31:09Z</time>
<hdop>1.53</hdop>
</trkpt>
<trkpt lat="48.352269" lon="14.3814102">
<ele>426.134</ele>
<time>2025-05-09T16:32:04Z</time>
<hdop>2.55</hdop>
</trkpt>
<trkpt lat="48.3512988" lon="14.3789816">
<ele>425.133</ele>
<time>2025-05-09T16:32:32Z</time>
<hdop>4.08</hdop>
</trkpt>
<trkpt lat="48.3491866" lon="14.3787652">
<ele>428.133</ele>
<time>2025-05-09T16:32:59Z</time>
<hdop>3.06</hdop>
</trkpt>
<trkpt lat="48.3487707" lon="14.3781497">
<ele>431.133</ele>
<time>2025-05-09T16:33:27Z</time>
<hdop>2.55</hdop>
</trkpt>
<trkpt lat="48.348518" lon="14.3774755">
<ele>439.133</ele>
<time>2025-05-09T16:33:54Z</time>
<hdop>2.55</hdop>
</trkpt>
<trkpt lat="48.348475" lon="14.377401">
<ele>436.132</ele>
<time>2025-05-09T16:34:22Z</time>
<hdop>2.55</hdop>
</trkpt>
<trkpt lat="48.3484594" lon="14.3773854">
<ele>435.132</ele>
<time>2025-05-09T16:34:49Z</time>
<hdop>2.55</hdop>
</trkpt>
<trkpt lat="48.3469499" lon="14.3779741">
<ele>425.133</ele>
<time>2025-05-09T16:35:17Z</time>
<hdop>1.53</hdop>
</trkpt>
<trkpt lat="48.3457154" lon="14.3778707">
<ele>428.134</ele>
<time>2025-05-09T16:35:44Z</time>
<hdop>4.08</hdop>
</trkpt>
<trkpt lat="48.3453288" lon="14.3764862">
<ele>434.133</ele>
<time>2025-05-09T16:36:12Z</time>
<hdop>3.57</hdop>
</trkpt>
<trkpt lat="48.3455165" lon="14.3754184">
<ele>436.132</ele>
<time>2025-05-09T16:36:40Z</time>
<hdop>2.55</hdop>
</trkpt>
<trkpt lat="48.3452331" lon="14.3721116">
<ele>435.13</ele>
<time>2025-05-09T16:37:34Z</time>
<hdop>2.04</hdop>
</trkpt>
<trkpt lat="48.3442988" lon="14.3651857">
<ele>422.125</ele>
<time>2025-05-09T16:38:29Z</time>
<hdop>1.53</hdop>
</trkpt>
<trkpt lat="48.3433359" lon="14.3642832">
<ele>410.125</ele>
<time>2025-05-09T16:38:56Z</time>
<hdop>1.53</hdop>
</trkpt>
<trkpt lat="48.3420363" lon="14.3595984">
<ele>403.122</ele>
<time>2025-05-09T16:39:24Z</time>
<hdop>5.61</hdop>
</trkpt>
<trkpt lat="48.3426503" lon="14.3575158">
<ele>393.12</ele>
<time>2025-05-09T16:40:19Z</time>
<hdop>3.06</hdop>
</trkpt>
<trkpt lat="48.3420965" lon="14.3559167">
<ele>397.119</ele>
<time>2025-05-09T16:40:46Z</time>
<hdop>3.57</hdop>
</trkpt>
<trkpt lat="48.3419251" lon="14.3539886">
<ele>395.118</ele>
<time>2025-05-09T16:41:14Z</time>
<hdop>3.06</hdop>
</trkpt>
<trkpt lat="48.3417087" lon="14.3516987">
<ele>392.116</ele>
<time>2025-05-09T16:41:42Z</time>
<hdop>2.55</hdop>
</trkpt>
<trkpt lat="48.341676" lon="14.3491492">
<ele>385.114</ele>
<time>2025-05-09T16:42:09Z</time>
<hdop>3.06</hdop>
</trkpt>
<trkpt lat="48.3417852" lon="14.3459947">
<ele>369.112</ele>
<time>2025-05-09T16:42:37Z</time>
<hdop>2.55</hdop>
</trkpt>
<trkpt lat="48.342588" lon="14.3433968">
<ele>353.11</ele>
<time>2025-05-09T16:43:04Z</time>
<hdop>3.06</hdop>
</trkpt>
<trkpt lat="48.3435041" lon="14.3421503">
<ele>348.109</ele>
<time>2025-05-09T16:43:32Z</time>
<hdop>5.61</hdop>
</trkpt>
<trkpt lat="48.343873" lon="14.340845">
<ele>355.108</ele>
<time>2025-05-09T16:44:26Z</time>
<hdop>4.59</hdop>
</trkpt>
<trkpt lat="48.3434689" lon="14.3398746">
<ele>356.107</ele>
<time>2025-05-09T16:45:21Z</time>
<hdop>2.55</hdop>
</trkpt>
<trkpt lat="48.3442661" lon="14.3365281">
<ele>348.105</ele>
<time>2025-05-09T16:45:48Z</time>
<hdop>3.06</hdop>
</trkpt>
<trkpt lat="48.3446983" lon="14.3347063">
<ele>324.103</ele>
<time>2025-05-09T16:46:43Z</time>
<hdop>3.06</hdop>
</trkpt>
<trkpt lat="48.3413873" lon="14.3291203">
<ele>311.1</ele>
<time>2025-05-09T16:47:11Z</time>
<hdop>2.55</hdop>
</trkpt>
<trkpt lat="48.3404738" lon="14.3283247">
<ele>319.1</ele>
<time>2025-05-09T16:48:05Z</time>
<hdop>3.06</hdop>
</trkpt>
<trkpt lat="48.3416959" lon="14.3268623">
<ele>324.098</ele>
<time>2025-05-09T16:48:33Z</time>
<hdop>3.06</hdop>
</trkpt>
<trkpt lat="48.3423488" lon="14.3262148">
<ele>336.098</ele>
<time>2025-05-09T16:49:27Z</time>
<hdop>2.55</hdop>
</trkpt>
<trkpt lat="48.342422" lon="14.3259986">
<ele>338.098</ele>
<time>2025-05-09T16:49:55Z</time>
<hdop>3.06</hdop>
</trkpt>
<trkpt lat="48.3420744" lon="14.3256031">
<ele>326.097</ele>
<time>2025-05-09T16:50:35Z</time>
<hdop>19.9</hdop>
</trkpt>
<trkpt lat="48.3408933" lon="14.3246826">
<ele>290.097</ele>
<time>2025-05-09T16:51:06Z</time>
<hdop>106.12</hdop>
</trkpt>
<trkpt lat="48.3401958" lon="14.3245889">
<ele>300.097</ele>
<time>2025-05-09T16:51:35Z</time>
<hdop>39.8</hdop>
</trkpt>
<trkpt lat="48.3389572" lon="14.3237089">
<ele>272.097</ele>
<time>2025-05-09T16:52:05Z</time>
<hdop>52.55</hdop>
</trkpt>
<trkpt lat="48.3387288" lon="14.3228688">
<ele>272.096</ele>
<time>2025-05-09T16:52:35Z</time>
<hdop>14.29</hdop>
</trkpt>
<trkpt lat="48.3387375" lon="14.3228067">
<ele>274.096</ele>
<time>2025-05-09T16:53:05Z</time>
<hdop>16.33</hdop>
</trkpt>
<trkpt lat="48.3376157" lon="14.3232312">
<ele>296.097</ele>
<time>2025-05-09T16:53:35Z</time>
<hdop>20.92</hdop>
</trkpt>
<trkpt lat="48.3372977" lon="14.321831">
<ele>258.096</ele>
<time>2025-05-09T16:54:05Z</time>
<hdop>24.49</hdop>
</trkpt>
<trkpt lat="48.3373317" lon="14.3209384">
<ele>196.095</ele>
<time>2025-05-09T16:54:35Z</time>
<hdop>22.45</hdop>
</trkpt>
<trkpt lat="48.336572" lon="14.3209774">
<ele>259.096</ele>
<time>2025-05-09T16:55:05Z</time>
<hdop>27.55</hdop>
</trkpt>
<trkpt lat="48.3357144" lon="14.3202932">
<ele>264.095</ele>
<time>2025-05-09T16:55:35Z</time>
<hdop>19.9</hdop>
</trkpt>
<trkpt lat="48.3359099" lon="14.3184449">
<ele>249.094</ele>
<time>2025-05-09T16:56:05Z</time>
<hdop>15.82</hdop>
</trkpt>
<trkpt lat="48.336197" lon="14.3163739">
<ele>258.093</ele>
<time>2025-05-09T16:56:35Z</time>
<hdop>19.39</hdop>
</trkpt>
<trkpt lat="48.3361019" lon="14.3146003">
<ele>259.091</ele>
<time>2025-05-09T16:57:05Z</time>
<hdop>17.35</hdop>
</trkpt>
<trkpt lat="48.3355762" lon="14.3132906">
<ele>267.091</ele>
<time>2025-05-09T16:57:35Z</time>
<hdop>18.88</hdop>
</trkpt>
<trkpt lat="48.3344641" lon="14.3125916">
<ele>271.09</ele>
<time>2025-05-09T16:58:05Z</time>
<hdop>17.86</hdop>
</trkpt>
<trkpt lat="48.3329482" lon="14.3125937">
<ele>256.091</ele>
<time>2025-05-09T16:58:35Z</time>
<hdop>47.45</hdop>
</trkpt>
<trkpt lat="48.3319956" lon="14.3127899">
<ele>253.091</ele>
<time>2025-05-09T16:59:05Z</time>
<hdop>16.33</hdop>
</trkpt>
<trkpt lat="48.3319472" lon="14.3128119">
<ele>254.091</ele>
<time>2025-05-09T16:59:35Z</time>
<hdop>15.82</hdop>
</trkpt>
<trkpt lat="48.3315932" lon="14.3124659">
<ele>256.091</ele>
<time>2025-05-09T17:00:05Z</time>
<hdop>20.41</hdop>
</trkpt>
<trkpt lat="48.3317856" lon="14.3111062">
<ele>258.09</ele>
<time>2025-05-09T17:00:35Z</time>
<hdop>17.35</hdop>
</trkpt>
<trkpt lat="48.3322126" lon="14.310063">
<ele>315.089</ele>
<time>2025-05-09T17:01:05Z</time>
<hdop>45.41</hdop>
</trkpt>
<trkpt lat="48.3320849" lon="14.3102272">
<ele>311.089</ele>
<time>2025-05-09T17:01:35Z</time>
<hdop>24.49</hdop>
</trkpt>
<trkpt lat="48.3324714" lon="14.3099966">
<ele>306.089</ele>
<time>2025-05-09T17:02:05Z</time>
<hdop>63.27</hdop>
</trkpt>
<trkpt lat="48.3321895" lon="14.3102136">
<ele>304.089</ele>
<time>2025-05-09T17:02:35Z</time>
<hdop>23.98</hdop>
</trkpt>
<trkpt lat="48.3319722" lon="14.3102218">
<ele>336.089</ele>
<time>2025-05-09T17:03:05Z</time>
<hdop>26.02</hdop>
</trkpt>
<trkpt lat="48.3321041" lon="14.3096776">
<ele>266.089</ele>
<time>2025-05-09T17:03:35Z</time>
<hdop>37.76</hdop>
</trkpt>
<trkpt lat="48.3321135" lon="14.3102175">
<ele>274.089</ele>
<time>2025-05-09T17:04:05Z</time>
<hdop>18.88</hdop>
</trkpt>
<trkpt lat="48.3319627" lon="14.3099914">
<ele>258.089</ele>
<time>2025-05-09T17:04:40Z</time>
<hdop>230.1</hdop>
</trkpt>
<trkpt lat="48.3322065" lon="14.3098111">
<ele>280.089</ele>
<time>2025-05-09T17:05:07Z</time>
<hdop>86.22</hdop>
</trkpt>
</trkseg>
</trk>
</gpx>
