<?xml version="1.0" encoding="UTF-8"?>
<gpx xmlns="http://www.topografix.com/GPX/1/1" version="1.1" creator="AlpineQuest 2.4.0c" xmlns:xsi="http://www.w3.org/2001/XMLSchema-instance" xsi:schemaLocation="http://www.topografix.com/GPX/1/1 http://www.topografix.com/GPX/1/1/gpx.xsd">
<metadata>
<link href="https://www.alpinequest.net" />
<time>2026-01-04T10:10:18Z</time>
</metadata>
<trk>
<name>Ha'Il-Schaden</name>
<src>OSRM https://project-osrm.org/, OpenRouteService https://openrouteservice.org</src>
<type>Laufen, Fahren</type>
<trkseg>
<extensions>
	<type>drive</type>
</extensions>
<trkpt lat="27.653226" lon="41.724854">
<ele>940.179</ele>
</trkpt>
<trkpt lat="27.653229" lon="41.724882">
<ele>940.07</ele>
</trkpt>
<trkpt lat="27.653223" lon="41.724918">
<ele>940.029</ele>
</trkpt>
<trkpt lat="27.653207" lon="41.724948">
<ele>940.08</ele>
</trkpt>
<trkpt lat="27.653184" lon="41.724971">
<ele>940.187</ele>
</trkpt>
<trkpt lat="27.653156" lon="41.724985">
<ele>940.346</ele>
</trkpt>
<trkpt lat="27.653125" lon="41.724988">
<ele>940.565</ele>
</trkpt>
<trkpt lat="27.652894" lon="41.72533">
<ele>936.952</ele>
</trkpt>
<trkpt lat="27.652869" lon="41.725349">
<ele>937.004</ele>
</trkpt>
<trkpt lat="27.652849" lon="41.725358">
<ele>937.067</ele>
</trkpt>
<trkpt lat="27.652841" lon="41.725362">
<ele>937.096</ele>
</trkpt>
<trkpt lat="27.652812" lon="41.725369">
<ele>937.207</ele>
</trkpt>
<trkpt lat="27.652782" lon="41.725369">
<ele>937.313</ele>
</trkpt>
<trkpt lat="27.652759" lon="41.725363">
<ele>937.437</ele>
</trkpt>
<trkpt lat="27.652754" lon="41.725411">
<ele>937.688</ele>
</trkpt>
<trkpt lat="27.652737" lon="41.725768">
<ele>939.352</ele>
</trkpt>
<trkpt lat="27.652732" lon="41.725885">
<ele>939.784</ele>
</trkpt>
<trkpt lat="27.652708" lon="41.725976">
<ele>940.26</ele>
</trkpt>
<trkpt lat="27.652687" lon="41.726029">
<ele>940.551</ele>
</trkpt>
<trkpt lat="27.652542" lon="41.726151">
<ele>941.676</ele>
</trkpt>
<trkpt lat="27.652194" lon="41.726111">
<ele>937.696</ele>
</trkpt>
<trkpt lat="27.651306" lon="41.726019">
<ele>937.896</ele>
</trkpt>
<trkpt lat="27.650366" lon="41.725959">
<ele>938.977</ele>
</trkpt>
<trkpt lat="27.649924" lon="41.725937">
<ele>939.809</ele>
</trkpt>
<trkpt lat="27.649715" lon="41.725928">
<ele>938.642</ele>
</trkpt>
<trkpt lat="27.649532" lon="41.726005">
<ele>938.12</ele>
</trkpt>
<trkpt lat="27.649413" lon="41.726188">
<ele>938.554</ele>
</trkpt>
<trkpt lat="27.649409" lon="41.72698">
<ele>938.017</ele>
</trkpt>
<trkpt lat="27.649492" lon="41.727176">
<ele>938.52</ele>
</trkpt>
<trkpt lat="27.649597" lon="41.727237">
<ele>937.955</ele>
</trkpt>
<trkpt lat="27.649777" lon="41.727305">
<ele>937.298</ele>
</trkpt>
<trkpt lat="27.650044" lon="41.727304">
<ele>937.136</ele>
</trkpt>
<trkpt lat="27.650663" lon="41.727268">
<ele>937.585</ele>
</trkpt>
<trkpt lat="27.652" lon="41.727142">
<ele>933.658</ele>
</trkpt>
<trkpt lat="27.653591" lon="41.727011">
<ele>944.381</ele>
</trkpt>
<trkpt lat="27.655147" lon="41.726942">
<ele>928.072</ele>
</trkpt>
<trkpt lat="27.65634" lon="41.726938">
<ele>930.805</ele>
</trkpt>
<trkpt lat="27.65634" lon="41.726843">
<ele>930.523</ele>
</trkpt>
<trkpt lat="27.660156" lon="41.726907">
<ele>931.826</ele>
</trkpt>
<trkpt lat="27.664976" lon="41.727022">
<ele>924.914</ele>
</trkpt>
<trkpt lat="27.669005" lon="41.727155">
<ele>925.599</ele>
</trkpt>
<trkpt lat="27.669394" lon="41.727242">
<ele>926.747</ele>
</trkpt>
<trkpt lat="27.669448" lon="41.727325">
<ele>926.638</ele>
</trkpt>
<trkpt lat="27.669516" lon="41.727391">
<ele>926.494</ele>
</trkpt>
<trkpt lat="27.669547" lon="41.727412">
<ele>926.434</ele>
</trkpt>
<trkpt lat="27.669591" lon="41.727441">
<ele>926.324</ele>
</trkpt>
<trkpt lat="27.66968" lon="41.727464">
<ele>926.24</ele>
</trkpt>
<trkpt lat="27.669774" lon="41.727464">
<ele>925.652</ele>
</trkpt>
<trkpt lat="27.669862" lon="41.727441">
<ele>924.701</ele>
</trkpt>
<trkpt lat="27.66994" lon="41.727391">
<ele>923.818</ele>
</trkpt>
<trkpt lat="27.670006" lon="41.727325">
<ele>922.922</ele>
</trkpt>
<trkpt lat="27.670036" lon="41.727279">
<ele>922.508</ele>
</trkpt>
<trkpt lat="27.670061" lon="41.727242">
<ele>922.137</ele>
</trkpt>
<trkpt lat="27.670091" lon="41.727146">
<ele>921.874</ele>
</trkpt>
<trkpt lat="27.670756" lon="41.727142">
<ele>922.454</ele>
</trkpt>
<trkpt lat="27.672944" lon="41.727215">
<ele>928.964</ele>
</trkpt>
<trkpt lat="27.674744" lon="41.72727">
<ele>927.906</ele>
</trkpt>
<trkpt lat="27.675777" lon="41.727285">
<ele>927.203</ele>
</trkpt>
<trkpt lat="27.678221" lon="41.727322">
<ele>923.259</ele>
</trkpt>
<trkpt lat="27.680289" lon="41.727369">
<ele>919.41</ele>
</trkpt>
<trkpt lat="27.681895" lon="41.727404">
<ele>923.538</ele>
</trkpt>
<trkpt lat="27.683273" lon="41.727434">
<ele>920.0</ele>
</trkpt>
<trkpt lat="27.684358" lon="41.727445">
<ele>918.486</ele>
</trkpt>
<trkpt lat="27.685489" lon="41.727456">
<ele>919.005</ele>
</trkpt>
<trkpt lat="27.686936" lon="41.72746">
<ele>916.965</ele>
</trkpt>
<trkpt lat="27.688257" lon="41.727476">
<ele>913.722</ele>
</trkpt>
<trkpt lat="27.689405" lon="41.727519">
<ele>914.333</ele>
</trkpt>
<trkpt lat="27.689667" lon="41.727604">
<ele>915.977</ele>
</trkpt>
<trkpt lat="27.689867" lon="41.727706">
<ele>917.397</ele>
</trkpt>
<trkpt lat="27.690038" lon="41.727858">
<ele>917.07</ele>
</trkpt>
<trkpt lat="27.690171" lon="41.728042">
<ele>913.695</ele>
</trkpt>
<trkpt lat="27.690273" lon="41.728287">
<ele>912.069</ele>
</trkpt>
<trkpt lat="27.690302" lon="41.728543">
<ele>914.024</ele>
</trkpt>
<trkpt lat="27.69026" lon="41.728809">
<ele>914.48</ele>
</trkpt>
<trkpt lat="27.690175" lon="41.729011">
<ele>913.514</ele>
</trkpt>
<trkpt lat="27.690036" lon="41.729207">
<ele>913.336</ele>
</trkpt>
<trkpt lat="27.689852" lon="41.729357">
<ele>914.746</ele>
</trkpt>
<trkpt lat="27.689642" lon="41.729428">
<ele>916.017</ele>
</trkpt>
<trkpt lat="27.689426" lon="41.729455">
<ele>916.232</ele>
</trkpt>
<trkpt lat="27.689238" lon="41.729419">
<ele>918.321</ele>
</trkpt>
<trkpt lat="27.688998" lon="41.729297">
<ele>921.352</ele>
</trkpt>
<trkpt lat="27.688808" lon="41.729104">
<ele>922.126</ele>
</trkpt>
<trkpt lat="27.688685" lon="41.728846">
<ele>918.026</ele>
</trkpt>
<trkpt lat="27.688631" lon="41.728578">
<ele>913.07</ele>
</trkpt>
<trkpt lat="27.688654" lon="41.728255">
<ele>912.564</ele>
</trkpt>
<trkpt lat="27.688837" lon="41.727818">
<ele>914.695</ele>
</trkpt>
<trkpt lat="27.690177" lon="41.725723">
<ele>920.835</ele>
</trkpt>
<trkpt lat="27.693393" lon="41.720828">
<ele>919.804</ele>
</trkpt>
<trkpt lat="27.693627" lon="41.720483">
<ele>919.958</ele>
</trkpt>
<trkpt lat="27.695472" lon="41.717766">
<ele>917.318</ele>
</trkpt>
<trkpt lat="27.698345" lon="41.7137">
<ele>916.251</ele>
</trkpt>
<trkpt lat="27.699957" lon="41.711418">
<ele>915.911</ele>
</trkpt>
<trkpt lat="27.705461" lon="41.70391">
<ele>916.102</ele>
</trkpt>
<trkpt lat="27.714565" lon="41.691746">
<ele>913.34</ele>
</trkpt>
<trkpt lat="27.716763" lon="41.688845">
<ele>916.326</ele>
</trkpt>
<trkpt lat="27.718534" lon="41.686632">
<ele>917.07</ele>
</trkpt>
<trkpt lat="27.722172" lon="41.682578">
<ele>913.619</ele>
</trkpt>
<trkpt lat="27.723653" lon="41.681019">
<ele>907.106</ele>
</trkpt>
<trkpt lat="27.726106" lon="41.678553">
<ele>910.409</ele>
</trkpt>
<trkpt lat="27.728062" lon="41.676729">
<ele>908.959</ele>
</trkpt>
<trkpt lat="27.729601" lon="41.675334">
<ele>905.961</ele>
</trkpt>
<trkpt lat="27.742335" lon="41.664816">
<ele>898.556</ele>
</trkpt>
<trkpt lat="27.74366" lon="41.66371">
<ele>898.417</ele>
</trkpt>
<trkpt lat="27.744835" lon="41.662691">
<ele>896.721</ele>
</trkpt>
<trkpt lat="27.746627" lon="41.661035">
<ele>895.456</ele>
</trkpt>
<trkpt lat="27.747736" lon="41.660011">
<ele>896.547</ele>
</trkpt>
<trkpt lat="27.749366" lon="41.658344">
<ele>899.463</ele>
</trkpt>
<trkpt lat="27.750815" lon="41.656814">
<ele>902.8</ele>
</trkpt>
<trkpt lat="27.752657" lon="41.654837">
<ele>895.169</ele>
</trkpt>
<trkpt lat="27.75472" lon="41.652458">
<ele>887.144</ele>
</trkpt>
<trkpt lat="27.757145" lon="41.649387">
<ele>894.529</ele>
</trkpt>
<trkpt lat="27.758671" lon="41.647367">
<ele>890.328</ele>
</trkpt>
<trkpt lat="27.762298" lon="41.642277">
<ele>901.054</ele>
</trkpt>
<trkpt lat="27.765956" lon="41.63721">
<ele>893.422</ele>
</trkpt>
<trkpt lat="27.768069" lon="41.634273">
<ele>893.342</ele>
</trkpt>
<trkpt lat="27.769132" lon="41.632795">
<ele>892.537</ele>
</trkpt>
<trkpt lat="27.769433" lon="41.632377">
<ele>887.58</ele>
</trkpt>
<trkpt lat="27.770914" lon="41.63028">
<ele>889.454</ele>
</trkpt>
<trkpt lat="27.772954" lon="41.627508">
<ele>892.366</ele>
</trkpt>
<trkpt lat="27.773994" lon="41.626158">
<ele>888.831</ele>
</trkpt>
<trkpt lat="27.775312" lon="41.624478">
<ele>891.95</ele>
</trkpt>
<trkpt lat="27.776467" lon="41.623085">
<ele>892.749</ele>
</trkpt>
<trkpt lat="27.777067" lon="41.622377">
<ele>892.867</ele>
</trkpt>
<trkpt lat="27.777616" lon="41.621749">
<ele>892.0</ele>
</trkpt>
<trkpt lat="27.780997" lon="41.618066">
<ele>885.471</ele>
</trkpt>
<trkpt lat="27.782376" lon="41.616702">
<ele>884.893</ele>
</trkpt>
<trkpt lat="27.783755" lon="41.615373">
<ele>885.508</ele>
</trkpt>
<trkpt lat="27.784777" lon="41.614417">
<ele>886.197</ele>
</trkpt>
<trkpt lat="27.785792" lon="41.613481">
<ele>885.399</ele>
</trkpt>
<trkpt lat="27.787962" lon="41.611524">
<ele>879.0</ele>
</trkpt>
<trkpt lat="27.790815" lon="41.608753">
<ele>880.934</ele>
</trkpt>
<trkpt lat="27.803006" lon="41.597746">
<ele>874.956</ele>
</trkpt>
<trkpt lat="27.804029" lon="41.596822">
<ele>873.89</ele>
</trkpt>
<trkpt lat="27.806743" lon="41.594032">
<ele>870.107</ele>
</trkpt>
<trkpt lat="27.809318" lon="41.590824">
<ele>869.052</ele>
</trkpt>
<trkpt lat="27.809683" lon="41.590368">
<ele>870.046</ele>
</trkpt>
<trkpt lat="27.811019" lon="41.58865">
<ele>865.518</ele>
</trkpt>
<trkpt lat="27.813064" lon="41.585746">
<ele>864.021</ele>
</trkpt>
<trkpt lat="27.821867" lon="41.572659">
<ele>861.104</ele>
</trkpt>
<trkpt lat="27.826209" lon="41.566207">
<ele>854.231</ele>
</trkpt>
<trkpt lat="27.829141" lon="41.561851">
<ele>856.451</ele>
</trkpt>
<trkpt lat="27.830978" lon="41.559121">
<ele>862.514</ele>
</trkpt>
<trkpt lat="27.832743" lon="41.556095">
<ele>871.875</ele>
</trkpt>
<trkpt lat="27.836044" lon="41.550066">
<ele>873.0</ele>
</trkpt>
<trkpt lat="27.837361" lon="41.547832">
<ele>867.402</ele>
</trkpt>
<trkpt lat="27.837411" lon="41.547748">
<ele>867.821</ele>
</trkpt>
<trkpt lat="27.837973" lon="41.546886">
<ele>867.431</ele>
</trkpt>
<trkpt lat="27.839915" lon="41.543907">
<ele>866.499</ele>
</trkpt>
<trkpt lat="27.842552" lon="41.540088">
<ele>871.743</ele>
</trkpt>
<trkpt lat="27.844354" lon="41.537841">
<ele>865.665</ele>
</trkpt>
<trkpt lat="27.844583" lon="41.537556">
<ele>862.403</ele>
</trkpt>
<trkpt lat="27.845824" lon="41.536195">
<ele>859.718</ele>
</trkpt>
<trkpt lat="27.846442" lon="41.535517">
<ele>856.442</ele>
</trkpt>
<trkpt lat="27.846802" lon="41.53517">
<ele>853.573</ele>
</trkpt>
<trkpt lat="27.848529" lon="41.5335">
<ele>854.15</ele>
</trkpt>
<trkpt lat="27.850863" lon="41.531505">
<ele>850.237</ele>
</trkpt>
<trkpt lat="27.852912" lon="41.529917">
<ele>858.97</ele>
</trkpt>
<trkpt lat="27.855302" lon="41.528372">
<ele>863.162</ele>
</trkpt>
<trkpt lat="27.856952" lon="41.527385">
<ele>864.694</ele>
</trkpt>
<trkpt lat="27.860955" lon="41.525239">
<ele>855.904</ele>
</trkpt>
<trkpt lat="27.862568" lon="41.524209">
<ele>850.833</ele>
</trkpt>
<trkpt lat="27.863991" lon="41.523008">
<ele>855.658</ele>
</trkpt>
<trkpt lat="27.865565" lon="41.521398">
<ele>862.937</ele>
</trkpt>
<trkpt lat="27.866798" lon="41.519746">
<ele>870.392</ele>
</trkpt>
<trkpt lat="27.868145" lon="41.517707">
<ele>858.337</ele>
</trkpt>
<trkpt lat="27.869188" lon="41.515412">
<ele>855.003</ele>
</trkpt>
<trkpt lat="27.870061" lon="41.512579">
<ele>857.274</ele>
</trkpt>
<trkpt lat="27.870535" lon="41.50979">
<ele>856.074</ele>
</trkpt>
<trkpt lat="27.870706" lon="41.506957">
<ele>862.872</ele>
</trkpt>
<trkpt lat="27.870535" lon="41.504018">
<ele>872.105</ele>
</trkpt>
<trkpt lat="27.870099" lon="41.499619">
<ele>872.743</ele>
</trkpt>
<trkpt lat="27.869473" lon="41.495928">
<ele>864.238</ele>
</trkpt>
<trkpt lat="27.868259" lon="41.490606">
<ele>858.562</ele>
</trkpt>
<trkpt lat="27.867803" lon="41.488353">
<ele>856.916</ele>
</trkpt>
<trkpt lat="27.867443" lon="41.485027">
<ele>861.943</ele>
</trkpt>
<trkpt lat="27.867367" lon="41.481465">
<ele>874.494</ele>
</trkpt>
<trkpt lat="27.867557" lon="41.47874">
<ele>870.377</ele>
</trkpt>
<trkpt lat="27.86805" lon="41.475715">
<ele>849.514</ele>
</trkpt>
<trkpt lat="27.868553" lon="41.473828">
<ele>853.04</ele>
</trkpt>
<trkpt lat="27.868885" lon="41.472582">
<ele>867.137</ele>
</trkpt>
<trkpt lat="27.869795" lon="41.47005">
<ele>869.309</ele>
</trkpt>
<trkpt lat="27.870649" lon="41.46814">
<ele>868.473</ele>
</trkpt>
<trkpt lat="27.87154" lon="41.466467">
<ele>865.912</ele>
</trkpt>
<trkpt lat="27.872754" lon="41.464535">
<ele>871.638</ele>
</trkpt>
<trkpt lat="27.873513" lon="41.46342">
<ele>875.009</ele>
</trkpt>
<trkpt lat="27.874329" lon="41.462325">
<ele>870.571</ele>
</trkpt>
<trkpt lat="27.875505" lon="41.46093">
<ele>876.269</ele>
</trkpt>
<trkpt lat="27.876728" lon="41.459362">
<ele>879.221</ele>
</trkpt>
<trkpt lat="27.878919" lon="41.456553">
<ele>879.661</ele>
</trkpt>
<trkpt lat="27.880038" lon="41.454879">
<ele>885.479</ele>
</trkpt>
<trkpt lat="27.881385" lon="41.452498">
<ele>881.951</ele>
</trkpt>
<trkpt lat="27.882409" lon="41.450116">
<ele>870.646</ele>
</trkpt>
<trkpt lat="27.883205" lon="41.447884">
<ele>870.412</ele>
</trkpt>
<trkpt lat="27.88423" lon="41.444">
<ele>863.653</ele>
</trkpt>
<trkpt lat="27.884817" lon="41.442262">
<ele>880.525</ele>
</trkpt>
<trkpt lat="27.885462" lon="41.440696">
<ele>876.664</ele>
</trkpt>
<trkpt lat="27.886221" lon="41.439258">
<ele>881.735</ele>
</trkpt>
<trkpt lat="27.886923" lon="41.438142">
<ele>871.516</ele>
</trkpt>
<trkpt lat="27.887757" lon="41.436984">
<ele>879.075</ele>
</trkpt>
<trkpt lat="27.888857" lon="41.435632">
<ele>871.61</ele>
</trkpt>
<trkpt lat="27.893542" lon="41.430396">
<ele>865.845</ele>
</trkpt>
<trkpt lat="27.900312" lon="41.423294">
<ele>853.124</ele>
</trkpt>
<trkpt lat="27.910476" lon="41.413144">
<ele>862.595</ele>
</trkpt>
<trkpt lat="27.91167" lon="41.4119">
<ele>875.034</ele>
</trkpt>
<trkpt lat="27.912884" lon="41.410312">
<ele>886.282</ele>
</trkpt>
<trkpt lat="27.91404" lon="41.408424">
<ele>886.878</ele>
</trkpt>
<trkpt lat="27.91478" lon="41.406922">
<ele>884.417</ele>
</trkpt>
<trkpt lat="27.915482" lon="41.405248">
<ele>886.902</ele>
</trkpt>
<trkpt lat="27.916259" lon="41.402909">
<ele>896.749</ele>
</trkpt>
<trkpt lat="27.916695" lon="41.401858">
<ele>891.098</ele>
</trkpt>
<trkpt lat="27.917984" lon="41.399326">
<ele>871.9</ele>
</trkpt>
<trkpt lat="27.919463" lon="41.396922">
<ele>873.559</ele>
</trkpt>
<trkpt lat="27.920146" lon="41.395721">
<ele>865.404</ele>
</trkpt>
<trkpt lat="27.920866" lon="41.394197">
<ele>864.0</ele>
</trkpt>
<trkpt lat="27.921492" lon="41.392545">
<ele>867.46</ele>
</trkpt>
<trkpt lat="27.922061" lon="41.390678">
<ele>862.792</ele>
</trkpt>
<trkpt lat="27.922516" lon="41.389434">
<ele>875.133</ele>
</trkpt>
<trkpt lat="27.922763" lon="41.388864">
<ele>877.906</ele>
</trkpt>
<trkpt lat="27.923009" lon="41.388275">
<ele>871.88</ele>
</trkpt>
<trkpt lat="27.923087" lon="41.388131">
<ele>870.595</ele>
</trkpt>
<trkpt lat="27.923653" lon="41.387095">
<ele>876.437</ele>
</trkpt>
<trkpt lat="27.924336" lon="41.3857">
<ele>884.382</ele>
</trkpt>
<trkpt lat="27.925056" lon="41.38364">
<ele>870.486</ele>
</trkpt>
<trkpt lat="27.925436" lon="41.381687">
<ele>876.403</ele>
</trkpt>
<trkpt lat="27.925568" lon="41.380443">
<ele>887.676</ele>
</trkpt>
<trkpt lat="27.925625" lon="41.378619">
<ele>894.222</ele>
</trkpt>
<trkpt lat="27.926004" lon="41.375722">
<ele>900.475</ele>
</trkpt>
<trkpt lat="27.927426" lon="41.370315">
<ele>901.0</ele>
</trkpt>
<trkpt lat="27.927767" lon="41.368255">
<ele>880.028</ele>
</trkpt>
<trkpt lat="27.927919" lon="41.366302">
<ele>875.687</ele>
</trkpt>
<trkpt lat="27.927881" lon="41.364779">
<ele>882.144</ele>
</trkpt>
<trkpt lat="27.927748" lon="41.362976">
<ele>895.924</ele>
</trkpt>
<trkpt lat="27.927445" lon="41.360959">
<ele>892.466</ele>
</trkpt>
<trkpt lat="27.9239" lon="41.347527">
<ele>882.099</ele>
</trkpt>
<trkpt lat="27.923559" lon="41.34581">
<ele>880.991</ele>
</trkpt>
<trkpt lat="27.923388" lon="41.34448">
<ele>880.256</ele>
</trkpt>
<trkpt lat="27.923293" lon="41.343171">
<ele>873.638</ele>
</trkpt>
<trkpt lat="27.92316" lon="41.335875">
<ele>861.678</ele>
</trkpt>
<trkpt lat="27.923236" lon="41.334244">
<ele>876.587</ele>
</trkpt>
<trkpt lat="27.923464" lon="41.332742">
<ele>880.47</ele>
</trkpt>
<trkpt lat="27.9239" lon="41.331133">
<ele>876.773</ele>
</trkpt>
<trkpt lat="27.924355" lon="41.329824">
<ele>866.115</ele>
</trkpt>
<trkpt lat="27.925037" lon="41.328258">
<ele>886.291</ele>
</trkpt>
<trkpt lat="27.925891" lon="41.326863">
<ele>871.206</ele>
</trkpt>
<trkpt lat="27.926763" lon="41.32564">
<ele>868.304</ele>
</trkpt>
<trkpt lat="27.927711" lon="41.324631">
<ele>869.088</ele>
</trkpt>
<trkpt lat="27.928677" lon="41.323752">
<ele>876.252</ele>
</trkpt>
<trkpt lat="27.929815" lon="41.322936">
<ele>869.188</ele>
</trkpt>
<trkpt lat="27.930839" lon="41.322271">
<ele>863.581</ele>
</trkpt>
<trkpt lat="27.931995" lon="41.321413">
<ele>864.704</ele>
</trkpt>
<trkpt lat="27.932867" lon="41.320619">
<ele>860.826</ele>
</trkpt>
<trkpt lat="27.933834" lon="41.319546">
<ele>866.264</ele>
</trkpt>
<trkpt lat="27.934668" lon="41.318409">
<ele>876.284</ele>
</trkpt>
<trkpt lat="27.934779" lon="41.318244">
<ele>878.447</ele>
</trkpt>
<trkpt lat="27.935218" lon="41.317593">
<ele>878.24</ele>
</trkpt>
<trkpt lat="27.935844" lon="41.316435">
<ele>868.198</ele>
</trkpt>
<trkpt lat="27.936374" lon="41.315576">
<ele>856.431</ele>
</trkpt>
<trkpt lat="27.937815" lon="41.313774">
<ele>861.787</ele>
</trkpt>
<trkpt lat="27.938896" lon="41.312744">
<ele>860.051</ele>
</trkpt>
<trkpt lat="27.941986" lon="41.310362">
<ele>860.661</ele>
</trkpt>
<trkpt lat="27.943388" lon="41.309096">
<ele>866.401</ele>
</trkpt>
<trkpt lat="27.944564" lon="41.307744">
<ele>870.451</ele>
</trkpt>
<trkpt lat="27.945663" lon="41.306371">
<ele>878.766</ele>
</trkpt>
<trkpt lat="27.946383" lon="41.305148">
<ele>867.575</ele>
</trkpt>
<trkpt lat="27.947596" lon="41.303345">
<ele>880.254</ele>
</trkpt>
<trkpt lat="27.948961" lon="41.301693">
<ele>864.284</ele>
</trkpt>
<trkpt lat="27.95025" lon="41.300341">
<ele>874.723</ele>
</trkpt>
<trkpt lat="27.951406" lon="41.299354">
<ele>881.552</ele>
</trkpt>
<trkpt lat="27.952165" lon="41.298796">
<ele>882.009</ele>
</trkpt>
<trkpt lat="27.953093" lon="41.298174">
<ele>882.631</ele>
</trkpt>
<trkpt lat="27.954761" lon="41.297273">
<ele>880.731</ele>
</trkpt>
<trkpt lat="27.960504" lon="41.294655">
<ele>875.859</ele>
</trkpt>
<trkpt lat="27.961869" lon="41.293904">
<ele>872.558</ele>
</trkpt>
<trkpt lat="27.963176" lon="41.293067">
<ele>874.498</ele>
</trkpt>
<trkpt lat="27.963897" lon="41.292531">
<ele>876.138</ele>
</trkpt>
<trkpt lat="27.966019" lon="41.290707">
<ele>878.337</ele>
</trkpt>
<trkpt lat="27.972842" lon="41.284548">
<ele>849.271</ele>
</trkpt>
<trkpt lat="27.974282" lon="41.283368">
<ele>848.613</ele>
</trkpt>
<trkpt lat="27.975912" lon="41.28221">
<ele>857.025</ele>
</trkpt>
<trkpt lat="27.977864" lon="41.280922">
<ele>876.249</ele>
</trkpt>
<trkpt lat="27.979721" lon="41.279871">
<ele>884.527</ele>
</trkpt>
<trkpt lat="27.981293" lon="41.279055">
<ele>877.608</ele>
</trkpt>
<trkpt lat="27.983435" lon="41.278111">
<ele>874.732</ele>
</trkpt>
<trkpt lat="27.992833" lon="41.274764">
<ele>858.102</ele>
</trkpt>
<trkpt lat="27.99577" lon="41.273476">
<ele>870.316</ele>
</trkpt>
<trkpt lat="28.002559" lon="41.270395">
<ele>863.691</ele>
</trkpt>
<trkpt lat="28.003304" lon="41.270018">
<ele>869.649</ele>
</trkpt>
<trkpt lat="28.004006" lon="41.269606">
<ele>868.078</ele>
</trkpt>
<trkpt lat="28.005618" lon="41.268464">
<ele>867.923</ele>
</trkpt>
<trkpt lat="28.006652" lon="41.267557">
<ele>853.311</ele>
</trkpt>
<trkpt lat="28.007635" lon="41.266609">
<ele>843.077</ele>
</trkpt>
<trkpt lat="28.00895" lon="41.265078">
<ele>841.599</ele>
</trkpt>
<trkpt lat="28.010385" lon="41.263141">
<ele>863.308</ele>
</trkpt>
<trkpt lat="28.011554" lon="41.261787">
<ele>886.23</ele>
</trkpt>
<trkpt lat="28.012318" lon="41.261104">
<ele>889.613</ele>
</trkpt>
<trkpt lat="28.013732" lon="41.260026">
<ele>887.363</ele>
</trkpt>
<trkpt lat="28.01433" lon="41.259626">
<ele>886.087</ele>
</trkpt>
<trkpt lat="28.016113" lon="41.258572">
<ele>869.849</ele>
</trkpt>
<trkpt lat="28.018374" lon="41.256841">
<ele>860.327</ele>
</trkpt>
<trkpt lat="28.019513" lon="41.25584">
<ele>851.53</ele>
</trkpt>
<trkpt lat="28.020646" lon="41.25468">
<ele>849.531</ele>
</trkpt>
<trkpt lat="28.021789" lon="41.253308">
<ele>847.095</ele>
</trkpt>
<trkpt lat="28.022335" lon="41.252513">
<ele>857.435</ele>
</trkpt>
<trkpt lat="28.023525" lon="41.250505">
<ele>882.438</ele>
</trkpt>
<trkpt lat="28.027912" lon="41.243745">
<ele>846.0</ele>
</trkpt>
<trkpt lat="28.02903" lon="41.241932">
<ele>846.552</ele>
</trkpt>
<trkpt lat="28.029513" lon="41.241061">
<ele>848.674</ele>
</trkpt>
<trkpt lat="28.029913" lon="41.240177">
<ele>851.848</ele>
</trkpt>
<trkpt lat="28.030267" lon="41.239218">
<ele>850.752</ele>
</trkpt>
<trkpt lat="28.030558" lon="41.23827">
<ele>853.772</ele>
</trkpt>
<trkpt lat="28.030838" lon="41.237198">
<ele>850.052</ele>
</trkpt>
<trkpt lat="28.031062" lon="41.235973">
<ele>841.535</ele>
</trkpt>
<trkpt lat="28.031192" lon="41.234837">
<ele>840.049</ele>
</trkpt>
<trkpt lat="28.031212" lon="41.232817">
<ele>845.726</ele>
</trkpt>
<trkpt lat="28.030838" lon="41.229096">
<ele>858.784</ele>
</trkpt>
<trkpt lat="28.030781" lon="41.228077">
<ele>864.343</ele>
</trkpt>
<trkpt lat="28.030823" lon="41.226982">
<ele>864.167</ele>
</trkpt>
<trkpt lat="28.030927" lon="41.225999">
<ele>867.0</ele>
</trkpt>
<trkpt lat="28.031062" lon="41.22521">
<ele>861.732</ele>
</trkpt>
<trkpt lat="28.03128" lon="41.224221">
<ele>859.217</ele>
</trkpt>
<trkpt lat="28.032345" lon="41.220358">
<ele>853.725</ele>
</trkpt>
<trkpt lat="28.03274" lon="41.218468">
<ele>864.592</ele>
</trkpt>
<trkpt lat="28.032902" lon="41.217384">
<ele>866.754</ele>
</trkpt>
<trkpt lat="28.033099" lon="41.215577">
<ele>869.857</ele>
</trkpt>
<trkpt lat="28.033125" lon="41.214446">
<ele>874.74</ele>
</trkpt>
<trkpt lat="28.033141" lon="41.213269">
<ele>873.762</ele>
</trkpt>
<trkpt lat="28.033026" lon="41.208888">
<ele>875.574</ele>
</trkpt>
<trkpt lat="28.033141" lon="41.206297">
<ele>872.875</ele>
</trkpt>
<trkpt lat="28.033447" lon="41.203942">
<ele>879.679</ele>
</trkpt>
<trkpt lat="28.033728" lon="41.202499">
<ele>886.586</ele>
</trkpt>
<trkpt lat="28.034622" lon="41.198684">
<ele>878.541</ele>
</trkpt>
<trkpt lat="28.034809" lon="41.197418">
<ele>874.937</ele>
</trkpt>
<trkpt lat="28.034964" lon="41.195293">
<ele>877.7</ele>
</trkpt>
<trkpt lat="28.034943" lon="41.194232">
<ele>887.914</ele>
</trkpt>
<trkpt lat="28.034801" lon="41.192252">
<ele>890.187</ele>
</trkpt>
<trkpt lat="28.034422" lon="41.189671">
<ele>870.868</ele>
</trkpt>
<trkpt lat="28.033085" lon="41.185139">
<ele>855.735</ele>
</trkpt>
<trkpt lat="28.032811" lon="41.184031">
<ele>863.178</ele>
</trkpt>
<trkpt lat="28.032617" lon="41.183035">
<ele>870.031</ele>
</trkpt>
<trkpt lat="28.032469" lon="41.181991">
<ele>873.218</ele>
</trkpt>
<trkpt lat="28.032353" lon="41.180209">
<ele>875.616</ele>
</trkpt>
<trkpt lat="28.032348" lon="41.179058">
<ele>873.913</ele>
</trkpt>
<trkpt lat="28.032391" lon="41.17701">
<ele>866.857</ele>
</trkpt>
<trkpt lat="28.032488" lon="41.17244">
<ele>871.482</ele>
</trkpt>
<trkpt lat="28.032608" lon="41.166735">
<ele>874.024</ele>
</trkpt>
<trkpt lat="28.032796" lon="41.16311">
<ele>872.589</ele>
</trkpt>
<trkpt lat="28.033641" lon="41.153897">
<ele>856.062</ele>
</trkpt>
<trkpt lat="28.033958" lon="41.151708">
<ele>858.2</ele>
</trkpt>
<trkpt lat="28.034201" lon="41.150501">
<ele>855.854</ele>
</trkpt>
<trkpt lat="28.035476" lon="41.14547">
<ele>862.833</ele>
</trkpt>
<trkpt lat="28.035718" lon="41.14439">
<ele>863.585</ele>
</trkpt>
<trkpt lat="28.035977" lon="41.142921">
<ele>862.251</ele>
</trkpt>
<trkpt lat="28.039954" lon="41.114674">
<ele>861.698</ele>
</trkpt>
<trkpt lat="28.040471" lon="41.112278">
<ele>862.495</ele>
</trkpt>
<trkpt lat="28.040767" lon="41.111211">
<ele>858.369</ele>
</trkpt>
<trkpt lat="28.041531" lon="41.109021">
<ele>858.67</ele>
</trkpt>
<trkpt lat="28.043055" lon="41.105291">
<ele>859.85</ele>
</trkpt>
<trkpt lat="28.043596" lon="41.103802">
<ele>858.616</ele>
</trkpt>
<trkpt lat="28.044009" lon="41.102517">
<ele>853.939</ele>
</trkpt>
<trkpt lat="28.044363" lon="41.101239">
<ele>849.707</ele>
</trkpt>
<trkpt lat="28.045793" lon="41.094567">
<ele>860.668</ele>
</trkpt>
<trkpt lat="28.046212" lon="41.092924">
<ele>858.314</ele>
</trkpt>
<trkpt lat="28.046573" lon="41.091822">
<ele>860.255</ele>
</trkpt>
<trkpt lat="28.046947" lon="41.09088">
<ele>860.002</ele>
</trkpt>
<trkpt lat="28.048364" lon="41.087939">
<ele>850.277</ele>
</trkpt>
<trkpt lat="28.048802" lon="41.086917">
<ele>854.321</ele>
</trkpt>
<trkpt lat="28.049698" lon="41.084361">
<ele>845.939</ele>
</trkpt>
<trkpt lat="28.050058" lon="41.083135">
<ele>845.419</ele>
</trkpt>
<trkpt lat="28.050471" lon="41.080565">
<ele>871.898</ele>
</trkpt>
<trkpt lat="28.050625" lon="41.079157">
<ele>869.43</ele>
</trkpt>
<trkpt lat="28.050677" lon="41.078091">
<ele>865.256</ele>
</trkpt>
<trkpt lat="28.050677" lon="41.077047">
<ele>870.541</ele>
</trkpt>
<trkpt lat="28.050613" lon="41.075623">
<ele>874.978</ele>
</trkpt>
<trkpt lat="28.050252" lon="41.071032">
<ele>862.709</ele>
</trkpt>
<trkpt lat="28.050232" lon="41.069812">
<ele>856.088</ele>
</trkpt>
<trkpt lat="28.050261" lon="41.06744">
<ele>860.79</ele>
</trkpt>
<trkpt lat="28.050377" lon="41.065898">
<ele>867.072</ele>
</trkpt>
<trkpt lat="28.050565" lon="41.064444">
<ele>869.932</ele>
</trkpt>
<trkpt lat="28.05139" lon="41.059554">
<ele>855.178</ele>
</trkpt>
<trkpt lat="28.051661" lon="41.058413">
<ele>859.23</ele>
</trkpt>
<trkpt lat="28.051943" lon="41.057461">
<ele>864.994</ele>
</trkpt>
<trkpt lat="28.052253" lon="41.05669">
<ele>868.036</ele>
</trkpt>
<trkpt lat="28.052601" lon="41.055981">
<ele>866.425</ele>
</trkpt>
<trkpt lat="28.052927" lon="41.055367">
<ele>860.055</ele>
</trkpt>
<trkpt lat="28.053752" lon="41.054051">
<ele>849.944</ele>
</trkpt>
<trkpt lat="28.054128" lon="41.053236">
<ele>857.16</ele>
</trkpt>
<trkpt lat="28.054465" lon="41.052484">
<ele>855.226</ele>
</trkpt>
<trkpt lat="28.054858" lon="41.05143">
<ele>860.902</ele>
</trkpt>
<trkpt lat="28.055157" lon="41.050396">
<ele>862.554</ele>
</trkpt>
<trkpt lat="28.055494" lon="41.048917">
<ele>870.692</ele>
</trkpt>
<trkpt lat="28.056272" lon="41.044057">
<ele>881.0</ele>
</trkpt>
<trkpt lat="28.056358" lon="41.043665">
<ele>880.194</ele>
</trkpt>
<trkpt lat="28.05656" lon="41.042662">
<ele>876.033</ele>
</trkpt>
<trkpt lat="28.056922" lon="41.041562">
<ele>876.02</ele>
</trkpt>
<trkpt lat="28.057399" lon="41.040522">
<ele>870.0</ele>
</trkpt>
<trkpt lat="28.058127" lon="41.03946">
<ele>870.284</ele>
</trkpt>
<trkpt lat="28.058948" lon="41.038568">
<ele>867.885</ele>
</trkpt>
<trkpt lat="28.059457" lon="41.038142">
<ele>867.613</ele>
</trkpt>
<trkpt lat="28.06092" lon="41.037026">
<ele>869.816</ele>
</trkpt>
<trkpt lat="28.062114" lon="41.036104">
<ele>875.0</ele>
</trkpt>
<trkpt lat="28.062623" lon="41.035658">
<ele>873.089</ele>
</trkpt>
<trkpt lat="28.062922" lon="41.035339">
<ele>869.922</ele>
</trkpt>
<trkpt lat="28.063221" lon="41.035001">
<ele>869.0</ele>
</trkpt>
<trkpt lat="28.063612" lon="41.03434">
<ele>866.006</ele>
</trkpt>
<trkpt lat="28.063901" lon="41.03379">
<ele>867.499</ele>
</trkpt>
<trkpt lat="28.064119" lon="41.033229">
<ele>869.938</ele>
</trkpt>
<trkpt lat="28.064158" lon="41.033131">
<ele>870.147</ele>
</trkpt>
<trkpt lat="28.061776" lon="41.032132">
<ele>854.888</ele>
</trkpt>
<trkpt lat="28.058206" lon="41.030652">
<ele>887.264</ele>
</trkpt>
<trkpt lat="28.057471" lon="41.030355">
<ele>887.167</ele>
</trkpt>
<trkpt lat="28.055106" lon="41.029358">
<ele>864.374</ele>
</trkpt>
<trkpt lat="28.051931" lon="41.028073">
<ele>850.111</ele>
</trkpt>
<trkpt lat="28.050555" lon="41.027515">
<ele>850.002</ele>
</trkpt>
<trkpt lat="28.049493" lon="41.027072">
<ele>842.634</ele>
</trkpt>
<trkpt lat="28.04827" lon="41.02656">
<ele>838.719</ele>
</trkpt>
<trkpt lat="28.046998" lon="41.026024">
<ele>842.386</ele>
</trkpt>
<trkpt lat="28.045589" lon="41.025408">
<ele>831.058</ele>
</trkpt>
<trkpt lat="28.044012" lon="41.024742">
<ele>835.926</ele>
</trkpt>
<trkpt lat="28.042255" lon="41.024003">
<ele>823.777</ele>
</trkpt>
<trkpt lat="28.040934" lon="41.023461">
<ele>818.547</ele>
</trkpt>
<trkpt lat="28.040238" lon="41.023165">
<ele>818.555</ele>
</trkpt>
<trkpt lat="28.039232" lon="41.022734">
<ele>821.0</ele>
</trkpt>
<trkpt lat="28.037741" lon="41.022093">
<ele>812.938</ele>
</trkpt>
<trkpt lat="28.036436" lon="41.02155">
<ele>809.198</ele>
</trkpt>
<trkpt lat="28.034918" lon="41.020922">
<ele>819.542</ele>
</trkpt>
<trkpt lat="28.032765" lon="41.02001">
<ele>806.992</ele>
</trkpt>
<trkpt lat="28.032085" lon="41.01972">
<ele>806.494</ele>
</trkpt>
<trkpt lat="28.031579" lon="41.019535">
<ele>806.439</ele>
</trkpt>
<trkpt lat="28.031095" lon="41.0194">
<ele>807.049</ele>
</trkpt>
<trkpt lat="28.03067" lon="41.01932">
<ele>806.964</ele>
</trkpt>
<trkpt lat="28.030339" lon="41.019252">
<ele>807.627</ele>
</trkpt>
<trkpt lat="28.030181" lon="41.019234">
<ele>808.433</ele>
</trkpt>
<trkpt lat="28.030083" lon="41.019215">
<ele>808.823</ele>
</trkpt>
<trkpt lat="28.029505" lon="41.019176">
<ele>807.74</ele>
</trkpt>
<trkpt lat="28.029478" lon="41.019096">
<ele>807.077</ele>
</trkpt>
<trkpt lat="28.029435" lon="41.019027">
<ele>806.497</ele>
</trkpt>
<trkpt lat="28.029378" lon="41.018972">
<ele>806.299</ele>
</trkpt>
<trkpt lat="28.02931" lon="41.018935">
<ele>806.166</ele>
</trkpt>
<trkpt lat="28.029237" lon="41.018918">
<ele>806.105</ele>
</trkpt>
<trkpt lat="28.028722" lon="41.014815">
<ele>808.2</ele>
</trkpt>
<trkpt lat="28.028418" lon="41.011532">
<ele>802.305</ele>
</trkpt>
<trkpt lat="28.028251" lon="41.007792">
<ele>804.245</ele>
</trkpt>
<trkpt lat="28.028211" lon="41.006084">
<ele>804.56</ele>
</trkpt>
<trkpt lat="28.028207" lon="41.005949">
<ele>804.545</ele>
</trkpt>
<trkpt lat="28.028282" lon="41.001025">
<ele>803.493</ele>
</trkpt>
<trkpt lat="28.028291" lon="41.000828">
<ele>805.006</ele>
</trkpt>
<trkpt lat="28.028341" lon="41.000646">
<ele>804.972</ele>
</trkpt>
<trkpt lat="28.028379" lon="41.000611">
<ele>804.836</ele>
</trkpt>
<trkpt lat="28.02841" lon="41.000569">
<ele>804.724</ele>
</trkpt>
<trkpt lat="28.028415" lon="41.000559">
<ele>804.706</ele>
</trkpt>
<trkpt lat="28.028433" lon="41.000521">
<ele>804.517</ele>
</trkpt>
<trkpt lat="28.028446" lon="41.000468">
<ele>804.279</ele>
</trkpt>
<trkpt lat="28.028451" lon="41.000413">
<ele>804.063</ele>
</trkpt>
<trkpt lat="28.028446" lon="41.000359">
<ele>803.887</ele>
</trkpt>
<trkpt lat="28.028432" lon="41.000308">
<ele>803.754</ele>
</trkpt>
<trkpt lat="28.028409" lon="41.00026">
<ele>803.553</ele>
</trkpt>
<trkpt lat="28.028378" lon="41.000219">
<ele>803.238</ele>
</trkpt>
<trkpt lat="28.028354" lon="41.000197">
<ele>803.075</ele>
</trkpt>
<trkpt lat="28.028299" lon="40.999893">
<ele>800.862</ele>
</trkpt>
<trkpt lat="28.028375" lon="40.994967">
<ele>804.013</ele>
</trkpt>
<trkpt lat="28.02839" lon="40.994046">
<ele>803.0</ele>
</trkpt>
<trkpt lat="28.028391" lon="40.993955">
<ele>803.0</ele>
</trkpt>
<trkpt lat="28.028509" lon="40.988357">
<ele>805.377</ele>
</trkpt>
<trkpt lat="28.028608" lon="40.983422">
<ele>799.304</ele>
</trkpt>
<trkpt lat="28.028681" lon="40.983163">
<ele>798.943</ele>
</trkpt>
<trkpt lat="28.028736" lon="40.98309">
<ele>798.662</ele>
</trkpt>
<trkpt lat="28.028751" lon="40.983047">
<ele>798.512</ele>
</trkpt>
<trkpt lat="28.028768" lon="40.983">
<ele>798.548</ele>
</trkpt>
<trkpt lat="28.028774" lon="40.982904">
<ele>798.734</ele>
</trkpt>
<trkpt lat="28.028753" lon="40.98281">
<ele>798.941</ele>
</trkpt>
<trkpt lat="28.028742" lon="40.98279">
<ele>798.979</ele>
</trkpt>
<trkpt lat="28.028707" lon="40.982729">
<ele>799.176</ele>
</trkpt>
<trkpt lat="28.028641" lon="40.982668">
<ele>799.395</ele>
</trkpt>
<trkpt lat="28.028612" lon="40.982352">
<ele>800.531</ele>
</trkpt>
<trkpt lat="28.028734" lon="40.974756">
<ele>798.564</ele>
</trkpt>
<trkpt lat="28.028778" lon="40.973107">
<ele>798.111</ele>
</trkpt>
<trkpt lat="28.028814" lon="40.971753">
<ele>800.318</ele>
</trkpt>
<trkpt lat="28.028862" lon="40.97037">
<ele>802.171</ele>
</trkpt>
<trkpt lat="28.02893" lon="40.96842">
<ele>800.788</ele>
</trkpt>
<trkpt lat="28.02904" lon="40.965211">
<ele>800.566</ele>
</trkpt>
<trkpt lat="28.029057" lon="40.964699">
<ele>801.807</ele>
</trkpt>
<trkpt lat="28.029197" lon="40.961065">
<ele>801.184</ele>
</trkpt>
<trkpt lat="28.029231" lon="40.958369">
<ele>800.941</ele>
</trkpt>
<trkpt lat="28.029272" lon="40.95653">
<ele>800.187</ele>
</trkpt>
<trkpt lat="28.029274" lon="40.956433">
<ele>800.325</ele>
</trkpt>
<trkpt lat="28.029283" lon="40.955872">
<ele>801.419</ele>
</trkpt>
<trkpt lat="28.029299" lon="40.954777">
<ele>802.476</ele>
</trkpt>
<trkpt lat="28.029334" lon="40.953193">
<ele>803.197</ele>
</trkpt>
<trkpt lat="28.029345" lon="40.950956">
<ele>800.842</ele>
</trkpt>
<trkpt lat="28.029397" lon="40.947036">
<ele>803.159</ele>
</trkpt>
<trkpt lat="28.029502" lon="40.94634">
<ele>802.068</ele>
</trkpt>
<trkpt lat="28.029657" lon="40.945108">
<ele>802.532</ele>
</trkpt>
<trkpt lat="28.029779" lon="40.943226">
<ele>800.079</ele>
</trkpt>
<trkpt lat="28.029706" lon="40.942748">
<ele>801.101</ele>
</trkpt>
<trkpt lat="28.029794" lon="40.94215">
<ele>801.584</ele>
</trkpt>
<trkpt lat="28.029891" lon="40.941485">
<ele>802.215</ele>
</trkpt>
<trkpt lat="28.030032" lon="40.940598">
<ele>800.153</ele>
</trkpt>
<trkpt lat="28.03013" lon="40.939975">
<ele>800.042</ele>
</trkpt>
<trkpt lat="28.030158" lon="40.939575">
<ele>800.569</ele>
</trkpt>
<trkpt lat="28.029956" lon="40.938749">
<ele>799.661</ele>
</trkpt>
<trkpt lat="28.029748" lon="40.938745">
<ele>800.393</ele>
</trkpt>
<trkpt lat="28.029501" lon="40.937958">
<ele>802.351</ele>
</trkpt>
<trkpt lat="28.029361" lon="40.937603">
<ele>803.0</ele>
</trkpt>
<trkpt lat="28.028833" lon="40.937617">
<ele>802.135</ele>
</trkpt>
<trkpt lat="28.028743" lon="40.937034">
<ele>804.355</ele>
</trkpt>
<trkpt lat="28.028245" lon="40.93651">
<ele>804.615</ele>
</trkpt>
</trkseg>
<trkseg>
<extensions>
	<type>walk</type>
</extensions>
<trkpt lat="28.028245" lon="40.93651">
<ele>804.615</ele>
</trkpt>
<trkpt lat="28.028095" lon="40.936352">
<ele>804.725</ele>
</trkpt>
<trkpt lat="28.027931" lon="40.935791">
<ele>803.932</ele>
</trkpt>
<trkpt lat="28.027951" lon="40.934778">
<ele>803.201</ele>
</trkpt>
<trkpt lat="28.027842" lon="40.933978">
<ele>803.09</ele>
</trkpt>
<trkpt lat="28.029107" lon="40.934034">
<ele>806.093</ele>
</trkpt>
<trkpt lat="28.029628" lon="40.933999">
<ele>807.264</ele>
</trkpt>
<trkpt lat="28.030347" lon="40.934082">
<ele>809.859</ele>
</trkpt>
<trkpt lat="28.03092" lon="40.934442">
<ele>809.318</ele>
</trkpt>
<trkpt lat="28.031006" lon="40.934675">
<ele>809.308</ele>
</trkpt>
<trkpt lat="28.031117" lon="40.934715">
<ele>810.0</ele>
</trkpt>
<trkpt lat="28.031479" lon="40.93467">
<ele>809.412</ele>
</trkpt>
<trkpt lat="28.032317" lon="40.934093">
<ele>808.233</ele>
</trkpt>
<trkpt lat="28.033371" lon="40.933755">
<ele>814.271</ele>
</trkpt>
<trkpt lat="28.035035" lon="40.933296">
<ele>820.722</ele>
</trkpt>
<trkpt lat="28.035793" lon="40.933122">
<ele>827.094</ele>
</trkpt>
<trkpt lat="28.035803" lon="40.934404">
<ele>832.021</ele>
</trkpt>
<trkpt lat="28.035897" lon="40.934393">
<ele>832.228</ele>
</trkpt>
<trkpt lat="28.036264" lon="40.934235">
<ele>832.543</ele>
</trkpt>
<trkpt lat="28.037005" lon="40.933326">
<ele>829.444</ele>
</trkpt>
<trkpt lat="28.037178" lon="40.932985">
<ele>824.665</ele>
</trkpt>
<trkpt lat="28.037814" lon="40.931947">
<ele>826.746</ele>
</trkpt>
<trkpt lat="28.038255" lon="40.93052">
<ele>832.8</ele>
</trkpt>
<trkpt lat="28.038693" lon="40.929598">
<ele>827.885</ele>
</trkpt>
<trkpt lat="28.039126" lon="40.928326">
<ele>832.884</ele>
</trkpt>
<trkpt lat="28.039763" lon="40.928109">
<ele>824.34</ele>
</trkpt>
<trkpt lat="28.040584" lon="40.926838">
<ele>816.525</ele>
</trkpt>
<trkpt lat="28.041155" lon="40.926159">
<ele>820.145</ele>
</trkpt>
<trkpt lat="28.041874" lon="40.925531">
<ele>820.217</ele>
</trkpt>
<trkpt lat="28.0425345" lon="40.9265033">
<ele>825.806</ele>
</trkpt>
</trkseg>
<trkseg>
<extensions>
	<type>walk</type>
</extensions>
<trkpt lat="28.0425345" lon="40.9265033">
<ele>825.806</ele>
</trkpt>
<trkpt lat="28.041874" lon="40.925531">
<ele>820.217</ele>
</trkpt>
<trkpt lat="28.041155" lon="40.926159">
<ele>820.145</ele>
</trkpt>
<trkpt lat="28.040584" lon="40.926838">
<ele>816.525</ele>
</trkpt>
<trkpt lat="28.039763" lon="40.928109">
<ele>824.34</ele>
</trkpt>
<trkpt lat="28.039126" lon="40.928326">
<ele>832.884</ele>
</trkpt>
<trkpt lat="28.038693" lon="40.929598">
<ele>827.885</ele>
</trkpt>
<trkpt lat="28.038255" lon="40.93052">
<ele>832.8</ele>
</trkpt>
<trkpt lat="28.037814" lon="40.931947">
<ele>826.746</ele>
</trkpt>
<trkpt lat="28.037178" lon="40.932985">
<ele>824.665</ele>
</trkpt>
<trkpt lat="28.037005" lon="40.933326">
<ele>829.444</ele>
</trkpt>
<trkpt lat="28.036264" lon="40.934235">
<ele>832.543</ele>
</trkpt>
<trkpt lat="28.035897" lon="40.934393">
<ele>832.228</ele>
</trkpt>
<trkpt lat="28.035803" lon="40.934404">
<ele>832.021</ele>
</trkpt>
<trkpt lat="28.035793" lon="40.933122">
<ele>827.094</ele>
</trkpt>
<trkpt lat="28.035035" lon="40.933296">
<ele>820.722</ele>
</trkpt>
<trkpt lat="28.033371" lon="40.933755">
<ele>814.271</ele>
</trkpt>
<trkpt lat="28.032317" lon="40.934093">
<ele>808.233</ele>
</trkpt>
<trkpt lat="28.031479" lon="40.93467">
<ele>809.412</ele>
</trkpt>
<trkpt lat="28.031117" lon="40.934715">
<ele>810.0</ele>
</trkpt>
<trkpt lat="28.031006" lon="40.934675">
<ele>809.308</ele>
</trkpt>
<trkpt lat="28.03092" lon="40.934442">
<ele>809.318</ele>
</trkpt>
<trkpt lat="28.030347" lon="40.934082">
<ele>809.859</ele>
</trkpt>
<trkpt lat="28.029628" lon="40.933999">
<ele>807.264</ele>
</trkpt>
<trkpt lat="28.029107" lon="40.934034">
<ele>806.093</ele>
</trkpt>
<trkpt lat="28.027842" lon="40.933978">
<ele>803.09</ele>
</trkpt>
<trkpt lat="28.027951" lon="40.934778">
<ele>803.201</ele>
</trkpt>
<trkpt lat="28.027931" lon="40.935791">
<ele>803.932</ele>
</trkpt>
<trkpt lat="28.028068" lon="40.936259">
<ele>804.488</ele>
</trkpt>
<trkpt lat="28.0283262" lon="40.9361614">
<ele>803.207</ele>
</trkpt>
</trkseg>
<trkseg>
<extensions>
	<type>drive</type>
</extensions>
<trkpt lat="28.028068" lon="40.936258">
<ele>804.484</ele>
</trkpt>
<trkpt lat="28.028095" lon="40.936352">
<ele>804.725</ele>
</trkpt>
<trkpt lat="28.028743" lon="40.937034">
<ele>804.355</ele>
</trkpt>
<trkpt lat="28.028833" lon="40.937617">
<ele>802.135</ele>
</trkpt>
<trkpt lat="28.029361" lon="40.937603">
<ele>803.0</ele>
</trkpt>
<trkpt lat="28.029501" lon="40.937958">
<ele>802.351</ele>
</trkpt>
<trkpt lat="28.029748" lon="40.938745">
<ele>800.393</ele>
</trkpt>
<trkpt lat="28.029347" lon="40.938737">
<ele>801.612</ele>
</trkpt>
<trkpt lat="28.028662" lon="40.938465">
<ele>801.474</ele>
</trkpt>
<trkpt lat="28.028509" lon="40.938422">
<ele>801.319</ele>
</trkpt>
<trkpt lat="28.027906" lon="40.938539">
<ele>800.741</ele>
</trkpt>
<trkpt lat="28.027764" lon="40.938539">
<ele>800.506</ele>
</trkpt>
<trkpt lat="28.026905" lon="40.938428">
<ele>803.659</ele>
</trkpt>
<trkpt lat="28.026352" lon="40.938612">
<ele>803.126</ele>
</trkpt>
<trkpt lat="28.025762" lon="40.93878">
<ele>806.683</ele>
</trkpt>
<trkpt lat="28.024917" lon="40.938836">
<ele>802.432</ele>
</trkpt>
<trkpt lat="28.02427" lon="40.938607">
<ele>802.0</ele>
</trkpt>
<trkpt lat="28.023507" lon="40.938757">
<ele>805.1</ele>
</trkpt>
<trkpt lat="28.022229" lon="40.938631">
<ele>804.976</ele>
</trkpt>
<trkpt lat="28.021619" lon="40.938654">
<ele>805.0</ele>
</trkpt>
<trkpt lat="28.021263" lon="40.938651">
<ele>804.612</ele>
</trkpt>
</trkseg>
<trkseg>
<extensions>
	<type>drive</type>
</extensions>
<trkpt lat="28.021263" lon="40.938651">
<ele>804.612</ele>
</trkpt>
<trkpt lat="28.020531" lon="40.938645">
<ele>803.989</ele>
</trkpt>
<trkpt lat="28.018906" lon="40.938621">
<ele>804.938</ele>
</trkpt>
<trkpt lat="28.016305" lon="40.938705">
<ele>804.266</ele>
</trkpt>
<trkpt lat="28.012292" lon="40.938921">
<ele>809.116</ele>
</trkpt>
<trkpt lat="28.012248" lon="40.938173">
<ele>808.946</ele>
</trkpt>
<trkpt lat="28.012156" lon="40.936596">
<ele>811.0</ele>
</trkpt>
<trkpt lat="28.012104" lon="40.935053">
<ele>807.961</ele>
</trkpt>
<trkpt lat="28.012059" lon="40.933617">
<ele>808.816</ele>
</trkpt>
<trkpt lat="28.011992" lon="40.931872">
<ele>809.821</ele>
</trkpt>
<trkpt lat="28.012024" lon="40.931711">
<ele>808.965</ele>
</trkpt>
<trkpt lat="28.012058" lon="40.931684">
<ele>808.705</ele>
</trkpt>
<trkpt lat="28.012087" lon="40.93165">
<ele>808.487</ele>
</trkpt>
<trkpt lat="28.012107" lon="40.931609">
<ele>808.415</ele>
</trkpt>
<trkpt lat="28.012119" lon="40.931564">
<ele>808.372</ele>
</trkpt>
<trkpt lat="28.012123" lon="40.931517">
<ele>808.357</ele>
</trkpt>
<trkpt lat="28.012116" lon="40.93147">
<ele>808.382</ele>
</trkpt>
<trkpt lat="28.012101" lon="40.931426">
<ele>808.436</ele>
</trkpt>
<trkpt lat="28.012078" lon="40.931387">
<ele>808.526</ele>
</trkpt>
<trkpt lat="28.012047" lon="40.931355">
<ele>808.721</ele>
</trkpt>
<trkpt lat="28.012011" lon="40.931331">
<ele>808.86</ele>
</trkpt>
<trkpt lat="28.011972" lon="40.931317">
<ele>808.952</ele>
</trkpt>
<trkpt lat="28.01193" lon="40.931313">
<ele>808.986</ele>
</trkpt>
<trkpt lat="28.011624" lon="40.931263">
<ele>808.7</ele>
</trkpt>
<trkpt lat="28.010408" lon="40.931202">
<ele>812.784</ele>
</trkpt>
<trkpt lat="28.010202" lon="40.931194">
<ele>811.809</ele>
</trkpt>
<trkpt lat="28.009994" lon="40.931188">
<ele>811.292</ele>
</trkpt>
<trkpt lat="28.008921" lon="40.931161">
<ele>815.936</ele>
</trkpt>
<trkpt lat="28.00845" lon="40.931135">
<ele>813.702</ele>
</trkpt>
<trkpt lat="28.008161" lon="40.931097">
<ele>815.139</ele>
</trkpt>
<trkpt lat="28.00728" lon="40.930987">
<ele>814.447</ele>
</trkpt>
<trkpt lat="28.006719" lon="40.930955">
<ele>812.289</ele>
</trkpt>
<trkpt lat="28.005539" lon="40.930912">
<ele>811.918</ele>
</trkpt>
<trkpt lat="28.004671" lon="40.930972">
<ele>813.315</ele>
</trkpt>
<trkpt lat="28.004294" lon="40.930984">
<ele>812.21</ele>
</trkpt>
<trkpt lat="28.002672" lon="40.9307">
<ele>815.04</ele>
</trkpt>
<trkpt lat="28.001305" lon="40.930405">
<ele>813.156</ele>
</trkpt>
<trkpt lat="27.999759" lon="40.93018">
<ele>813.226</ele>
</trkpt>
<trkpt lat="27.998518" lon="40.929995">
<ele>813.299</ele>
</trkpt>
<trkpt lat="27.993693" lon="40.929287">
<ele>804.695</ele>
</trkpt>
<trkpt lat="27.989444" lon="40.928667">
<ele>801.197</ele>
</trkpt>
<trkpt lat="27.985482" lon="40.928088">
<ele>799.467</ele>
</trkpt>
<trkpt lat="27.981358" lon="40.927489">
<ele>802.067</ele>
</trkpt>
<trkpt lat="27.977514" lon="40.926924">
<ele>808.872</ele>
</trkpt>
<trkpt lat="27.974316" lon="40.926398">
<ele>824.048</ele>
</trkpt>
<trkpt lat="27.972326" lon="40.926073">
<ele>841.322</ele>
</trkpt>
<trkpt lat="27.97167" lon="40.92592">
<ele>844.964</ele>
</trkpt>
<trkpt lat="27.971324" lon="40.925813">
<ele>849.251</ele>
</trkpt>
<trkpt lat="27.970528" lon="40.92551">
<ele>852.117</ele>
</trkpt>
<trkpt lat="27.970059" lon="40.925303">
<ele>857.181</ele>
</trkpt>
<trkpt lat="27.969533" lon="40.925016">
<ele>869.552</ele>
</trkpt>
<trkpt lat="27.969001" lon="40.924695">
<ele>871.768</ele>
</trkpt>
<trkpt lat="27.968888" lon="40.924642">
<ele>871.0</ele>
</trkpt>
<trkpt lat="27.96884" lon="40.924618">
<ele>871.0</ele>
</trkpt>
<trkpt lat="27.968458" lon="40.924383">
<ele>870.68</ele>
</trkpt>
<trkpt lat="27.968394" lon="40.924528">
<ele>871.0</ele>
</trkpt>
<trkpt lat="27.966527" lon="40.923439">
<ele>868.62</ele>
</trkpt>
<trkpt lat="27.966081" lon="40.923178">
<ele>868.332</ele>
</trkpt>
<trkpt lat="27.962805" lon="40.920842">
<ele>868.84</ele>
</trkpt>
<trkpt lat="27.95976" lon="40.918273">
<ele>897.467</ele>
</trkpt>
<trkpt lat="27.958801" lon="40.917377">
<ele>891.557</ele>
</trkpt>
<trkpt lat="27.957804" lon="40.916537">
<ele>886.867</ele>
</trkpt>
<trkpt lat="27.957215" lon="40.916174">
<ele>886.541</ele>
</trkpt>
<trkpt lat="27.956559" lon="40.915918">
<ele>889.361</ele>
</trkpt>
<trkpt lat="27.955576" lon="40.915656">
<ele>896.123</ele>
</trkpt>
<trkpt lat="27.954519" lon="40.915407">
<ele>894.731</ele>
</trkpt>
<trkpt lat="27.952956" lon="40.914831">
<ele>884.111</ele>
</trkpt>
<trkpt lat="27.951171" lon="40.91393">
<ele>885.434</ele>
</trkpt>
<trkpt lat="27.950372" lon="40.913453">
<ele>894.76</ele>
</trkpt>
<trkpt lat="27.949757" lon="40.912961">
<ele>892.896</ele>
</trkpt>
<trkpt lat="27.949175" lon="40.91232">
<ele>888.708</ele>
</trkpt>
<trkpt lat="27.947199" lon="40.909432">
<ele>867.916</ele>
</trkpt>
<trkpt lat="27.945948" lon="40.907917">
<ele>870.384</ele>
</trkpt>
<trkpt lat="27.943404" lon="40.904803">
<ele>850.038</ele>
</trkpt>
<trkpt lat="27.941989" lon="40.903342">
<ele>841.218</ele>
</trkpt>
<trkpt lat="27.94143" lon="40.902765">
<ele>842.085</ele>
</trkpt>
<trkpt lat="27.940314" lon="40.901542">
<ele>840.551</ele>
</trkpt>
<trkpt lat="27.938361" lon="40.899782">
<ele>845.586</ele>
</trkpt>
<trkpt lat="27.93731" lon="40.898688">
<ele>847.913</ele>
</trkpt>
<trkpt lat="27.935593" lon="40.896585">
<ele>852.88</ele>
</trkpt>
<trkpt lat="27.934992" lon="40.895963">
<ele>854.071</ele>
</trkpt>
<trkpt lat="27.93304" lon="40.894074">
<ele>851.722</ele>
</trkpt>
<trkpt lat="27.93201" lon="40.89313">
<ele>856.151</ele>
</trkpt>
<trkpt lat="27.931259" lon="40.892358">
<ele>860.576</ele>
</trkpt>
<trkpt lat="27.930186" lon="40.891156">
<ele>856.778</ele>
</trkpt>
<trkpt lat="27.929027" lon="40.889719">
<ele>860.011</ele>
</trkpt>
<trkpt lat="27.928147" lon="40.888495">
<ele>868.671</ele>
</trkpt>
<trkpt lat="27.9248" lon="40.884075">
<ele>869.408</ele>
</trkpt>
<trkpt lat="27.922633" lon="40.881586">
<ele>861.479</ele>
</trkpt>
<trkpt lat="27.921216" lon="40.880084">
<ele>869.491</ele>
</trkpt>
<trkpt lat="27.920723" lon="40.879762">
<ele>871.157</ele>
</trkpt>
<trkpt lat="27.920165" lon="40.879462">
<ele>874.29</ele>
</trkpt>
<trkpt lat="27.915294" lon="40.877595">
<ele>864.414</ele>
</trkpt>
<trkpt lat="27.914543" lon="40.877295">
<ele>860.617</ele>
</trkpt>
<trkpt lat="27.913792" lon="40.87693">
<ele>858.948</ele>
</trkpt>
<trkpt lat="27.912891" lon="40.875793">
<ele>860.158</ele>
</trkpt>
<trkpt lat="27.91244" lon="40.875406">
<ele>860.578</ele>
</trkpt>
<trkpt lat="27.91229" lon="40.87517">
<ele>860.851</ele>
</trkpt>
<trkpt lat="27.912183" lon="40.874956">
<ele>861.294</ele>
</trkpt>
<trkpt lat="27.91214" lon="40.874591">
<ele>862.844</ele>
</trkpt>
<trkpt lat="27.912167" lon="40.874007">
<ele>862.311</ele>
</trkpt>
<trkpt lat="27.912075" lon="40.871201">
<ele>858.647</ele>
</trkpt>
<trkpt lat="27.911968" lon="40.870793">
<ele>856.085</ele>
</trkpt>
<trkpt lat="27.910745" lon="40.868261">
<ele>850.578</ele>
</trkpt>
<trkpt lat="27.910423" lon="40.867488">
<ele>851.457</ele>
</trkpt>
<trkpt lat="27.90993" lon="40.864785">
<ele>849.553</ele>
</trkpt>
<trkpt lat="27.90978" lon="40.863798">
<ele>849.208</ele>
</trkpt>
<trkpt lat="27.909758" lon="40.863175">
<ele>848.503</ele>
</trkpt>
<trkpt lat="27.910252" lon="40.861223">
<ele>846.861</ele>
</trkpt>
<trkpt lat="27.910552" lon="40.859721">
<ele>847.0</ele>
</trkpt>
<trkpt lat="27.910681" lon="40.858905">
<ele>848.0</ele>
</trkpt>
<trkpt lat="27.910702" lon="40.858347">
<ele>847.527</ele>
</trkpt>
<trkpt lat="27.910595" lon="40.857639">
<ele>846.429</ele>
</trkpt>
<trkpt lat="27.909586" lon="40.855021">
<ele>846.51</ele>
</trkpt>
<trkpt lat="27.90905" lon="40.853734">
<ele>842.42</ele>
</trkpt>
<trkpt lat="27.907076" lon="40.847726">
<ele>844.912</ele>
</trkpt>
<trkpt lat="27.906754" lon="40.846975">
<ele>841.89</ele>
</trkpt>
<trkpt lat="27.905745" lon="40.845215">
<ele>841.61</ele>
</trkpt>
<trkpt lat="27.904007" lon="40.842533">
<ele>842.949</ele>
</trkpt>
<trkpt lat="27.903128" lon="40.841053">
<ele>836.642</ele>
</trkpt>
<trkpt lat="27.902141" lon="40.839529">
<ele>838.19</ele>
</trkpt>
<trkpt lat="27.901669" lon="40.838714">
<ele>838.005</ele>
</trkpt>
<trkpt lat="27.900939" lon="40.837255">
<ele>841.38</ele>
</trkpt>
<trkpt lat="27.900746" lon="40.836654">
<ele>841.269</ele>
</trkpt>
<trkpt lat="27.900188" lon="40.834315">
<ele>840.323</ele>
</trkpt>
<trkpt lat="27.900038" lon="40.833457">
<ele>840.323</ele>
</trkpt>
<trkpt lat="27.899995" lon="40.832877">
<ele>839.982</ele>
</trkpt>
<trkpt lat="27.900016" lon="40.831804">
<ele>839.437</ele>
</trkpt>
<trkpt lat="27.899871" lon="40.830104">
<ele>835.665</ele>
</trkpt>
</trkseg>
<trkseg>
<extensions>
	<type>drive</type>
</extensions>
<trkpt lat="27.899871" lon="40.830104">
<ele>835.665</ele>
</trkpt>
<trkpt lat="27.899802" lon="40.829294">
<ele>835.426</ele>
</trkpt>
<trkpt lat="27.899609" lon="40.828049">
<ele>836.469</ele>
</trkpt>
<trkpt lat="27.899587" lon="40.827599">
<ele>838.67</ele>
</trkpt>
<trkpt lat="27.899673" lon="40.827126">
<ele>835.769</ele>
</trkpt>
<trkpt lat="27.899759" lon="40.826848">
<ele>835.178</ele>
</trkpt>
<trkpt lat="27.900081" lon="40.826097">
<ele>834.342</ele>
</trkpt>
<trkpt lat="27.900124" lon="40.825603">
<ele>835.905</ele>
</trkpt>
<trkpt lat="27.900081" lon="40.825131">
<ele>836.163</ele>
</trkpt>
<trkpt lat="27.899866" lon="40.82438">
<ele>833.491</ele>
</trkpt>
<trkpt lat="27.899051" lon="40.821934">
<ele>831.06</ele>
</trkpt>
<trkpt lat="27.898257" lon="40.819895">
<ele>829.243</ele>
</trkpt>
<trkpt lat="27.89742" lon="40.818007">
<ele>829.576</ele>
</trkpt>
<trkpt lat="27.896905" lon="40.816698">
<ele>827.255</ele>
</trkpt>
<trkpt lat="27.896562" lon="40.815711">
<ele>830.136</ele>
</trkpt>
<trkpt lat="27.896304" lon="40.814853">
<ele>825.897</ele>
</trkpt>
<trkpt lat="27.896154" lon="40.814123">
<ele>829.154</ele>
</trkpt>
<trkpt lat="27.896025" lon="40.813136">
<ele>826.89</ele>
</trkpt>
<trkpt lat="27.895896" lon="40.812492">
<ele>830.239</ele>
</trkpt>
<trkpt lat="27.895703" lon="40.811827">
<ele>828.582</ele>
</trkpt>
<trkpt lat="27.894223" lon="40.80893">
<ele>827.797</ele>
</trkpt>
<trkpt lat="27.8936" lon="40.807579">
<ele>823.706</ele>
</trkpt>
<trkpt lat="27.893343" lon="40.806951">
<ele>823.987</ele>
</trkpt>
<trkpt lat="27.893257" lon="40.806742">
<ele>824.075</ele>
</trkpt>
<trkpt lat="27.892485" lon="40.804574">
<ele>822.495</ele>
</trkpt>
<trkpt lat="27.891819" lon="40.80318">
<ele>823.351</ele>
</trkpt>
<trkpt lat="27.891412" lon="40.802407">
<ele>822.806</ele>
</trkpt>
<trkpt lat="27.890704" lon="40.800626">
<ele>825.611</ele>
</trkpt>
<trkpt lat="27.889931" lon="40.798888">
<ele>824.751</ele>
</trkpt>
<trkpt lat="27.889609" lon="40.797944">
<ele>826.646</ele>
</trkpt>
<trkpt lat="27.888644" lon="40.795605">
<ele>828.0</ele>
</trkpt>
<trkpt lat="27.887873" lon="40.793166">
<ele>828.574</ele>
</trkpt>
<trkpt lat="27.887563" lon="40.792204">
<ele>829.087</ele>
</trkpt>
<trkpt lat="27.887332" lon="40.79123">
<ele>833.793</ele>
</trkpt>
<trkpt lat="27.887218" lon="40.790608">
<ele>841.135</ele>
</trkpt>
<trkpt lat="27.887124" lon="40.789685">
<ele>853.144</ele>
</trkpt>
<trkpt lat="27.887162" lon="40.788805">
<ele>860.839</ele>
</trkpt>
<trkpt lat="27.887332" lon="40.781338">
<ele>908.061</ele>
</trkpt>
<trkpt lat="27.887332" lon="40.780758">
<ele>915.248</ele>
</trkpt>
<trkpt lat="27.88718" lon="40.78005">
<ele>916.633</ele>
</trkpt>
<trkpt lat="27.886934" lon="40.779557">
<ele>913.782</ele>
</trkpt>
<trkpt lat="27.886574" lon="40.779063">
<ele>907.581</ele>
</trkpt>
<trkpt lat="27.885929" lon="40.778505">
<ele>900.382</ele>
</trkpt>
<trkpt lat="27.885341" lon="40.778012">
<ele>904.524</ele>
</trkpt>
<trkpt lat="27.884829" lon="40.777411">
<ele>917.314</ele>
</trkpt>
<trkpt lat="27.884374" lon="40.776746">
<ele>917.628</ele>
</trkpt>
<trkpt lat="27.881927" lon="40.770502">
<ele>911.3</ele>
</trkpt>
<trkpt lat="27.881604" lon="40.769944">
<ele>908.226</ele>
</trkpt>
<trkpt lat="27.880922" lon="40.768828">
<ele>917.794</ele>
</trkpt>
<trkpt lat="27.880239" lon="40.767991">
<ele>919.8</ele>
</trkpt>
<trkpt lat="27.879252" lon="40.76709">
<ele>921.423</ele>
</trkpt>
<trkpt lat="27.878266" lon="40.766403">
<ele>924.356</ele>
</trkpt>
<trkpt lat="27.872064" lon="40.762412">
<ele>908.116</ele>
</trkpt>
<trkpt lat="27.871343" lon="40.762047">
<ele>915.488</ele>
</trkpt>
<trkpt lat="27.870527" lon="40.761833">
<ele>917.739</ele>
</trkpt>
<trkpt lat="27.869408" lon="40.761661">
<ele>924.409</ele>
</trkpt>
<trkpt lat="27.868627" lon="40.7616">
<ele>926.717</ele>
</trkpt>
<trkpt lat="27.868042" lon="40.761554">
<ele>931.175</ele>
</trkpt>
<trkpt lat="27.866373" lon="40.761125">
<ele>921.886</ele>
</trkpt>
<trkpt lat="27.858728" lon="40.75885">
<ele>904.941</ele>
</trkpt>
<trkpt lat="27.857969" lon="40.75855">
<ele>905.083</ele>
</trkpt>
<trkpt lat="27.857419" lon="40.758206">
<ele>903.074</ele>
</trkpt>
<trkpt lat="27.857021" lon="40.75782">
<ele>902.711</ele>
</trkpt>
<trkpt lat="27.856489" lon="40.757241">
<ele>909.13</ele>
</trkpt>
<trkpt lat="27.855256" lon="40.755739">
<ele>915.471</ele>
</trkpt>
<trkpt lat="27.854649" lon="40.754881">
<ele>910.842</ele>
</trkpt>
<trkpt lat="27.854251" lon="40.754022">
<ele>910.129</ele>
</trkpt>
<trkpt lat="27.854042" lon="40.753336">
<ele>908.782</ele>
</trkpt>
<trkpt lat="27.853966" lon="40.752327">
<ele>920.825</ele>
</trkpt>
<trkpt lat="27.853928" lon="40.750718">
<ele>945.889</ele>
</trkpt>
<trkpt lat="27.853947" lon="40.75016">
<ele>948.633</ele>
</trkpt>
<trkpt lat="27.853871" lon="40.749516">
<ele>953.115</ele>
</trkpt>
<trkpt lat="27.853701" lon="40.748958">
<ele>951.653</ele>
</trkpt>
<trkpt lat="27.853492" lon="40.748422">
<ele>950.389</ele>
</trkpt>
<trkpt lat="27.853113" lon="40.747671">
<ele>946.359</ele>
</trkpt>
<trkpt lat="27.852657" lon="40.747091">
<ele>948.496</ele>
</trkpt>
<trkpt lat="27.850646" lon="40.744817">
<ele>928.612</ele>
</trkpt>
<trkpt lat="27.850305" lon="40.74428">
<ele>933.012</ele>
</trkpt>
<trkpt lat="27.849963" lon="40.743615">
<ele>932.825</ele>
</trkpt>
<trkpt lat="27.849792" lon="40.743057">
<ele>931.759</ele>
</trkpt>
<trkpt lat="27.849527" lon="40.741899">
<ele>927.661</ele>
</trkpt>
<trkpt lat="27.849356" lon="40.741148">
<ele>928.825</ele>
</trkpt>
<trkpt lat="27.84909" lon="40.740375">
<ele>930.519</ele>
</trkpt>
<trkpt lat="27.848635" lon="40.739667">
<ele>928.128</ele>
</trkpt>
<trkpt lat="27.848085" lon="40.739195">
<ele>920.741</ele>
</trkpt>
<trkpt lat="27.847402" lon="40.738766">
<ele>915.21</ele>
</trkpt>
<trkpt lat="27.846681" lon="40.738465">
<ele>903.888</ele>
</trkpt>
<trkpt lat="27.846188" lon="40.738015">
<ele>896.807</ele>
</trkpt>
<trkpt lat="27.845637" lon="40.737178">
<ele>891.897</ele>
</trkpt>
<trkpt lat="27.845372" lon="40.736127">
<ele>923.039</ele>
</trkpt>
<trkpt lat="27.845429" lon="40.73529">
<ele>936.993</ele>
</trkpt>
<trkpt lat="27.845391" lon="40.733916">
<ele>943.397</ele>
</trkpt>
<trkpt lat="27.845258" lon="40.733251">
<ele>943.05</ele>
</trkpt>
<trkpt lat="27.844575" lon="40.731363">
<ele>933.087</ele>
</trkpt>
<trkpt lat="27.844404" lon="40.730612">
<ele>934.466</ele>
</trkpt>
<trkpt lat="27.844101" lon="40.728016">
<ele>919.385</ele>
</trkpt>
<trkpt lat="27.843873" lon="40.726921">
<ele>912.796</ele>
</trkpt>
<trkpt lat="27.843512" lon="40.726106">
<ele>902.662</ele>
</trkpt>
<trkpt lat="27.842772" lon="40.725312">
<ele>896.527</ele>
</trkpt>
<trkpt lat="27.842203" lon="40.724775">
<ele>898.348</ele>
</trkpt>
<trkpt lat="27.841577" lon="40.724496">
<ele>903.115</ele>
</trkpt>
<trkpt lat="27.840628" lon="40.724282">
<ele>911.712</ele>
</trkpt>
<trkpt lat="27.839661" lon="40.724239">
<ele>919.5</ele>
</trkpt>
<trkpt lat="27.837706" lon="40.724218">
<ele>931.863</ele>
</trkpt>
<trkpt lat="27.837042" lon="40.724003">
<ele>926.107</ele>
</trkpt>
<trkpt lat="27.836264" lon="40.723552">
<ele>918.917</ele>
</trkpt>
<trkpt lat="27.83541" lon="40.722887">
<ele>911.345</ele>
</trkpt>
<trkpt lat="27.834765" lon="40.722608">
<ele>905.214</ele>
</trkpt>
<trkpt lat="27.833798" lon="40.722286">
<ele>906.234</ele>
</trkpt>
<trkpt lat="27.830515" lon="40.721514">
<ele>896.07</ele>
</trkpt>
<trkpt lat="27.823418" lon="40.719239">
<ele>913.4</ele>
</trkpt>
<trkpt lat="27.822564" lon="40.718939">
<ele>916.419</ele>
</trkpt>
<trkpt lat="27.822013" lon="40.718617">
<ele>909.003</ele>
</trkpt>
<trkpt lat="27.821292" lon="40.717995">
<ele>907.37</ele>
</trkpt>
<trkpt lat="27.820514" lon="40.717244">
<ele>922.553</ele>
</trkpt>
<trkpt lat="27.819698" lon="40.716536">
<ele>923.558</ele>
</trkpt>
<trkpt lat="27.819091" lon="40.716128">
<ele>927.329</ele>
</trkpt>
<trkpt lat="27.81799" lon="40.715506">
<ele>935.073</ele>
</trkpt>
<trkpt lat="27.816624" lon="40.714798">
<ele>931.189</ele>
</trkpt>
<trkpt lat="27.815371" lon="40.714283">
<ele>920.285</ele>
</trkpt>
<trkpt lat="27.813986" lon="40.713853">
<ele>916.48</ele>
</trkpt>
<trkpt lat="27.813067" lon="40.713575">
<ele>917.745</ele>
</trkpt>
<trkpt lat="27.810808" lon="40.713074">
<ele>906.811</ele>
</trkpt>
<trkpt lat="27.808055" lon="40.712514">
<ele>899.153</ele>
</trkpt>
<trkpt lat="27.806446" lon="40.712187">
<ele>899.746</ele>
</trkpt>
<trkpt lat="27.805157" lon="40.711943">
<ele>896.996</ele>
</trkpt>
<trkpt lat="27.804126" lon="40.711721">
<ele>896.931</ele>
</trkpt>
<trkpt lat="27.803125" lon="40.711231">
<ele>892.182</ele>
</trkpt>
<trkpt lat="27.80261" lon="40.710893">
<ele>897.546</ele>
</trkpt>
<trkpt lat="27.801661" lon="40.710194">
<ele>900.569</ele>
</trkpt>
<trkpt lat="27.800774" lon="40.709809">
<ele>900.407</ele>
</trkpt>
<trkpt lat="27.799773" lon="40.709424">
<ele>903.125</ele>
</trkpt>
<trkpt lat="27.798659" lon="40.709109">
<ele>906.073</ele>
</trkpt>
<trkpt lat="27.79735" lon="40.708911">
<ele>908.546</ele>
</trkpt>
<trkpt lat="27.796329" lon="40.708818">
<ele>908.471</ele>
</trkpt>
<trkpt lat="27.79538" lon="40.708853">
<ele>906.918</ele>
</trkpt>
<trkpt lat="27.79407" lon="40.709086">
<ele>912.029</ele>
</trkpt>
<trkpt lat="27.793214" lon="40.709214">
<ele>908.534</ele>
</trkpt>
<trkpt lat="27.792358" lon="40.709284">
<ele>916.358</ele>
</trkpt>
<trkpt lat="27.791718" lon="40.709249">
<ele>910.054</ele>
</trkpt>
<trkpt lat="27.79079" lon="40.709086">
<ele>903.445</ele>
</trkpt>
<trkpt lat="27.789067" lon="40.708713">
<ele>904.359</ele>
</trkpt>
<trkpt lat="27.787592" lon="40.708421">
<ele>920.408</ele>
</trkpt>
<trkpt lat="27.785436" lon="40.708165">
<ele>927.351</ele>
</trkpt>
<trkpt lat="27.783889" lon="40.70813">
<ele>921.0</ele>
</trkpt>
<trkpt lat="27.781125" lon="40.707838">
<ele>904.428</ele>
</trkpt>
<trkpt lat="27.779784" lon="40.707559">
<ele>901.257</ele>
</trkpt>
<trkpt lat="27.778236" lon="40.707139">
<ele>893.261</ele>
</trkpt>
<trkpt lat="27.776524" lon="40.706614">
<ele>905.067</ele>
</trkpt>
<trkpt lat="27.775038" lon="40.70602">
<ele>916.984</ele>
</trkpt>
<trkpt lat="27.773501" lon="40.705308">
<ele>912.832</ele>
</trkpt>
<trkpt lat="27.772253" lon="40.70469">
<ele>915.66</ele>
</trkpt>
<trkpt lat="27.770922" lon="40.703968">
<ele>914.069</ele>
</trkpt>
<trkpt lat="27.769664" lon="40.703105">
<ele>909.037</ele>
</trkpt>
<trkpt lat="27.766971" lon="40.701181">
<ele>891.887</ele>
</trkpt>
<trkpt lat="27.764938" lon="40.699758">
<ele>879.194</ele>
</trkpt>
<trkpt lat="27.763422" lon="40.698581">
<ele>869.268</ele>
</trkpt>
<trkpt lat="27.762607" lon="40.697765">
<ele>895.523</ele>
</trkpt>
<trkpt lat="27.761905" lon="40.697193">
<ele>896.484</ele>
</trkpt>
<trkpt lat="27.761069" lon="40.696715">
<ele>889.568</ele>
</trkpt>
<trkpt lat="27.760461" lon="40.696459">
<ele>885.105</ele>
</trkpt>
<trkpt lat="27.759821" lon="40.696296">
<ele>891.65</ele>
</trkpt>
<trkpt lat="27.758985" lon="40.696272">
<ele>900.076</ele>
</trkpt>
<trkpt lat="27.758335" lon="40.696226">
<ele>886.265</ele>
</trkpt>
<trkpt lat="27.757293" lon="40.696459">
<ele>885.441</ele>
</trkpt>
<trkpt lat="27.756519" lon="40.69675">
<ele>885.296</ele>
</trkpt>
<trkpt lat="27.755869" lon="40.696844">
<ele>876.872</ele>
</trkpt>
<trkpt lat="27.755271" lon="40.696844">
<ele>878.45</ele>
</trkpt>
<trkpt lat="27.754838" lon="40.696785">
<ele>881.752</ele>
</trkpt>
<trkpt lat="27.75428" lon="40.696575">
<ele>878.139</ele>
</trkpt>
<trkpt lat="27.753837" lon="40.696377">
<ele>883.564</ele>
</trkpt>
<trkpt lat="27.753119" lon="40.695714">
<ele>889.13</ele>
</trkpt>
<trkpt lat="27.752474" lon="40.694735">
<ele>884.813</ele>
</trkpt>
<trkpt lat="27.751896" lon="40.694005">
<ele>888.283</ele>
</trkpt>
<trkpt lat="27.750978" lon="40.69341">
<ele>899.306</ele>
</trkpt>
<trkpt lat="27.750383" lon="40.693045">
<ele>896.621</ele>
</trkpt>
<trkpt lat="27.746423" lon="40.691067">
<ele>869.631</ele>
</trkpt>
<trkpt lat="27.744318" lon="40.689967">
<ele>856.545</ele>
</trkpt>
<trkpt lat="27.744145" lon="40.689876">
<ele>855.809</ele>
</trkpt>
<trkpt lat="27.738553" lon="40.687053">
<ele>850.609</ele>
</trkpt>
<trkpt lat="27.733283" lon="40.684364">
<ele>859.292</ele>
</trkpt>
<trkpt lat="27.731125" lon="40.683212">
<ele>858.88</ele>
</trkpt>
<trkpt lat="27.724665" lon="40.679928">
<ele>859.206</ele>
</trkpt>
<trkpt lat="27.718578" lon="40.676836">
<ele>861.219</ele>
</trkpt>
<trkpt lat="27.717388" lon="40.676356">
<ele>859.071</ele>
</trkpt>
<trkpt lat="27.715433" lon="40.675722">
<ele>861.401</ele>
</trkpt>
<trkpt lat="27.713512" lon="40.675126">
<ele>859.903</ele>
</trkpt>
<trkpt lat="27.711744" lon="40.674877">
<ele>856.795</ele>
</trkpt>
<trkpt lat="27.710162" lon="40.674627">
<ele>856.583</ele>
</trkpt>
<trkpt lat="27.705385" lon="40.674281">
<ele>855.177</ele>
</trkpt>
<trkpt lat="27.700781" lon="40.673586">
<ele>856.657</ele>
</trkpt>
</trkseg>
<trkseg>
<extensions>
	<type>drive</type>
</extensions>
<trkpt lat="27.700781" lon="40.673586">
<ele>856.657</ele>
</trkpt>
<trkpt lat="27.700697" lon="40.673573">
<ele>856.153</ele>
</trkpt>
<trkpt lat="27.700106" lon="40.673483">
<ele>856.432</ele>
</trkpt>
<trkpt lat="27.69992" lon="40.674037">
<ele>857.201</ele>
</trkpt>
<trkpt lat="27.69968" lon="40.674751">
<ele>854.672</ele>
</trkpt>
<trkpt lat="27.696646" lon="40.683963">
<ele>856.287</ele>
</trkpt>
<trkpt lat="27.695871" lon="40.68601">
<ele>858.636</ele>
</trkpt>
<trkpt lat="27.695267" lon="40.687302">
<ele>855.972</ele>
</trkpt>
<trkpt lat="27.676405" lon="40.724062">
<ele>853.471</ele>
</trkpt>
<trkpt lat="27.67639" lon="40.724104">
<ele>853.233</ele>
</trkpt>
<trkpt lat="27.674945" lon="40.726911">
<ele>853.686</ele>
</trkpt>
<trkpt lat="27.674896" lon="40.726992">
<ele>853.835</ele>
</trkpt>
<trkpt lat="27.672963" lon="40.730201">
<ele>858.61</ele>
</trkpt>
<trkpt lat="27.651901" lon="40.759053">
<ele>884.904</ele>
</trkpt>
<trkpt lat="27.648972" lon="40.762518">
<ele>890.0</ele>
</trkpt>
<trkpt lat="27.644353" lon="40.766681">
<ele>889.0</ele>
</trkpt>
<trkpt lat="27.643564" lon="40.767814">
<ele>890.217</ele>
</trkpt>
<trkpt lat="27.642864" lon="40.769108">
<ele>889.901</ele>
</trkpt>
<trkpt lat="27.641462" lon="40.77284">
<ele>883.487</ele>
</trkpt>
<trkpt lat="27.639906" lon="40.774963">
<ele>880.528</ele>
</trkpt>
<trkpt lat="27.637025" lon="40.777566">
<ele>861.395</ele>
</trkpt>
<trkpt lat="27.63526" lon="40.77916">
<ele>866.976</ele>
</trkpt>
<trkpt lat="27.634332" lon="40.780166">
<ele>865.886</ele>
</trkpt>
<trkpt lat="27.633571" lon="40.781377">
<ele>864.711</ele>
</trkpt>
<trkpt lat="27.633175" lon="40.782127">
<ele>864.147</ele>
</trkpt>
<trkpt lat="27.630823" lon="40.786845">
<ele>869.0</ele>
</trkpt>
<trkpt lat="27.630159" lon="40.788202">
<ele>872.572</ele>
</trkpt>
<trkpt lat="27.629152" lon="40.790048">
<ele>872.009</ele>
</trkpt>
<trkpt lat="27.625144" lon="40.79733">
<ele>877.813</ele>
</trkpt>
<trkpt lat="27.623506" lon="40.80043">
<ele>884.829</ele>
</trkpt>
<trkpt lat="27.622563" lon="40.802454">
<ele>885.25</ele>
</trkpt>
<trkpt lat="27.622099" lon="40.803652">
<ele>882.147</ele>
</trkpt>
<trkpt lat="27.621775" lon="40.805004">
<ele>884.428</ele>
</trkpt>
<trkpt lat="27.621102" lon="40.807762">
<ele>886.055</ele>
</trkpt>
<trkpt lat="27.620585" lon="40.809817">
<ele>887.0</ele>
</trkpt>
<trkpt lat="27.619289" lon="40.812065">
<ele>885.191</ele>
</trkpt>
<trkpt lat="27.615728" lon="40.817234">
<ele>886.958</ele>
</trkpt>
<trkpt lat="27.615179" lon="40.818034">
<ele>887.25</ele>
</trkpt>
<trkpt lat="27.609458" lon="40.826363">
<ele>893.005</ele>
</trkpt>
<trkpt lat="27.608168" lon="40.828415">
<ele>894.706</ele>
</trkpt>
<trkpt lat="27.604666" lon="40.834011">
<ele>897.553</ele>
</trkpt>
<trkpt lat="27.603013" lon="40.836669">
<ele>901.685</ele>
</trkpt>
<trkpt lat="27.60088" lon="40.840089">
<ele>902.0</ele>
</trkpt>
<trkpt lat="27.593207" lon="40.85239">
<ele>904.365</ele>
</trkpt>
<trkpt lat="27.589641" lon="40.858192">
<ele>896.622</ele>
</trkpt>
<trkpt lat="27.587403" lon="40.861798">
<ele>895.822</ele>
</trkpt>
<trkpt lat="27.587074" lon="40.862329">
<ele>895.329</ele>
</trkpt>
<trkpt lat="27.585086" lon="40.865481">
<ele>897.846</ele>
</trkpt>
<trkpt lat="27.583717" lon="40.867487">
<ele>897.59</ele>
</trkpt>
<trkpt lat="27.583342" lon="40.86797">
<ele>895.594</ele>
</trkpt>
<trkpt lat="27.58286" lon="40.868519">
<ele>897.547</ele>
</trkpt>
<trkpt lat="27.582312" lon="40.869067">
<ele>897.041</ele>
</trkpt>
<trkpt lat="27.580166" lon="40.871133">
<ele>905.371</ele>
</trkpt>
<trkpt lat="27.577161" lon="40.874167">
<ele>914.0</ele>
</trkpt>
<trkpt lat="27.576887" lon="40.874379">
<ele>914.0</ele>
</trkpt>
<trkpt lat="27.576595" lon="40.874568">
<ele>913.742</ele>
</trkpt>
<trkpt lat="27.576172" lon="40.874738">
<ele>913.882</ele>
</trkpt>
<trkpt lat="27.574848" lon="40.875104">
<ele>922.579</ele>
</trkpt>
<trkpt lat="27.574559" lon="40.875209">
<ele>923.505</ele>
</trkpt>
<trkpt lat="27.574233" lon="40.875403">
<ele>925.32</ele>
</trkpt>
<trkpt lat="27.573981" lon="40.875586">
<ele>925.963</ele>
</trkpt>
<trkpt lat="27.573386" lon="40.876193">
<ele>921.674</ele>
</trkpt>
<trkpt lat="27.572712" lon="40.876895">
<ele>924.627</ele>
</trkpt>
<trkpt lat="27.572394" lon="40.877214">
<ele>924.0</ele>
</trkpt>
<trkpt lat="27.571982" lon="40.877519">
<ele>924.933</ele>
</trkpt>
<trkpt lat="27.571624" lon="40.877682">
<ele>924.157</ele>
</trkpt>
<trkpt lat="27.571218" lon="40.877803">
<ele>923.601</ele>
</trkpt>
<trkpt lat="27.564633" lon="40.878856">
<ele>916.56</ele>
</trkpt>
<trkpt lat="27.558824" lon="40.880485">
<ele>928.195</ele>
</trkpt>
<trkpt lat="27.557849" lon="40.880787">
<ele>934.487</ele>
</trkpt>
<trkpt lat="27.557045" lon="40.881148">
<ele>939.867</ele>
</trkpt>
<trkpt lat="27.556259" lon="40.881581">
<ele>942.015</ele>
</trkpt>
<trkpt lat="27.555549" lon="40.882093">
<ele>940.953</ele>
</trkpt>
<trkpt lat="27.55064" lon="40.88629">
<ele>944.696</ele>
</trkpt>
<trkpt lat="27.54853" lon="40.887306">
<ele>956.689</ele>
</trkpt>
<trkpt lat="27.54795" lon="40.887562">
<ele>955.638</ele>
</trkpt>
<trkpt lat="27.54486" lon="40.888364">
<ele>955.323</ele>
</trkpt>
<trkpt lat="27.54267" lon="40.888992">
<ele>941.498</ele>
</trkpt>
<trkpt lat="27.540801" lon="40.889507">
<ele>938.643</ele>
</trkpt>
<trkpt lat="27.537962" lon="40.890316">
<ele>917.418</ele>
</trkpt>
<trkpt lat="27.535998" lon="40.890808">
<ele>931.854</ele>
</trkpt>
<trkpt lat="27.535209" lon="40.891009">
<ele>941.843</ele>
</trkpt>
<trkpt lat="27.534757" lon="40.891134">
<ele>941.803</ele>
</trkpt>
<trkpt lat="27.533747" lon="40.891436">
<ele>947.0</ele>
</trkpt>
<trkpt lat="27.532796" lon="40.891766">
<ele>948.381</ele>
</trkpt>
<trkpt lat="27.531924" lon="40.892098">
<ele>948.479</ele>
</trkpt>
<trkpt lat="27.531205" lon="40.892427">
<ele>944.676</ele>
</trkpt>
<trkpt lat="27.530713" lon="40.89267">
<ele>943.821</ele>
</trkpt>
<trkpt lat="27.530111" lon="40.892989">
<ele>941.735</ele>
</trkpt>
<trkpt lat="27.528447" lon="40.894226">
<ele>940.699</ele>
</trkpt>
<trkpt lat="27.523622" lon="40.899493">
<ele>930.851</ele>
</trkpt>
<trkpt lat="27.523468" lon="40.89962">
<ele>930.883</ele>
</trkpt>
<trkpt lat="27.522085" lon="40.901167">
<ele>938.301</ele>
</trkpt>
<trkpt lat="27.519962" lon="40.903513">
<ele>929.815</ele>
</trkpt>
<trkpt lat="27.518417" lon="40.904739">
<ele>944.584</ele>
</trkpt>
<trkpt lat="27.517674" lon="40.905231">
<ele>949.747</ele>
</trkpt>
<trkpt lat="27.516949" lon="40.905618">
<ele>952.241</ele>
</trkpt>
<trkpt lat="27.51584" lon="40.9061">
<ele>955.935</ele>
</trkpt>
<trkpt lat="27.514509" lon="40.906487">
<ele>954.729</ele>
</trkpt>
<trkpt lat="27.513108" lon="40.906813">
<ele>945.716</ele>
</trkpt>
<trkpt lat="27.511069" lon="40.9071">
<ele>953.355</ele>
</trkpt>
<trkpt lat="27.50982" lon="40.907103">
<ele>954.799</ele>
</trkpt>
<trkpt lat="27.508631" lon="40.907071">
<ele>948.104</ele>
</trkpt>
<trkpt lat="27.507881" lon="40.907024">
<ele>944.838</ele>
</trkpt>
<trkpt lat="27.506105" lon="40.906877">
<ele>940.425</ele>
</trkpt>
<trkpt lat="27.504748" lon="40.906762">
<ele>936.718</ele>
</trkpt>
<trkpt lat="27.504302" lon="40.906753">
<ele>935.992</ele>
</trkpt>
<trkpt lat="27.503872" lon="40.906758">
<ele>933.55</ele>
</trkpt>
<trkpt lat="27.503323" lon="40.906828">
<ele>930.398</ele>
</trkpt>
<trkpt lat="27.502821" lon="40.906936">
<ele>929.035</ele>
</trkpt>
<trkpt lat="27.502363" lon="40.907077">
<ele>926.279</ele>
</trkpt>
<trkpt lat="27.502013" lon="40.907211">
<ele>923.494</ele>
</trkpt>
<trkpt lat="27.501655" lon="40.907385">
<ele>920.313</ele>
</trkpt>
<trkpt lat="27.501283" lon="40.907588">
<ele>916.864</ele>
</trkpt>
<trkpt lat="27.500766" lon="40.907943">
<ele>913.307</ele>
</trkpt>
<trkpt lat="27.500436" lon="40.908196">
<ele>911.346</ele>
</trkpt>
<trkpt lat="27.498211" lon="40.910165">
<ele>907.108</ele>
</trkpt>
<trkpt lat="27.497564" lon="40.910766">
<ele>906.02</ele>
</trkpt>
<trkpt lat="27.4969" lon="40.911369">
<ele>908.0</ele>
</trkpt>
<trkpt lat="27.496494" lon="40.911772">
<ele>910.616</ele>
</trkpt>
<trkpt lat="27.495946" lon="40.912417">
<ele>914.716</ele>
</trkpt>
<trkpt lat="27.495565" lon="40.91293">
<ele>913.034</ele>
</trkpt>
<trkpt lat="27.494967" lon="40.913828">
<ele>908.32</ele>
</trkpt>
<trkpt lat="27.494606" lon="40.914292">
<ele>907.607</ele>
</trkpt>
<trkpt lat="27.494238" lon="40.914646">
<ele>910.096</ele>
</trkpt>
<trkpt lat="27.494082" lon="40.914752">
<ele>911.379</ele>
</trkpt>
<trkpt lat="27.493541" lon="40.9151">
<ele>910.855</ele>
</trkpt>
<trkpt lat="27.493015" lon="40.915367">
<ele>908.227</ele>
</trkpt>
<trkpt lat="27.492666" lon="40.915486">
<ele>907.15</ele>
</trkpt>
<trkpt lat="27.492355" lon="40.915568">
<ele>906.478</ele>
</trkpt>
<trkpt lat="27.491642" lon="40.915672">
<ele>906.089</ele>
</trkpt>
<trkpt lat="27.490084" lon="40.915849">
<ele>911.0</ele>
</trkpt>
<trkpt lat="27.486972" lon="40.916182">
<ele>912.0</ele>
</trkpt>
<trkpt lat="27.48659" lon="40.916216">
<ele>911.555</ele>
</trkpt>
<trkpt lat="27.486178" lon="40.916252">
<ele>912.266</ele>
</trkpt>
<trkpt lat="27.486148" lon="40.916208">
<ele>912.216</ele>
</trkpt>
<trkpt lat="27.486108" lon="40.916178">
<ele>912.241</ele>
</trkpt>
<trkpt lat="27.486061" lon="40.916163">
<ele>912.187</ele>
</trkpt>
<trkpt lat="27.486007" lon="40.916166">
<ele>912.198</ele>
</trkpt>
<trkpt lat="27.485958" lon="40.91619">
<ele>912.284</ele>
</trkpt>
<trkpt lat="27.485919" lon="40.916232">
<ele>912.435</ele>
</trkpt>
<trkpt lat="27.485895" lon="40.916286">
<ele>912.63</ele>
</trkpt>
<trkpt lat="27.48454" lon="40.916368">
<ele>912.656</ele>
</trkpt>
<trkpt lat="27.483371" lon="40.916339">
<ele>911.685</ele>
</trkpt>
<trkpt lat="27.479409" lon="40.915965">
<ele>911.79</ele>
</trkpt>
<trkpt lat="27.476888" lon="40.916043">
<ele>913.651</ele>
</trkpt>
<trkpt lat="27.475761" lon="40.91611">
<ele>915.748</ele>
</trkpt>
<trkpt lat="27.474664" lon="40.916122">
<ele>910.821</ele>
</trkpt>
<trkpt lat="27.471575" lon="40.916244">
<ele>916.459</ele>
</trkpt>
<trkpt lat="27.467684" lon="40.916377">
<ele>916.029</ele>
</trkpt>
<trkpt lat="27.465606" lon="40.916453">
<ele>916.951</ele>
</trkpt>
<trkpt lat="27.464728" lon="40.916538">
<ele>916.051</ele>
</trkpt>
<trkpt lat="27.464677" lon="40.916543">
<ele>916.345</ele>
</trkpt>
<trkpt lat="27.463042" lon="40.916709">
<ele>920.152</ele>
</trkpt>
<trkpt lat="27.457682" lon="40.917628">
<ele>918.237</ele>
</trkpt>
<trkpt lat="27.45623" lon="40.917882">
<ele>922.375</ele>
</trkpt>
<trkpt lat="27.45028" lon="40.918913">
<ele>921.897</ele>
</trkpt>
<trkpt lat="27.447353" lon="40.919401">
<ele>921.0</ele>
</trkpt>
<trkpt lat="27.44628" lon="40.919634">
<ele>919.074</ele>
</trkpt>
<trkpt lat="27.445379" lon="40.919856">
<ele>921.484</ele>
</trkpt>
<trkpt lat="27.444185" lon="40.920261">
<ele>922.004</ele>
</trkpt>
<trkpt lat="27.443034" lon="40.920756">
<ele>920.7</ele>
</trkpt>
<trkpt lat="27.442358" lon="40.921099">
<ele>922.935</ele>
</trkpt>
<trkpt lat="27.440426" lon="40.922193">
<ele>921.527</ele>
</trkpt>
<trkpt lat="27.439499" lon="40.922741">
<ele>922.671</ele>
</trkpt>
<trkpt lat="27.438601" lon="40.923222">
<ele>923.415</ele>
</trkpt>
<trkpt lat="27.43768" lon="40.923629">
<ele>922.023</ele>
</trkpt>
<trkpt lat="27.436751" lon="40.923993">
<ele>921.625</ele>
</trkpt>
<trkpt lat="27.435923" lon="40.924249">
<ele>920.619</ele>
</trkpt>
<trkpt lat="27.435159" lon="40.924453">
<ele>925.366</ele>
</trkpt>
<trkpt lat="27.434474" lon="40.924603">
<ele>924.475</ele>
</trkpt>
<trkpt lat="27.433494" lon="40.92476">
<ele>925.286</ele>
</trkpt>
<trkpt lat="27.43254" lon="40.924866">
<ele>925.931</ele>
</trkpt>
<trkpt lat="27.430036" lon="40.925007">
<ele>924.278</ele>
</trkpt>
<trkpt lat="27.427952" lon="40.925127">
<ele>926.458</ele>
</trkpt>
<trkpt lat="27.427058" lon="40.925253">
<ele>927.089</ele>
</trkpt>
<trkpt lat="27.42644" lon="40.925381">
<ele>928.444</ele>
</trkpt>
<trkpt lat="27.425831" lon="40.925557">
<ele>927.981</ele>
</trkpt>
<trkpt lat="27.425349" lon="40.925739">
<ele>925.188</ele>
</trkpt>
<trkpt lat="27.424627" lon="40.926074">
<ele>923.267</ele>
</trkpt>
<trkpt lat="27.422731" lon="40.927232">
<ele>928.0</ele>
</trkpt>
<trkpt lat="27.421267" lon="40.928214">
<ele>927.439</ele>
</trkpt>
<trkpt lat="27.419398" lon="40.929412">
<ele>926.685</ele>
</trkpt>
<trkpt lat="27.418631" lon="40.929904">
<ele>923.975</ele>
</trkpt>
<trkpt lat="27.414517" lon="40.932575">
<ele>935.801</ele>
</trkpt>
<trkpt lat="27.413655" lon="40.933118">
<ele>937.347</ele>
</trkpt>
<trkpt lat="27.413103" lon="40.933457">
<ele>935.525</ele>
</trkpt>
<trkpt lat="27.412545" lon="40.933748">
<ele>936.493</ele>
</trkpt>
<trkpt lat="27.41183" lon="40.934044">
<ele>936.74</ele>
</trkpt>
<trkpt lat="27.411383" lon="40.934176">
<ele>937.001</ele>
</trkpt>
<trkpt lat="27.410916" lon="40.934309">
<ele>938.575</ele>
</trkpt>
<trkpt lat="27.410394" lon="40.934409">
<ele>937.783</ele>
</trkpt>
<trkpt lat="27.404013" lon="40.935355">
<ele>934.704</ele>
</trkpt>
<trkpt lat="27.397393" lon="40.93634">
<ele>939.176</ele>
</trkpt>
<trkpt lat="27.391928" lon="40.937253">
<ele>945.332</ele>
</trkpt>
<trkpt lat="27.389973" lon="40.937852">
<ele>944.903</ele>
</trkpt>
<trkpt lat="27.388001" lon="40.938621">
<ele>946.225</ele>
</trkpt>
<trkpt lat="27.385303" lon="40.939769">
<ele>950.352</ele>
</trkpt>
<trkpt lat="27.383945" lon="40.940401">
<ele>954.066</ele>
</trkpt>
<trkpt lat="27.382677" lon="40.941206">
<ele>954.602</ele>
</trkpt>
<trkpt lat="27.381561" lon="40.94209">
<ele>953.085</ele>
</trkpt>
<trkpt lat="27.380316" lon="40.943337">
<ele>949.013</ele>
</trkpt>
<trkpt lat="27.379607" lon="40.943974">
<ele>947.892</ele>
</trkpt>
<trkpt lat="27.378962" lon="40.944355">
<ele>949.0</ele>
</trkpt>
<trkpt lat="27.378241" lon="40.944646">
<ele>950.058</ele>
</trkpt>
<trkpt lat="27.377528" lon="40.944778">
<ele>948.102</ele>
</trkpt>
<trkpt lat="27.376893" lon="40.944803">
<ele>946.317</ele>
</trkpt>
<trkpt lat="27.376319" lon="40.944722">
<ele>948.749</ele>
</trkpt>
<trkpt lat="27.375652" lon="40.944549">
<ele>944.071</ele>
</trkpt>
<trkpt lat="27.368732" lon="40.942945">
<ele>945.34</ele>
</trkpt>
<trkpt lat="27.367561" lon="40.942674">
<ele>940.885</ele>
</trkpt>
<trkpt lat="27.365589" lon="40.942419">
<ele>942.447</ele>
</trkpt>
<trkpt lat="27.363254" lon="40.942349">
<ele>945.183</ele>
</trkpt>
<trkpt lat="27.361344" lon="40.942445">
<ele>946.594</ele>
</trkpt>
<trkpt lat="27.359498" lon="40.94268">
<ele>948.056</ele>
</trkpt>
<trkpt lat="27.358409" lon="40.942899">
<ele>947.881</ele>
</trkpt>
<trkpt lat="27.355599" lon="40.943472">
<ele>946.734</ele>
</trkpt>
<trkpt lat="27.351335" lon="40.944332">
<ele>947.079</ele>
</trkpt>
<trkpt lat="27.349935" lon="40.944677">
<ele>949.837</ele>
</trkpt>
<trkpt lat="27.346497" lon="40.945868">
<ele>951.611</ele>
</trkpt>
<trkpt lat="27.345589" lon="40.946075">
<ele>953.12</ele>
</trkpt>
<trkpt lat="27.344478" lon="40.946222">
<ele>953.0</ele>
</trkpt>
<trkpt lat="27.341042" lon="40.946464">
<ele>950.79</ele>
</trkpt>
<trkpt lat="27.338517" lon="40.946974">
<ele>955.949</ele>
</trkpt>
<trkpt lat="27.335991" lon="40.947392">
<ele>957.692</ele>
</trkpt>
<trkpt lat="27.326919" lon="40.948413">
<ele>959.378</ele>
</trkpt>
<trkpt lat="27.322164" lon="40.948963">
<ele>960.0</ele>
</trkpt>
<trkpt lat="27.320502" lon="40.949155">
<ele>961.966</ele>
</trkpt>
<trkpt lat="27.320024" lon="40.94921">
<ele>962.914</ele>
</trkpt>
<trkpt lat="27.318572" lon="40.949272">
<ele>963.141</ele>
</trkpt>
<trkpt lat="27.31735" lon="40.94918">
<ele>959.07</ele>
</trkpt>
<trkpt lat="27.31619" lon="40.948983">
<ele>964.055</ele>
</trkpt>
<trkpt lat="27.312942" lon="40.948117">
<ele>965.273</ele>
</trkpt>
<trkpt lat="27.309826" lon="40.947308">
<ele>963.245</ele>
</trkpt>
<trkpt lat="27.307099" lon="40.946575">
<ele>965.67</ele>
</trkpt>
<trkpt lat="27.305713" lon="40.946174">
<ele>966.743</ele>
</trkpt>
<trkpt lat="27.304814" lon="40.946055">
<ele>969.195</ele>
</trkpt>
<trkpt lat="27.303935" lon="40.946043">
<ele>968.796</ele>
</trkpt>
<trkpt lat="27.296975" lon="40.947204">
<ele>971.832</ele>
</trkpt>
<trkpt lat="27.295564" lon="40.947444">
<ele>971.196</ele>
</trkpt>
<trkpt lat="27.291105" lon="40.9482">
<ele>973.524</ele>
</trkpt>
<trkpt lat="27.289458" lon="40.948479">
<ele>973.427</ele>
</trkpt>
<trkpt lat="27.288026" lon="40.948722">
<ele>975.0</ele>
</trkpt>
<trkpt lat="27.287286" lon="40.948848">
<ele>975.23</ele>
</trkpt>
<trkpt lat="27.286264" lon="40.949041">
<ele>976.502</ele>
</trkpt>
<trkpt lat="27.285624" lon="40.949251">
<ele>977.172</ele>
</trkpt>
<trkpt lat="27.285025" lon="40.949508">
<ele>976.049</ele>
</trkpt>
<trkpt lat="27.284559" lon="40.949765">
<ele>977.678</ele>
</trkpt>
<trkpt lat="27.283832" lon="40.950172">
<ele>978.0</ele>
</trkpt>
<trkpt lat="27.283899" lon="40.95028">
<ele>977.992</ele>
</trkpt>
<trkpt lat="27.284264" lon="40.950867">
<ele>977.164</ele>
</trkpt>
<trkpt lat="27.284765" lon="40.951718">
<ele>977.846</ele>
</trkpt>
<trkpt lat="27.285239" lon="40.952527">
<ele>976.042</ele>
</trkpt>
<trkpt lat="27.286117" lon="40.954171">
<ele>976.958</ele>
</trkpt>
<trkpt lat="27.286811" lon="40.955655">
<ele>977.48</ele>
</trkpt>
</trkseg>
<trkseg>
<extensions>
	<type>drive</type>
</extensions>
<trkpt lat="27.286811" lon="40.955655">
<ele>977.48</ele>
</trkpt>
<trkpt lat="27.170582" lon="40.809228">
<ele>1070.749</ele>
</trkpt>
<trkpt lat="27.108424" lon="40.541568">
<ele>962.108</ele>
</trkpt>
<trkpt lat="26.819435" lon="39.940603">
<ele>1036.233</ele>
</trkpt>
<trkpt lat="26.817209" lon="39.511948">
<ele>1117.072</ele>
</trkpt>
<trkpt lat="26.770369" lon="39.325428">
<ele>1135.746</ele>
</trkpt>
<trkpt lat="26.819348" lon="38.953669">
<ele>1060.275</ele>
</trkpt>
<trkpt lat="26.810057" lon="38.744065">
<ele>1097.366</ele>
</trkpt>
<trkpt lat="26.839513" lon="38.649521">
<ele>1147.315</ele>
</trkpt>
<trkpt lat="26.822271" lon="38.593297">
<ele>1142.635</ele>
</trkpt>
<trkpt lat="26.83246" lon="38.547141">
<ele>1122.25</ele>
</trkpt>
<trkpt lat="26.806348" lon="38.49403">
<ele>1129.05</ele>
</trkpt>
<trkpt lat="26.796425" lon="38.402825">
<ele>1034.892</ele>
</trkpt>
<trkpt lat="26.765381" lon="38.374995">
<ele>1064.955</ele>
</trkpt>
<trkpt lat="26.76211" lon="38.332226">
<ele>1072.835</ele>
</trkpt>
<trkpt lat="26.783518" lon="38.29648">
<ele>1049.546</ele>
</trkpt>
<trkpt lat="26.753976" lon="38.268692">
<ele>1096.513</ele>
</trkpt>
<trkpt lat="26.753371" lon="38.222697">
<ele>1067.641</ele>
</trkpt>
<trkpt lat="26.729109" lon="38.190277">
<ele>1026.002</ele>
</trkpt>
<trkpt lat="26.723473" lon="38.07827">
<ele>872.275</ele>
</trkpt>
<trkpt lat="26.662615" lon="37.962686">
<ele>844.669</ele>
</trkpt>
</trkseg>
</trk>
</gpx>
