<?xml version="1.0" encoding="UTF-8"?>
<gpx xmlns="http://www.topografix.com/GPX/1/1" version="1.1" creator="AlpineQuest 2.4.0c" xmlns:xsi="http://www.w3.org/2001/XMLSchema-instance" xsi:schemaLocation="http://www.topografix.com/GPX/1/1 http://www.topografix.com/GPX/1/1/gpx.xsd">
<metadata>
<link href="https://www.alpinequest.net" />
<time>2026-01-04T10:11:22Z</time>
</metadata>
<rte>
<name>Rail-Medina-Dschidda</name>
<extensions>
	<line xmlns="http://www.topografix.com/GPX/gpx_style/0/2">
		<color>EE1010</color>
	</line>
</extensions>
<rtept lat="24.4717101" lon="39.6989476">
</rtept>
<rtept lat="24.4554009" lon="39.7004042">
</rtept>
<rtept lat="24.4447013" lon="39.7049521">
</rtept>
<rtept lat="24.3825179" lon="39.685988">
</rtept>
<rtept lat="24.3482324" lon="39.635529">
</rtept>
<rtept lat="24.2805912" lon="39.5987658">
</rtept>
<rtept lat="24.1985266" lon="39.5902826">
</rtept>
<rtept lat="24.1265336" lon="39.6173235">
</rtept>
<rtept lat="24.087171" lon="39.674001">
</rtept>
<rtept lat="23.9771468" lon="39.735482">
</rtept>
<rtept lat="23.9515875" lon="39.7438521">
</rtept>
<rtept lat="23.9136632" lon="39.7771017">
</rtept>
<rtept lat="23.8470833" lon="39.8139025">
</rtept>
<rtept lat="23.6453686" lon="39.8167176">
</rtept>
<rtept lat="23.5295094" lon="39.786146">
</rtept>
<rtept lat="23.4727158" lon="39.7857449">
</rtept>
<rtept lat="23.4249328" lon="39.761713">
</rtept>
<rtept lat="23.3947701" lon="39.7594599">
</rtept>
<rtept lat="23.3254938" lon="39.7770314">
</rtept>
<rtept lat="23.2911826" lon="39.7735433">
</rtept>
<rtept lat="23.233171" lon="39.726961">
</rtept>
<rtept lat="23.1591808" lon="39.7009322">
</rtept>
<rtept lat="23.1381587" lon="39.6834241">
</rtept>
<rtept lat="23.065717" lon="39.5418355">
</rtept>
<rtept lat="22.9801923" lon="39.4103426">
</rtept>
<rtept lat="22.9639923" lon="39.3908093">
</rtept>
<rtept lat="22.9465121" lon="39.377507">
</rtept>
<rtept lat="22.8732838" lon="39.3562551">
</rtept>
<rtept lat="22.8417695" lon="39.3390846">
</rtept>
<rtept lat="22.8213829" lon="39.3074652">
</rtept>
<rtept lat="22.773934" lon="39.2268531">
</rtept>
<rtept lat="22.7477544" lon="39.2104211">
</rtept>
<rtept lat="22.7242494" lon="39.2028073">
</rtept>
<rtept lat="22.6801427" lon="39.2089949">
</rtept>
<rtept lat="22.5677781" lon="39.1824572">
</rtept>
<rtept lat="22.5347136" lon="39.1822584">
</rtept>
<rtept lat="22.4788382" lon="39.1990391">
</rtept>
<rtept lat="22.252694" lon="39.1624173">
</rtept>
<rtept lat="22.0817099" lon="39.1697386">
</rtept>
<rtept lat="21.9651416" lon="39.1566503">
</rtept>
<rtept lat="21.8932983" lon="39.1808811">
</rtept>
<rtept lat="21.8329766" lon="39.1777737">
</rtept>
<rtept lat="21.7945949" lon="39.1660391">
</rtept>
<rtept lat="21.690988" lon="39.205391">
</rtept>
<rtept lat="21.6594907" lon="39.2024224">
</rtept>
<rtept lat="21.5995993" lon="39.2243614">
</rtept>
<rtept lat="21.5897845" lon="39.2272578">
</rtept>
<rtept lat="21.5590679" lon="39.2327671">
</rtept>
<rtept lat="21.5434132" lon="39.2371324">
</rtept>
<rtept lat="21.5241892" lon="39.2408248">
</rtept>
<rtept lat="21.5165005" lon="39.2467305">
</rtept>
</rte>
</gpx>
