<?xml version="1.0" encoding="UTF-8"?>
<gpx xmlns="http://www.topografix.com/GPX/1/1" version="1.1" creator="AlpineQuest 2.4.0c" xmlns:xsi="http://www.w3.org/2001/XMLSchema-instance" xsi:schemaLocation="http://www.topografix.com/GPX/1/1 http://www.topografix.com/GPX/1/1/gpx.xsd">
<metadata>
<link href="https://www.alpinequest.net" />
<time>2026-01-04T10:11:52Z</time>
</metadata>
<trk>
<name>Medina-Dschidda</name>
<src>Google, OSRM https://project-osrm.org/, OpenRouteService https://openrouteservice.org</src>
<type>Laufen, Fahren</type>
<trkseg>
<extensions>
	<type>drive</type>
</extensions>
<trkpt lat="24.483053" lon="39.642375">
<ele>604.209</ele>
</trkpt>
<trkpt lat="24.483542" lon="39.641897">
<ele>607.09</ele>
</trkpt>
<trkpt lat="24.484031" lon="39.641432">
<ele>608.155</ele>
</trkpt>
<trkpt lat="24.484118" lon="39.641346">
<ele>607.873</ele>
</trkpt>
<trkpt lat="24.485383" lon="39.640054">
<ele>611.608</ele>
</trkpt>
<trkpt lat="24.485571" lon="39.639862">
<ele>607.782</ele>
</trkpt>
<trkpt lat="24.485654" lon="39.639777">
<ele>603.485</ele>
</trkpt>
<trkpt lat="24.486577" lon="39.638907">
<ele>608.956</ele>
</trkpt>
<trkpt lat="24.486867" lon="39.638588">
<ele>607.834</ele>
</trkpt>
<trkpt lat="24.487111" lon="39.638257">
<ele>604.961</ele>
</trkpt>
<trkpt lat="24.487685" lon="39.637356">
<ele>601.989</ele>
</trkpt>
<trkpt lat="24.488037" lon="39.636804">
<ele>600.932</ele>
</trkpt>
<trkpt lat="24.488419" lon="39.636308">
<ele>607.304</ele>
</trkpt>
<trkpt lat="24.488443" lon="39.636289">
<ele>607.496</ele>
</trkpt>
<trkpt lat="24.488471" lon="39.636274">
<ele>607.779</ele>
</trkpt>
<trkpt lat="24.4885" lon="39.636265">
<ele>608.111</ele>
</trkpt>
<trkpt lat="24.488532" lon="39.636261">
<ele>608.497</ele>
</trkpt>
<trkpt lat="24.488564" lon="39.636263">
<ele>608.883</ele>
</trkpt>
<trkpt lat="24.488595" lon="39.636272">
<ele>609.232</ele>
</trkpt>
<trkpt lat="24.488634" lon="39.636295">
<ele>609.777</ele>
</trkpt>
<trkpt lat="24.488674" lon="39.636314">
<ele>610.506</ele>
</trkpt>
<trkpt lat="24.488731" lon="39.636336">
<ele>611.616</ele>
</trkpt>
<trkpt lat="24.48879" lon="39.636352">
<ele>612.826</ele>
</trkpt>
<trkpt lat="24.489032" lon="39.636594">
<ele>610.122</ele>
</trkpt>
<trkpt lat="24.489426" lon="39.636943">
<ele>605.945</ele>
</trkpt>
<trkpt lat="24.490076" lon="39.63752">
<ele>603.749</ele>
</trkpt>
<trkpt lat="24.490539" lon="39.637956">
<ele>604.657</ele>
</trkpt>
<trkpt lat="24.490733" lon="39.638133">
<ele>602.622</ele>
</trkpt>
<trkpt lat="24.490955" lon="39.638348">
<ele>601.556</ele>
</trkpt>
<trkpt lat="24.491525" lon="39.638937">
<ele>603.823</ele>
</trkpt>
<trkpt lat="24.49208" lon="39.639587">
<ele>603.236</ele>
</trkpt>
<trkpt lat="24.492524" lon="39.640106">
<ele>601.173</ele>
</trkpt>
<trkpt lat="24.493077" lon="39.640932">
<ele>602.305</ele>
</trkpt>
<trkpt lat="24.493242" lon="39.641179">
<ele>603.328</ele>
</trkpt>
<trkpt lat="24.493347" lon="39.641395">
<ele>605.103</ele>
</trkpt>
<trkpt lat="24.493459" lon="39.641582">
<ele>607.163</ele>
</trkpt>
<trkpt lat="24.493629" lon="39.641848">
<ele>611.63</ele>
</trkpt>
<trkpt lat="24.493826" lon="39.642117">
<ele>612.281</ele>
</trkpt>
<trkpt lat="24.493982" lon="39.641927">
<ele>611.581</ele>
</trkpt>
<trkpt lat="24.494096" lon="39.641805">
<ele>610.999</ele>
</trkpt>
<trkpt lat="24.494111" lon="39.64179">
<ele>610.978</ele>
</trkpt>
<trkpt lat="24.494273" lon="39.641592">
<ele>611.652</ele>
</trkpt>
<trkpt lat="24.494466" lon="39.641361">
<ele>612.536</ele>
</trkpt>
<trkpt lat="24.494809" lon="39.640934">
<ele>604.662</ele>
</trkpt>
<trkpt lat="24.495074" lon="39.640603">
<ele>603.829</ele>
</trkpt>
<trkpt lat="24.495241" lon="39.640374">
<ele>603.654</ele>
</trkpt>
<trkpt lat="24.495415" lon="39.640101">
<ele>603.393</ele>
</trkpt>
<trkpt lat="24.495954" lon="39.639206">
<ele>614.27</ele>
</trkpt>
<trkpt lat="24.496216" lon="39.638615">
<ele>616.292</ele>
</trkpt>
<trkpt lat="24.496487" lon="39.637969">
<ele>617.671</ele>
</trkpt>
<trkpt lat="24.496719" lon="39.637258">
<ele>613.297</ele>
</trkpt>
<trkpt lat="24.497016" lon="39.636321">
<ele>618.435</ele>
</trkpt>
<trkpt lat="24.497748" lon="39.634143">
<ele>607.379</ele>
</trkpt>
<trkpt lat="24.498565" lon="39.631782">
<ele>607.651</ele>
</trkpt>
<trkpt lat="24.498967" lon="39.630647">
<ele>609.139</ele>
</trkpt>
<trkpt lat="24.499359" lon="39.62954">
<ele>613.808</ele>
</trkpt>
<trkpt lat="24.499377" lon="39.629488">
<ele>614.663</ele>
</trkpt>
<trkpt lat="24.499806" lon="39.627986">
<ele>606.089</ele>
</trkpt>
<trkpt lat="24.499923" lon="39.627589">
<ele>617.117</ele>
</trkpt>
<trkpt lat="24.499992" lon="39.627165">
<ele>616.139</ele>
</trkpt>
<trkpt lat="24.500134" lon="39.626135">
<ele>601.524</ele>
</trkpt>
<trkpt lat="24.500216" lon="39.625116">
<ele>595.037</ele>
</trkpt>
<trkpt lat="24.50025" lon="39.624301">
<ele>595.81</ele>
</trkpt>
<trkpt lat="24.500241" lon="39.623496">
<ele>600.0</ele>
</trkpt>
<trkpt lat="24.500207" lon="39.622906">
<ele>603.442</ele>
</trkpt>
<trkpt lat="24.500162" lon="39.622418">
<ele>598.243</ele>
</trkpt>
<trkpt lat="24.500105" lon="39.621836">
<ele>600.319</ele>
</trkpt>
<trkpt lat="24.500047" lon="39.621494">
<ele>602.064</ele>
</trkpt>
<trkpt lat="24.499956" lon="39.621015">
<ele>601.15</ele>
</trkpt>
<trkpt lat="24.499907" lon="39.620802">
<ele>599.402</ele>
</trkpt>
<trkpt lat="24.499717" lon="39.619983">
<ele>593.981</ele>
</trkpt>
<trkpt lat="24.499625" lon="39.619687">
<ele>594.119</ele>
</trkpt>
<trkpt lat="24.499574" lon="39.619507">
<ele>596.618</ele>
</trkpt>
<trkpt lat="24.499463" lon="39.619156">
<ele>598.792</ele>
</trkpt>
<trkpt lat="24.499378" lon="39.618892">
<ele>597.259</ele>
</trkpt>
<trkpt lat="24.499022" lon="39.61798">
<ele>597.26</ele>
</trkpt>
<trkpt lat="24.498262" lon="39.616233">
<ele>595.304</ele>
</trkpt>
<trkpt lat="24.497937" lon="39.615473">
<ele>598.573</ele>
</trkpt>
<trkpt lat="24.497667" lon="39.614851">
<ele>599.595</ele>
</trkpt>
<trkpt lat="24.497444" lon="39.614297">
<ele>598.745</ele>
</trkpt>
<trkpt lat="24.497271" lon="39.613831">
<ele>593.49</ele>
</trkpt>
<trkpt lat="24.497063" lon="39.613228">
<ele>595.991</ele>
</trkpt>
<trkpt lat="24.496981" lon="39.612959">
<ele>597.867</ele>
</trkpt>
<trkpt lat="24.496633" lon="39.611706">
<ele>593.896</ele>
</trkpt>
<trkpt lat="24.496467" lon="39.610891">
<ele>595.015</ele>
</trkpt>
<trkpt lat="24.496296" lon="39.610139">
<ele>590.337</ele>
</trkpt>
<trkpt lat="24.496173" lon="39.609162">
<ele>602.536</ele>
</trkpt>
<trkpt lat="24.496107" lon="39.608501">
<ele>599.775</ele>
</trkpt>
<trkpt lat="24.496045" lon="39.607877">
<ele>598.044</ele>
</trkpt>
<trkpt lat="24.49599" lon="39.606739">
<ele>584.701</ele>
</trkpt>
<trkpt lat="24.495965" lon="39.606243">
<ele>593.7</ele>
</trkpt>
<trkpt lat="24.49585" lon="39.603961">
<ele>598.231</ele>
</trkpt>
<trkpt lat="24.495833" lon="39.603627">
<ele>597.062</ele>
</trkpt>
<trkpt lat="24.495808" lon="39.603127">
<ele>596.622</ele>
</trkpt>
<trkpt lat="24.495708" lon="39.601833">
<ele>598.106</ele>
</trkpt>
<trkpt lat="24.495667" lon="39.601132">
<ele>593.985</ele>
</trkpt>
<trkpt lat="24.495665" lon="39.60084">
<ele>595.183</ele>
</trkpt>
<trkpt lat="24.495514" lon="39.599186">
<ele>581.99</ele>
</trkpt>
<trkpt lat="24.495372" lon="39.598152">
<ele>595.221</ele>
</trkpt>
<trkpt lat="24.494984" lon="39.596418">
<ele>597.624</ele>
</trkpt>
<trkpt lat="24.49463" lon="39.595529">
<ele>592.664</ele>
</trkpt>
<trkpt lat="24.494262" lon="39.594682">
<ele>593.598</ele>
</trkpt>
<trkpt lat="24.493828" lon="39.593865">
<ele>584.831</ele>
</trkpt>
<trkpt lat="24.493273" lon="39.592883">
<ele>589.393</ele>
</trkpt>
<trkpt lat="24.49262" lon="39.591941">
<ele>595.729</ele>
</trkpt>
<trkpt lat="24.491946" lon="39.591104">
<ele>592.141</ele>
</trkpt>
<trkpt lat="24.49141" lon="39.590436">
<ele>599.408</ele>
</trkpt>
<trkpt lat="24.490949" lon="39.589956">
<ele>597.434</ele>
</trkpt>
<trkpt lat="24.490144" lon="39.589183">
<ele>599.773</ele>
</trkpt>
<trkpt lat="24.489635" lon="39.588808">
<ele>598.95</ele>
</trkpt>
<trkpt lat="24.48926" lon="39.588527">
<ele>599.832</ele>
</trkpt>
<trkpt lat="24.488563" lon="39.588097">
<ele>605.591</ele>
</trkpt>
<trkpt lat="24.48831" lon="39.587948">
<ele>599.516</ele>
</trkpt>
<trkpt lat="24.48752" lon="39.587482">
<ele>595.94</ele>
</trkpt>
<trkpt lat="24.487706" lon="39.586948">
<ele>596.951</ele>
</trkpt>
<trkpt lat="24.488338" lon="39.585142">
<ele>597.497</ele>
</trkpt>
<trkpt lat="24.488526" lon="39.584605">
<ele>601.517</ele>
</trkpt>
<trkpt lat="24.488902" lon="39.583532">
<ele>601.155</ele>
</trkpt>
<trkpt lat="24.489023" lon="39.583177">
<ele>603.785</ele>
</trkpt>
<trkpt lat="24.489086" lon="39.582801">
<ele>604.479</ele>
</trkpt>
<trkpt lat="24.489108" lon="39.582424">
<ele>603.0</ele>
</trkpt>
<trkpt lat="24.489103" lon="39.582359">
<ele>603.0</ele>
</trkpt>
<trkpt lat="24.489015" lon="39.580996">
<ele>603.98</ele>
</trkpt>
<trkpt lat="24.488938" lon="39.580584">
<ele>610.683</ele>
</trkpt>
<trkpt lat="24.488628" lon="39.57947">
<ele>608.833</ele>
</trkpt>
<trkpt lat="24.488229" lon="39.578549">
<ele>606.084</ele>
</trkpt>
<trkpt lat="24.487733" lon="39.577629">
<ele>606.752</ele>
</trkpt>
<trkpt lat="24.487386" lon="39.577113">
<ele>606.0</ele>
</trkpt>
<trkpt lat="24.487115" lon="39.576733">
<ele>605.147</ele>
</trkpt>
<trkpt lat="24.486957" lon="39.576539">
<ele>605.0</ele>
</trkpt>
<trkpt lat="24.486904" lon="39.576465">
<ele>605.146</ele>
</trkpt>
<trkpt lat="24.486884" lon="39.576431">
<ele>605.218</ele>
</trkpt>
<trkpt lat="24.486858" lon="39.576386">
<ele>605.318</ele>
</trkpt>
<trkpt lat="24.486816" lon="39.576298">
<ele>605.638</ele>
</trkpt>
<trkpt lat="24.486782" lon="39.576206">
<ele>605.858</ele>
</trkpt>
<trkpt lat="24.486756" lon="39.576111">
<ele>606.0</ele>
</trkpt>
<trkpt lat="24.486739" lon="39.576014">
<ele>606.0</ele>
</trkpt>
<trkpt lat="24.486729" lon="39.575915">
<ele>606.0</ele>
</trkpt>
<trkpt lat="24.486763" lon="39.575814">
<ele>605.906</ele>
</trkpt>
<trkpt lat="24.486776" lon="39.575762">
<ele>605.642</ele>
</trkpt>
<trkpt lat="24.486791" lon="39.575711">
<ele>605.363</ele>
</trkpt>
<trkpt lat="24.486821" lon="39.575629">
<ele>604.856</ele>
</trkpt>
<trkpt lat="24.486856" lon="39.575551">
<ele>604.269</ele>
</trkpt>
<trkpt lat="24.486898" lon="39.575475">
<ele>603.297</ele>
</trkpt>
<trkpt lat="24.486945" lon="39.575404">
<ele>602.365</ele>
</trkpt>
<trkpt lat="24.487586" lon="39.574428">
<ele>599.34</ele>
</trkpt>
<trkpt lat="24.487616" lon="39.574383">
<ele>599.036</ele>
</trkpt>
<trkpt lat="24.488492" lon="39.57305">
<ele>604.194</ele>
</trkpt>
<trkpt lat="24.488584" lon="39.57291">
<ele>606.326</ele>
</trkpt>
<trkpt lat="24.48892" lon="39.572399">
<ele>608.502</ele>
</trkpt>
<trkpt lat="24.489027" lon="39.572238">
<ele>605.651</ele>
</trkpt>
<trkpt lat="24.489053" lon="39.5722">
<ele>604.842</ele>
</trkpt>
<trkpt lat="24.489796" lon="39.571132">
<ele>601.206</ele>
</trkpt>
<trkpt lat="24.489828" lon="39.571084">
<ele>601.455</ele>
</trkpt>
<trkpt lat="24.489877" lon="39.571007">
<ele>601.975</ele>
</trkpt>
<trkpt lat="24.490009" lon="39.570828">
<ele>603.987</ele>
</trkpt>
<trkpt lat="24.490482" lon="39.570128">
<ele>604.783</ele>
</trkpt>
<trkpt lat="24.49179" lon="39.568295">
<ele>605.0</ele>
</trkpt>
<trkpt lat="24.492126" lon="39.567807">
<ele>606.205</ele>
</trkpt>
<trkpt lat="24.492225" lon="39.567665">
<ele>606.396</ele>
</trkpt>
<trkpt lat="24.4925" lon="39.567289">
<ele>606.76</ele>
</trkpt>
<trkpt lat="24.49403" lon="39.565131">
<ele>605.264</ele>
</trkpt>
<trkpt lat="24.494136" lon="39.564999">
<ele>604.452</ele>
</trkpt>
<trkpt lat="24.494764" lon="39.564112">
<ele>605.538</ele>
</trkpt>
<trkpt lat="24.495021" lon="39.563729">
<ele>604.0</ele>
</trkpt>
<trkpt lat="24.495286" lon="39.563349">
<ele>604.836</ele>
</trkpt>
<trkpt lat="24.496022" lon="39.562295">
<ele>608.321</ele>
</trkpt>
<trkpt lat="24.497301" lon="39.560594">
<ele>610.244</ele>
</trkpt>
<trkpt lat="24.497577" lon="39.560229">
<ele>612.224</ele>
</trkpt>
<trkpt lat="24.498324" lon="39.559172">
<ele>613.019</ele>
</trkpt>
<trkpt lat="24.500006" lon="39.556804">
<ele>612.44</ele>
</trkpt>
<trkpt lat="24.500293" lon="39.556398">
<ele>609.914</ele>
</trkpt>
<trkpt lat="24.500506" lon="39.556076">
<ele>612.971</ele>
</trkpt>
<trkpt lat="24.501056" lon="39.555295">
<ele>612.223</ele>
</trkpt>
<trkpt lat="24.501949" lon="39.554245">
<ele>613.498</ele>
</trkpt>
<trkpt lat="24.502887" lon="39.553246">
<ele>614.404</ele>
</trkpt>
<trkpt lat="24.503541" lon="39.55264">
<ele>615.865</ele>
</trkpt>
<trkpt lat="24.503788" lon="39.5524">
<ele>615.169</ele>
</trkpt>
<trkpt lat="24.504811" lon="39.551466">
<ele>612.487</ele>
</trkpt>
<trkpt lat="24.507516" lon="39.549128">
<ele>621.598</ele>
</trkpt>
<trkpt lat="24.509539" lon="39.547354">
<ele>619.711</ele>
</trkpt>
<trkpt lat="24.510873" lon="39.545897">
<ele>627.518</ele>
</trkpt>
<trkpt lat="24.512053" lon="39.544456">
<ele>624.349</ele>
</trkpt>
<trkpt lat="24.512372" lon="39.544">
<ele>625.755</ele>
</trkpt>
<trkpt lat="24.512679" lon="39.54356">
<ele>625.223</ele>
</trkpt>
<trkpt lat="24.513232" lon="39.54284">
<ele>623.27</ele>
</trkpt>
<trkpt lat="24.513692" lon="39.542189">
<ele>626.376</ele>
</trkpt>
<trkpt lat="24.514025" lon="39.541542">
<ele>627.44</ele>
</trkpt>
<trkpt lat="24.514106" lon="39.541385">
<ele>628.552</ele>
</trkpt>
<trkpt lat="24.514732" lon="39.540143">
<ele>630.006</ele>
</trkpt>
<trkpt lat="24.515189" lon="39.539211">
<ele>629.37</ele>
</trkpt>
<trkpt lat="24.515629" lon="39.539535">
<ele>628.975</ele>
</trkpt>
<trkpt lat="24.515423" lon="39.539867">
<ele>630.433</ele>
</trkpt>
<trkpt lat="24.515247" lon="39.539741">
<ele>632.147</ele>
</trkpt>
<trkpt lat="24.515201" lon="39.539729">
<ele>632.522</ele>
</trkpt>
<trkpt lat="24.515169" lon="39.539756">
<ele>632.614</ele>
</trkpt>
<trkpt lat="24.514854" lon="39.540236">
<ele>629.775</ele>
</trkpt>
<trkpt lat="24.514835" lon="39.540286">
<ele>629.364</ele>
</trkpt>
<trkpt lat="24.514834" lon="39.540331">
<ele>629.134</ele>
</trkpt>
<trkpt lat="24.514845" lon="39.540375">
<ele>628.937</ele>
</trkpt>
<trkpt lat="24.514872" lon="39.540417">
<ele>628.768</ele>
</trkpt>
</trkseg>
<trkseg>
<extensions>
	<type>drive</type>
</extensions>
<trkpt lat="24.514872" lon="39.540417">
<ele>628.768</ele>
</trkpt>
<trkpt lat="24.514845" lon="39.540375">
<ele>628.937</ele>
</trkpt>
<trkpt lat="24.514834" lon="39.540331">
<ele>629.134</ele>
</trkpt>
<trkpt lat="24.514835" lon="39.540286">
<ele>629.364</ele>
</trkpt>
<trkpt lat="24.514854" lon="39.540236">
<ele>629.775</ele>
</trkpt>
<trkpt lat="24.515169" lon="39.539756">
<ele>632.614</ele>
</trkpt>
<trkpt lat="24.515201" lon="39.539729">
<ele>632.522</ele>
</trkpt>
<trkpt lat="24.515247" lon="39.539741">
<ele>632.147</ele>
</trkpt>
<trkpt lat="24.515423" lon="39.539867">
<ele>630.433</ele>
</trkpt>
<trkpt lat="24.515491" lon="39.539915">
<ele>629.771</ele>
</trkpt>
<trkpt lat="24.515707" lon="39.539592">
<ele>628.696</ele>
</trkpt>
<trkpt lat="24.51567" lon="39.539565">
<ele>628.843</ele>
</trkpt>
<trkpt lat="24.515629" lon="39.539535">
<ele>628.975</ele>
</trkpt>
<trkpt lat="24.515189" lon="39.539211">
<ele>629.37</ele>
</trkpt>
<trkpt lat="24.515207" lon="39.539175">
<ele>629.068</ele>
</trkpt>
<trkpt lat="24.515556" lon="39.5383">
<ele>628.239</ele>
</trkpt>
<trkpt lat="24.515569" lon="39.538266">
<ele>628.46</ele>
</trkpt>
<trkpt lat="24.515881" lon="39.537388">
<ele>630.022</ele>
</trkpt>
<trkpt lat="24.515924" lon="39.537134">
<ele>628.674</ele>
</trkpt>
<trkpt lat="24.516274" lon="39.535715">
<ele>631.58</ele>
</trkpt>
<trkpt lat="24.516459" lon="39.535153">
<ele>634.898</ele>
</trkpt>
<trkpt lat="24.516636" lon="39.534039">
<ele>639.37</ele>
</trkpt>
<trkpt lat="24.516846" lon="39.532903">
<ele>638.645</ele>
</trkpt>
<trkpt lat="24.516976" lon="39.531867">
<ele>641.3</ele>
</trkpt>
<trkpt lat="24.517102" lon="39.529867">
<ele>640.387</ele>
</trkpt>
<trkpt lat="24.516969" lon="39.529875">
<ele>641.373</ele>
</trkpt>
<trkpt lat="24.516954" lon="39.530249">
<ele>644.682</ele>
</trkpt>
<trkpt lat="24.516901" lon="39.531045">
<ele>639.208</ele>
</trkpt>
<trkpt lat="24.51682" lon="39.531908">
<ele>642.896</ele>
</trkpt>
<trkpt lat="24.51658" lon="39.533578">
<ele>640.037</ele>
</trkpt>
<trkpt lat="24.516233" lon="39.535193">
<ele>634.439</ele>
</trkpt>
<trkpt lat="24.51601" lon="39.53601">
<ele>632.827</ele>
</trkpt>
<trkpt lat="24.515827" lon="39.536636">
<ele>632.354</ele>
</trkpt>
<trkpt lat="24.515475" lon="39.537656">
<ele>628.855</ele>
</trkpt>
<trkpt lat="24.515168" lon="39.538484">
<ele>626.786</ele>
</trkpt>
<trkpt lat="24.51434" lon="39.540301">
<ele>628.969</ele>
</trkpt>
<trkpt lat="24.51357" lon="39.541823">
<ele>626.852</ele>
</trkpt>
<trkpt lat="24.512491" lon="39.543519">
<ele>624.614</ele>
</trkpt>
<trkpt lat="24.511892" lon="39.544364">
<ele>624.0</ele>
</trkpt>
<trkpt lat="24.510839" lon="39.545743">
<ele>628.596</ele>
</trkpt>
<trkpt lat="24.509423" lon="39.547291">
<ele>620.659</ele>
</trkpt>
<trkpt lat="24.507391" lon="39.549071">
<ele>622.661</ele>
</trkpt>
<trkpt lat="24.504696" lon="39.551336">
<ele>613.456</ele>
</trkpt>
<trkpt lat="24.503165" lon="39.552649">
<ele>614.829</ele>
</trkpt>
<trkpt lat="24.503008" lon="39.552784">
<ele>613.822</ele>
</trkpt>
<trkpt lat="24.502976" lon="39.552811">
<ele>613.731</ele>
</trkpt>
<trkpt lat="24.502424" lon="39.553356">
<ele>618.267</ele>
</trkpt>
<trkpt lat="24.501471" lon="39.554432">
<ele>617.924</ele>
</trkpt>
<trkpt lat="24.500756" lon="39.555329">
<ele>614.012</ele>
</trkpt>
<trkpt lat="24.500062" lon="39.556292">
<ele>612.757</ele>
</trkpt>
<trkpt lat="24.499734" lon="39.556727">
<ele>612.217</ele>
</trkpt>
<trkpt lat="24.498389" lon="39.558639">
<ele>611.441</ele>
</trkpt>
<trkpt lat="24.497306" lon="39.560145">
<ele>611.081</ele>
</trkpt>
<trkpt lat="24.497174" lon="39.560318">
<ele>610.0</ele>
</trkpt>
<trkpt lat="24.497076" lon="39.560462">
<ele>610.0</ele>
</trkpt>
<trkpt lat="24.496458" lon="39.561366">
<ele>609.311</ele>
</trkpt>
<trkpt lat="24.496387" lon="39.56147">
<ele>609.295</ele>
</trkpt>
<trkpt lat="24.495846" lon="39.562261">
<ele>608.954</ele>
</trkpt>
<trkpt lat="24.4958" lon="39.562329">
<ele>609.12</ele>
</trkpt>
<trkpt lat="24.49548" lon="39.562806">
<ele>608.649</ele>
</trkpt>
<trkpt lat="24.495327" lon="39.563036">
<ele>606.811</ele>
</trkpt>
<trkpt lat="24.495161" lon="39.563263">
<ele>607.396</ele>
</trkpt>
<trkpt lat="24.494233" lon="39.564586">
<ele>607.26</ele>
</trkpt>
<trkpt lat="24.493973" lon="39.564955">
<ele>607.049</ele>
</trkpt>
<trkpt lat="24.493868" lon="39.565082">
<ele>607.401</ele>
</trkpt>
<trkpt lat="24.493626" lon="39.565435">
<ele>607.863</ele>
</trkpt>
<trkpt lat="24.493433" lon="39.565707">
<ele>610.469</ele>
</trkpt>
<trkpt lat="24.49262" lon="39.566854">
<ele>608.515</ele>
</trkpt>
<trkpt lat="24.492018" lon="39.567702">
<ele>606.807</ele>
</trkpt>
<trkpt lat="24.491781" lon="39.568034">
<ele>605.11</ele>
</trkpt>
<trkpt lat="24.490467" lon="39.569869">
<ele>605.793</ele>
</trkpt>
<trkpt lat="24.489838" lon="39.570748">
<ele>602.199</ele>
</trkpt>
<trkpt lat="24.489666" lon="39.570983">
<ele>600.595</ele>
</trkpt>
<trkpt lat="24.489643" lon="39.571022">
<ele>600.43</ele>
</trkpt>
<trkpt lat="24.488912" lon="39.572063">
<ele>603.407</ele>
</trkpt>
<trkpt lat="24.488672" lon="39.572349">
<ele>605.246</ele>
</trkpt>
<trkpt lat="24.488625" lon="39.572404">
<ele>605.163</ele>
</trkpt>
<trkpt lat="24.488436" lon="39.572618">
<ele>605.321</ele>
</trkpt>
<trkpt lat="24.488356" lon="39.572707">
<ele>604.969</ele>
</trkpt>
<trkpt lat="24.488278" lon="39.572795">
<ele>604.49</ele>
</trkpt>
<trkpt lat="24.488125" lon="39.572978">
<ele>602.599</ele>
</trkpt>
<trkpt lat="24.487969" lon="39.573177">
<ele>600.95</ele>
</trkpt>
<trkpt lat="24.487914" lon="39.573251">
<ele>600.442</ele>
</trkpt>
<trkpt lat="24.487818" lon="39.573381">
<ele>600.0</ele>
</trkpt>
<trkpt lat="24.487673" lon="39.573591">
<ele>600.027</ele>
</trkpt>
<trkpt lat="24.486914" lon="39.57467">
<ele>599.684</ele>
</trkpt>
<trkpt lat="24.486509" lon="39.575321">
<ele>604.472</ele>
</trkpt>
<trkpt lat="24.486343" lon="39.575587">
<ele>605.868</ele>
</trkpt>
<trkpt lat="24.486011" lon="39.576139">
<ele>603.863</ele>
</trkpt>
<trkpt lat="24.485556" lon="39.577009">
<ele>601.998</ele>
</trkpt>
<trkpt lat="24.485011" lon="39.577991">
<ele>600.382</ele>
</trkpt>
<trkpt lat="24.484974" lon="39.578064">
<ele>601.088</ele>
</trkpt>
<trkpt lat="24.484943" lon="39.57814">
<ele>601.85</ele>
</trkpt>
<trkpt lat="24.484918" lon="39.578218">
<ele>602.582</ele>
</trkpt>
<trkpt lat="24.484897" lon="39.578297">
<ele>603.285</ele>
</trkpt>
<trkpt lat="24.484882" lon="39.578379">
<ele>603.645</ele>
</trkpt>
<trkpt lat="24.484867" lon="39.578454">
<ele>603.729</ele>
</trkpt>
<trkpt lat="24.484847" lon="39.578528">
<ele>603.835</ele>
</trkpt>
<trkpt lat="24.484822" lon="39.5786">
<ele>603.974</ele>
</trkpt>
<trkpt lat="24.484789" lon="39.578678">
<ele>603.701</ele>
</trkpt>
<trkpt lat="24.484749" lon="39.578752">
<ele>603.444</ele>
</trkpt>
<trkpt lat="24.484704" lon="39.578822">
<ele>603.291</ele>
</trkpt>
<trkpt lat="24.484066" lon="39.579854">
<ele>606.06</ele>
</trkpt>
<trkpt lat="24.484056" lon="39.57988">
<ele>606.057</ele>
</trkpt>
<trkpt lat="24.484053" lon="39.579907">
<ele>606.016</ele>
</trkpt>
<trkpt lat="24.484056" lon="39.579935">
<ele>605.938</ele>
</trkpt>
<trkpt lat="24.484066" lon="39.57996">
<ele>605.817</ele>
</trkpt>
<trkpt lat="24.484082" lon="39.579982">
<ele>605.655</ele>
</trkpt>
<trkpt lat="24.484102" lon="39.579999">
<ele>605.468</ele>
</trkpt>
<trkpt lat="24.484128" lon="39.580009">
<ele>605.339</ele>
</trkpt>
<trkpt lat="24.484154" lon="39.580011">
<ele>605.169</ele>
</trkpt>
<trkpt lat="24.484181" lon="39.580005">
<ele>604.934</ele>
</trkpt>
<trkpt lat="24.484204" lon="39.579991">
<ele>604.759</ele>
</trkpt>
<trkpt lat="24.484224" lon="39.57997">
<ele>604.673</ele>
</trkpt>
<trkpt lat="24.484237" lon="39.579944">
<ele>604.644</ele>
</trkpt>
<trkpt lat="24.484252" lon="39.579914">
<ele>604.6</ele>
</trkpt>
<trkpt lat="24.484273" lon="39.579888">
<ele>604.483</ele>
</trkpt>
<trkpt lat="24.484298" lon="39.579867">
<ele>604.307</ele>
</trkpt>
<trkpt lat="24.484324" lon="39.579853">
<ele>604.097</ele>
</trkpt>
<trkpt lat="24.484352" lon="39.579844">
<ele>603.853</ele>
</trkpt>
<trkpt lat="24.484381" lon="39.579841">
<ele>603.588</ele>
</trkpt>
<trkpt lat="24.48441" lon="39.579844">
<ele>603.318</ele>
</trkpt>
<trkpt lat="24.484476" lon="39.579727">
<ele>602.775</ele>
</trkpt>
<trkpt lat="24.484947" lon="39.578827">
<ele>602.594</ele>
</trkpt>
<trkpt lat="24.485007" lon="39.578725">
<ele>603.205</ele>
</trkpt>
<trkpt lat="24.485042" lon="39.578686">
<ele>603.612</ele>
</trkpt>
<trkpt lat="24.485093" lon="39.578636">
<ele>604.156</ele>
</trkpt>
<trkpt lat="24.485121" lon="39.578601">
<ele>604.452</ele>
</trkpt>
<trkpt lat="24.485153" lon="39.578566">
<ele>604.64</ele>
</trkpt>
<trkpt lat="24.48521" lon="39.578489">
<ele>605.088</ele>
</trkpt>
<trkpt lat="24.48532" lon="39.578305">
<ele>605.756</ele>
</trkpt>
<trkpt lat="24.485834" lon="39.57735">
<ele>601.921</ele>
</trkpt>
<trkpt lat="24.486035" lon="39.576993">
<ele>601.127</ele>
</trkpt>
<trkpt lat="24.486104" lon="39.576868">
<ele>601.268</ele>
</trkpt>
<trkpt lat="24.486178" lon="39.576748">
<ele>602.259</ele>
</trkpt>
<trkpt lat="24.486253" lon="39.57664">
<ele>603.118</ele>
</trkpt>
<trkpt lat="24.486332" lon="39.576537">
<ele>604.057</ele>
</trkpt>
<trkpt lat="24.486416" lon="39.576438">
<ele>604.938</ele>
</trkpt>
<trkpt lat="24.486485" lon="39.576449">
<ele>605.204</ele>
</trkpt>
<trkpt lat="24.486552" lon="39.576468">
<ele>605.47</ele>
</trkpt>
<trkpt lat="24.486616" lon="39.576494">
<ele>605.749</ele>
</trkpt>
<trkpt lat="24.486679" lon="39.576527">
<ele>605.956</ele>
</trkpt>
<trkpt lat="24.486738" lon="39.576567">
<ele>605.743</ele>
</trkpt>
<trkpt lat="24.486765" lon="39.576589">
<ele>605.646</ele>
</trkpt>
<trkpt lat="24.486793" lon="39.576613">
<ele>605.545</ele>
</trkpt>
<trkpt lat="24.486844" lon="39.576664">
<ele>605.362</ele>
</trkpt>
<trkpt lat="24.48706" lon="39.576912">
<ele>605.367</ele>
</trkpt>
<trkpt lat="24.487368" lon="39.577353">
<ele>605.529</ele>
</trkpt>
<trkpt lat="24.487547" lon="39.577657">
<ele>605.808</ele>
</trkpt>
<trkpt lat="24.487598" lon="39.577731">
<ele>606.244</ele>
</trkpt>
<trkpt lat="24.488069" lon="39.578614">
<ele>605.98</ele>
</trkpt>
<trkpt lat="24.488474" lon="39.579541">
<ele>606.008</ele>
</trkpt>
<trkpt lat="24.488757" lon="39.580429">
<ele>608.842</ele>
</trkpt>
<trkpt lat="24.488773" lon="39.580505">
<ele>608.99</ele>
</trkpt>
<trkpt lat="24.488839" lon="39.580867">
<ele>605.078</ele>
</trkpt>
<trkpt lat="24.488918" lon="39.581543">
<ele>601.758</ele>
</trkpt>
<trkpt lat="24.488944" lon="39.582426">
<ele>603.0</ele>
</trkpt>
<trkpt lat="24.488922" lon="39.582788">
<ele>603.243</ele>
</trkpt>
<trkpt lat="24.488864" lon="39.583129">
<ele>602.25</ele>
</trkpt>
<trkpt lat="24.488749" lon="39.583489">
<ele>600.496</ele>
</trkpt>
<trkpt lat="24.488015" lon="39.585579">
<ele>598.0</ele>
</trkpt>
<trkpt lat="24.48761" lon="39.586757">
<ele>597.341</ele>
</trkpt>
<trkpt lat="24.487567" lon="39.586881">
<ele>595.595</ele>
</trkpt>
<trkpt lat="24.487565" lon="39.586887">
<ele>595.508</ele>
</trkpt>
<trkpt lat="24.487376" lon="39.587412">
<ele>595.683</ele>
</trkpt>
<trkpt lat="24.487328" lon="39.587548">
<ele>595.72</ele>
</trkpt>
<trkpt lat="24.487168" lon="39.588008">
<ele>595.853</ele>
</trkpt>
<trkpt lat="24.487131" lon="39.588114">
<ele>597.38</ele>
</trkpt>
<trkpt lat="24.487275" lon="39.588188">
<ele>598.103</ele>
</trkpt>
<trkpt lat="24.48797" lon="39.588534">
<ele>599.112</ele>
</trkpt>
<trkpt lat="24.488599" lon="39.588847">
<ele>595.791</ele>
</trkpt>
<trkpt lat="24.488673" lon="39.588896">
<ele>595.711</ele>
</trkpt>
<trkpt lat="24.488844" lon="39.589009">
<ele>599.035</ele>
</trkpt>
<trkpt lat="24.488973" lon="39.589094">
<ele>600.954</ele>
</trkpt>
<trkpt lat="24.4896" lon="39.589531">
<ele>600.308</ele>
</trkpt>
<trkpt lat="24.490146" lon="39.589968">
<ele>596.084</ele>
</trkpt>
<trkpt lat="24.490535" lon="39.590244">
<ele>593.343</ele>
</trkpt>
<trkpt lat="24.491699" lon="39.591159">
<ele>591.461</ele>
</trkpt>
<trkpt lat="24.492462" lon="39.592039">
<ele>596.075</ele>
</trkpt>
<trkpt lat="24.493108" lon="39.592973">
<ele>580.542</ele>
</trkpt>
<trkpt lat="24.49367" lon="39.593947">
<ele>590.141</ele>
</trkpt>
<trkpt lat="24.494087" lon="39.594734">
<ele>595.426</ele>
</trkpt>
<trkpt lat="24.494442" lon="39.595589">
<ele>594.009</ele>
</trkpt>
<trkpt lat="24.494698" lon="39.596377">
<ele>595.215</ele>
</trkpt>
<trkpt lat="24.494777" lon="39.596621">
<ele>594.591</ele>
</trkpt>
<trkpt lat="24.494953" lon="39.597164">
<ele>595.412</ele>
</trkpt>
<trkpt lat="24.495212" lon="39.598137">
<ele>595.237</ele>
</trkpt>
<trkpt lat="24.495473" lon="39.600887">
<ele>595.796</ele>
</trkpt>
<trkpt lat="24.49545" lon="39.601146">
<ele>593.494</ele>
</trkpt>
<trkpt lat="24.49546" lon="39.601865">
<ele>599.208</ele>
</trkpt>
<trkpt lat="24.495463" lon="39.602318">
<ele>605.23</ele>
</trkpt>
<trkpt lat="24.495419" lon="39.604207">
<ele>602.054</ele>
</trkpt>
<trkpt lat="24.49542" lon="39.604236">
<ele>601.733</ele>
</trkpt>
<trkpt lat="24.495438" lon="39.60466">
<ele>597.151</ele>
</trkpt>
<trkpt lat="24.495466" lon="39.605341">
<ele>595.259</ele>
</trkpt>
<trkpt lat="24.495483" lon="39.60548">
<ele>597.961</ele>
</trkpt>
<trkpt lat="24.495497" lon="39.605803">
<ele>599.282</ele>
</trkpt>
<trkpt lat="24.49551" lon="39.6061">
<ele>600.589</ele>
</trkpt>
<trkpt lat="24.495511" lon="39.606156">
<ele>600.183</ele>
</trkpt>
<trkpt lat="24.495542" lon="39.606508">
<ele>595.205</ele>
</trkpt>
<trkpt lat="24.495567" lon="39.606792">
<ele>591.256</ele>
</trkpt>
<trkpt lat="24.495627" lon="39.607479">
<ele>595.792</ele>
</trkpt>
<trkpt lat="24.495694" lon="39.608243">
<ele>602.314</ele>
</trkpt>
<trkpt lat="24.495697" lon="39.608657">
<ele>597.821</ele>
</trkpt>
<trkpt lat="24.495713" lon="39.608867">
<ele>599.276</ele>
</trkpt>
<trkpt lat="24.495729" lon="39.609077">
<ele>601.999</ele>
</trkpt>
<trkpt lat="24.495749" lon="39.609243">
<ele>602.819</ele>
</trkpt>
<trkpt lat="24.495787" lon="39.609547">
<ele>599.69</ele>
</trkpt>
<trkpt lat="24.49581" lon="39.609774">
<ele>596.743</ele>
</trkpt>
<trkpt lat="24.495841" lon="39.609992">
<ele>594.947</ele>
</trkpt>
<trkpt lat="24.495882" lon="39.610307">
<ele>596.528</ele>
</trkpt>
<trkpt lat="24.495932" lon="39.610641">
<ele>598.044</ele>
</trkpt>
<trkpt lat="24.495948" lon="39.610912">
<ele>597.725</ele>
</trkpt>
<trkpt lat="24.495901" lon="39.611034">
<ele>597.244</ele>
</trkpt>
<trkpt lat="24.495871" lon="39.611062">
<ele>597.194</ele>
</trkpt>
<trkpt lat="24.495827" lon="39.611103">
<ele>596.991</ele>
</trkpt>
<trkpt lat="24.495729" lon="39.61113">
<ele>595.763</ele>
</trkpt>
<trkpt lat="24.49551" lon="39.611176">
<ele>593.69</ele>
</trkpt>
<trkpt lat="24.495351" lon="39.611175">
<ele>593.431</ele>
</trkpt>
<trkpt lat="24.494634" lon="39.611168">
<ele>593.047</ele>
</trkpt>
<trkpt lat="24.493812" lon="39.611159">
<ele>603.858</ele>
</trkpt>
<trkpt lat="24.493007" lon="39.611151">
<ele>612.031</ele>
</trkpt>
<trkpt lat="24.49204" lon="39.611048">
<ele>606.285</ele>
</trkpt>
<trkpt lat="24.491759" lon="39.611086">
<ele>603.573</ele>
</trkpt>
<trkpt lat="24.491648" lon="39.611135">
<ele>603.295</ele>
</trkpt>
<trkpt lat="24.491615" lon="39.61118">
<ele>603.776</ele>
</trkpt>
<trkpt lat="24.491589" lon="39.611293">
<ele>604.503</ele>
</trkpt>
<trkpt lat="24.491641" lon="39.611419">
<ele>605.404</ele>
</trkpt>
<trkpt lat="24.49173" lon="39.61148">
<ele>606.009</ele>
</trkpt>
<trkpt lat="24.492081" lon="39.611464">
<ele>606.153</ele>
</trkpt>
<trkpt lat="24.493026" lon="39.611423">
<ele>610.861</ele>
</trkpt>
<trkpt lat="24.493202" lon="39.611422">
<ele>611.289</ele>
</trkpt>
<trkpt lat="24.49469" lon="39.611413">
<ele>593.923</ele>
</trkpt>
<trkpt lat="24.495235" lon="39.611409">
<ele>591.679</ele>
</trkpt>
<trkpt lat="24.495821" lon="39.611394">
<ele>594.894</ele>
</trkpt>
<trkpt lat="24.496095" lon="39.611404">
<ele>594.946</ele>
</trkpt>
<trkpt lat="24.496146" lon="39.611404">
<ele>594.939</ele>
</trkpt>
<trkpt lat="24.496748" lon="39.6114">
<ele>594.0</ele>
</trkpt>
<trkpt lat="24.497316" lon="39.611397">
<ele>593.721</ele>
</trkpt>
<trkpt lat="24.497412" lon="39.611396">
<ele>593.395</ele>
</trkpt>
<trkpt lat="24.498052" lon="39.611393">
<ele>592.005</ele>
</trkpt>
<trkpt lat="24.498557" lon="39.611398">
<ele>597.558</ele>
</trkpt>
<trkpt lat="24.498892" lon="39.611451">
<ele>596.005</ele>
</trkpt>
<trkpt lat="24.499028" lon="39.611483">
<ele>596.339</ele>
</trkpt>
<trkpt lat="24.499353" lon="39.611618">
<ele>598.002</ele>
</trkpt>
<trkpt lat="24.499569" lon="39.611742">
<ele>597.346</ele>
</trkpt>
<trkpt lat="24.499917" lon="39.611998">
<ele>599.73</ele>
</trkpt>
<trkpt lat="24.500006" lon="39.612106">
<ele>601.194</ele>
</trkpt>
<trkpt lat="24.50014" lon="39.612253">
<ele>602.227</ele>
</trkpt>
<trkpt lat="24.500319" lon="39.612263">
<ele>602.053</ele>
</trkpt>
<trkpt lat="24.500402" lon="39.612229">
<ele>601.182</ele>
</trkpt>
<trkpt lat="24.500457" lon="39.612186">
<ele>600.373</ele>
</trkpt>
<trkpt lat="24.500513" lon="39.612097">
<ele>599.544</ele>
</trkpt>
<trkpt lat="24.500558" lon="39.611366">
<ele>594.156</ele>
</trkpt>
<trkpt lat="24.500563" lon="39.611266">
<ele>594.858</ele>
</trkpt>
<trkpt lat="24.501385" lon="39.61134">
<ele>593.16</ele>
</trkpt>
</trkseg>
<trkseg>
<extensions>
	<type>walk</type>
</extensions>
<trkpt lat="24.501385" lon="39.61134">
<ele>593.16</ele>
</trkpt>
<trkpt lat="24.50141" lon="39.611342">
<ele>593.295</ele>
</trkpt>
<trkpt lat="24.501415" lon="39.611226">
<ele>593.664</ele>
</trkpt>
<trkpt lat="24.501779" lon="39.611269">
<ele>594.394</ele>
</trkpt>
<trkpt lat="24.501899" lon="39.611163">
<ele>593.507</ele>
</trkpt>
<trkpt lat="24.5026694" lon="39.6120678">
<ele>598.068</ele>
</trkpt>
</trkseg>
<trkseg>
<extensions>
	<type>walk</type>
</extensions>
<trkpt lat="24.5026694" lon="39.6120678">
<ele>598.068</ele>
</trkpt>
<trkpt lat="24.50287" lon="39.61228">
<ele>596.668</ele>
</trkpt>
<trkpt lat="24.50303" lon="39.61211">
<ele>596.9</ele>
</trkpt>
<trkpt lat="24.50308" lon="39.61207">
<ele>597.0</ele>
</trkpt>
<trkpt lat="24.50312" lon="39.61201">
<ele>597.174</ele>
</trkpt>
<trkpt lat="24.50316" lon="39.61195">
<ele>597.223</ele>
</trkpt>
<trkpt lat="24.50319" lon="39.61188">
<ele>596.8</ele>
</trkpt>
<trkpt lat="24.50322" lon="39.61174">
<ele>596.08</ele>
</trkpt>
<trkpt lat="24.50322" lon="39.61129">
<ele>594.328</ele>
</trkpt>
<trkpt lat="24.50322" lon="39.61129">
<ele>594.328</ele>
</trkpt>
<trkpt lat="24.50307" lon="39.6113">
<ele>594.358</ele>
</trkpt>
<trkpt lat="24.50283" lon="39.61131">
<ele>597.449</ele>
</trkpt>
</trkseg>
<trkseg>
<extensions>
	<type>walk</type>
</extensions>
<trkpt lat="24.50283" lon="39.61131">
<ele>597.449</ele>
</trkpt>
<trkpt lat="24.501903" lon="39.611136">
<ele>593.315</ele>
</trkpt>
<trkpt lat="24.501899" lon="39.611163">
<ele>593.507</ele>
</trkpt>
<trkpt lat="24.501779" lon="39.611269">
<ele>594.394</ele>
</trkpt>
<trkpt lat="24.501415" lon="39.611226">
<ele>593.664</ele>
</trkpt>
<trkpt lat="24.50141" lon="39.611342">
<ele>593.295</ele>
</trkpt>
<trkpt lat="24.501339" lon="39.611336">
<ele>592.977</ele>
</trkpt>
</trkseg>
<trkseg>
<extensions>
	<type>drive</type>
</extensions>
<trkpt lat="24.501339" lon="39.611336">
<ele>592.977</ele>
</trkpt>
<trkpt lat="24.500563" lon="39.611266">
<ele>594.858</ele>
</trkpt>
<trkpt lat="24.500578" lon="39.610789">
<ele>599.732</ele>
</trkpt>
<trkpt lat="24.500524" lon="39.610692">
<ele>599.831</ele>
</trkpt>
<trkpt lat="24.500466" lon="39.610636">
<ele>599.584</ele>
</trkpt>
<trkpt lat="24.500268" lon="39.610464">
<ele>600.99</ele>
</trkpt>
<trkpt lat="24.500207" lon="39.610465">
<ele>601.05</ele>
</trkpt>
<trkpt lat="24.500063" lon="39.610611">
<ele>600.347</ele>
</trkpt>
<trkpt lat="24.499987" lon="39.610657">
<ele>600.992</ele>
</trkpt>
<trkpt lat="24.499693" lon="39.610852">
<ele>606.13</ele>
</trkpt>
<trkpt lat="24.499355" lon="39.611005">
<ele>599.316</ele>
</trkpt>
<trkpt lat="24.499039" lon="39.61113">
<ele>596.0</ele>
</trkpt>
<trkpt lat="24.498883" lon="39.611173">
<ele>596.026</ele>
</trkpt>
<trkpt lat="24.498552" lon="39.611207">
<ele>596.92</ele>
</trkpt>
<trkpt lat="24.497406" lon="39.61122">
<ele>595.162</ele>
</trkpt>
<trkpt lat="24.497225" lon="39.611222">
<ele>595.792</ele>
</trkpt>
<trkpt lat="24.496737" lon="39.611203">
<ele>594.339</ele>
</trkpt>
<trkpt lat="24.496122" lon="39.611182">
<ele>595.686</ele>
</trkpt>
<trkpt lat="24.496043" lon="39.611182">
<ele>595.927</ele>
</trkpt>
<trkpt lat="24.49551" lon="39.611176">
<ele>593.69</ele>
</trkpt>
<trkpt lat="24.495351" lon="39.611175">
<ele>593.431</ele>
</trkpt>
<trkpt lat="24.494634" lon="39.611168">
<ele>593.047</ele>
</trkpt>
<trkpt lat="24.493812" lon="39.611159">
<ele>603.858</ele>
</trkpt>
<trkpt lat="24.493007" lon="39.611151">
<ele>612.031</ele>
</trkpt>
<trkpt lat="24.49204" lon="39.611048">
<ele>606.285</ele>
</trkpt>
<trkpt lat="24.491759" lon="39.611086">
<ele>603.573</ele>
</trkpt>
<trkpt lat="24.491648" lon="39.611135">
<ele>603.295</ele>
</trkpt>
<trkpt lat="24.491615" lon="39.61118">
<ele>603.776</ele>
</trkpt>
<trkpt lat="24.491589" lon="39.611293">
<ele>604.503</ele>
</trkpt>
<trkpt lat="24.491641" lon="39.611419">
<ele>605.404</ele>
</trkpt>
<trkpt lat="24.49173" lon="39.61148">
<ele>606.009</ele>
</trkpt>
<trkpt lat="24.492081" lon="39.611464">
<ele>606.153</ele>
</trkpt>
<trkpt lat="24.493026" lon="39.611423">
<ele>610.861</ele>
</trkpt>
<trkpt lat="24.493202" lon="39.611422">
<ele>611.289</ele>
</trkpt>
<trkpt lat="24.49469" lon="39.611413">
<ele>593.923</ele>
</trkpt>
<trkpt lat="24.495235" lon="39.611409">
<ele>591.679</ele>
</trkpt>
<trkpt lat="24.495821" lon="39.611394">
<ele>594.894</ele>
</trkpt>
<trkpt lat="24.49592" lon="39.611443">
<ele>594.805</ele>
</trkpt>
<trkpt lat="24.496011" lon="39.61151">
<ele>594.564</ele>
</trkpt>
<trkpt lat="24.496139" lon="39.611664">
<ele>593.91</ele>
</trkpt>
<trkpt lat="24.496194" lon="39.611809">
<ele>593.855</ele>
</trkpt>
<trkpt lat="24.496248" lon="39.612059">
<ele>595.034</ele>
</trkpt>
<trkpt lat="24.496744" lon="39.613648">
<ele>593.78</ele>
</trkpt>
<trkpt lat="24.497553" lon="39.615219">
<ele>601.875</ele>
</trkpt>
<trkpt lat="24.498082" lon="39.616281">
<ele>594.484</ele>
</trkpt>
<trkpt lat="24.499245" lon="39.619054">
<ele>598.48</ele>
</trkpt>
<trkpt lat="24.499328" lon="39.619338">
<ele>598.642</ele>
</trkpt>
<trkpt lat="24.499536" lon="39.620071">
<ele>593.585</ele>
</trkpt>
<trkpt lat="24.499732" lon="39.620849">
<ele>599.148</ele>
</trkpt>
<trkpt lat="24.499788" lon="39.621093">
<ele>601.106</ele>
</trkpt>
<trkpt lat="24.499875" lon="39.621606">
<ele>600.143</ele>
</trkpt>
<trkpt lat="24.499938" lon="39.622024">
<ele>597.63</ele>
</trkpt>
<trkpt lat="24.500035" lon="39.622746">
<ele>601.854</ele>
</trkpt>
<trkpt lat="24.500079" lon="39.623139">
<ele>604.33</ele>
</trkpt>
<trkpt lat="24.500096" lon="39.62356">
<ele>600.579</ele>
</trkpt>
<trkpt lat="24.500065" lon="39.624392">
<ele>598.44</ele>
</trkpt>
<trkpt lat="24.500007" lon="39.625679">
<ele>597.358</ele>
</trkpt>
<trkpt lat="24.499938" lon="39.626307">
<ele>600.579</ele>
</trkpt>
<trkpt lat="24.499851" lon="39.626924">
<ele>607.068</ele>
</trkpt>
<trkpt lat="24.499748" lon="39.62753">
<ele>611.471</ele>
</trkpt>
<trkpt lat="24.499396" lon="39.628828">
<ele>609.206</ele>
</trkpt>
<trkpt lat="24.499245" lon="39.629343">
<ele>611.016</ele>
</trkpt>
<trkpt lat="24.498371" lon="39.631744">
<ele>604.618</ele>
</trkpt>
<trkpt lat="24.497538" lon="39.634105">
<ele>603.462</ele>
</trkpt>
<trkpt lat="24.496969" lon="39.635787">
<ele>620.72</ele>
</trkpt>
<trkpt lat="24.496667" lon="39.636679">
<ele>615.007</ele>
</trkpt>
<trkpt lat="24.496216" lon="39.637756">
<ele>609.294</ele>
</trkpt>
<trkpt lat="24.495713" lon="39.63882">
<ele>609.638</ele>
</trkpt>
<trkpt lat="24.495466" lon="39.639239">
<ele>606.68</ele>
</trkpt>
<trkpt lat="24.495196" lon="39.639683">
<ele>602.76</ele>
</trkpt>
<trkpt lat="24.494807" lon="39.640271">
<ele>603.44</ele>
</trkpt>
<trkpt lat="24.49428" lon="39.640986">
<ele>608.79</ele>
</trkpt>
<trkpt lat="24.493962" lon="39.641389">
<ele>609.79</ele>
</trkpt>
<trkpt lat="24.49368" lon="39.641715">
<ele>610.969</ele>
</trkpt>
<trkpt lat="24.493361" lon="39.642072">
<ele>606.689</ele>
</trkpt>
<trkpt lat="24.492797" lon="39.642643">
<ele>601.811</ele>
</trkpt>
<trkpt lat="24.491366" lon="39.643933">
<ele>611.505</ele>
</trkpt>
<trkpt lat="24.490705" lon="39.644567">
<ele>605.536</ele>
</trkpt>
<trkpt lat="24.490024" lon="39.6452">
<ele>606.986</ele>
</trkpt>
<trkpt lat="24.488125" lon="39.646967">
<ele>608.486</ele>
</trkpt>
<trkpt lat="24.487955" lon="39.647127">
<ele>606.904</ele>
</trkpt>
<trkpt lat="24.48547" lon="39.649355">
<ele>612.161</ele>
</trkpt>
<trkpt lat="24.483063" lon="39.651614">
<ele>614.27</ele>
</trkpt>
<trkpt lat="24.476411" lon="39.657741">
<ele>627.623</ele>
</trkpt>
<trkpt lat="24.475036" lon="39.658778">
<ele>627.29</ele>
</trkpt>
<trkpt lat="24.474405" lon="39.659315">
<ele>626.233</ele>
</trkpt>
<trkpt lat="24.473752" lon="39.659832">
<ele>626.508</ele>
</trkpt>
<trkpt lat="24.472911" lon="39.660456">
<ele>620.571</ele>
</trkpt>
<trkpt lat="24.472705" lon="39.660615">
<ele>621.84</ele>
</trkpt>
<trkpt lat="24.472494" lon="39.660693">
<ele>623.0</ele>
</trkpt>
<trkpt lat="24.472395" lon="39.660628">
<ele>623.0</ele>
</trkpt>
<trkpt lat="24.472286" lon="39.660585">
<ele>623.0</ele>
</trkpt>
<trkpt lat="24.472173" lon="39.660561">
<ele>623.525</ele>
</trkpt>
<trkpt lat="24.472057" lon="39.660562">
<ele>624.757</ele>
</trkpt>
<trkpt lat="24.471943" lon="39.660585">
<ele>625.789</ele>
</trkpt>
<trkpt lat="24.471835" lon="39.660629">
<ele>625.68</ele>
</trkpt>
<trkpt lat="24.471736" lon="39.660694">
<ele>625.751</ele>
</trkpt>
<trkpt lat="24.471645" lon="39.660784">
<ele>626.064</ele>
</trkpt>
<trkpt lat="24.471482" lon="39.661009">
<ele>624.347</ele>
</trkpt>
<trkpt lat="24.471243" lon="39.661495">
<ele>620.163</ele>
</trkpt>
<trkpt lat="24.471193" lon="39.661619">
<ele>620.217</ele>
</trkpt>
<trkpt lat="24.471165" lon="39.661752">
<ele>620.973</ele>
</trkpt>
<trkpt lat="24.47116" lon="39.661888">
<ele>621.925</ele>
</trkpt>
<trkpt lat="24.471179" lon="39.662023">
<ele>622.374</ele>
</trkpt>
<trkpt lat="24.471221" lon="39.662151">
<ele>622.455</ele>
</trkpt>
<trkpt lat="24.471284" lon="39.662268">
<ele>622.008</ele>
</trkpt>
<trkpt lat="24.471367" lon="39.66237">
<ele>621.153</ele>
</trkpt>
<trkpt lat="24.471464" lon="39.662456">
<ele>621.228</ele>
</trkpt>
<trkpt lat="24.471576" lon="39.662513">
<ele>621.705</ele>
</trkpt>
<trkpt lat="24.471642" lon="39.662535">
<ele>622.026</ele>
</trkpt>
<trkpt lat="24.471775" lon="39.662662">
<ele>623.201</ele>
</trkpt>
<trkpt lat="24.471813" lon="39.662712">
<ele>623.692</ele>
</trkpt>
<trkpt lat="24.471846" lon="39.662767">
<ele>624.227</ele>
</trkpt>
<trkpt lat="24.471873" lon="39.662826">
<ele>624.53</ele>
</trkpt>
<trkpt lat="24.471892" lon="39.662888">
<ele>624.697</ele>
</trkpt>
<trkpt lat="24.472015" lon="39.664662">
<ele>626.058</ele>
</trkpt>
<trkpt lat="24.472114" lon="39.665651">
<ele>629.489</ele>
</trkpt>
<trkpt lat="24.472324" lon="39.66739">
<ele>630.102</ele>
</trkpt>
<trkpt lat="24.472382" lon="39.668267">
<ele>634.96</ele>
</trkpt>
<trkpt lat="24.47241" lon="39.668602">
<ele>637.27</ele>
</trkpt>
<trkpt lat="24.473761" lon="39.685186">
<ele>640.361</ele>
</trkpt>
<trkpt lat="24.47386" lon="39.686463">
<ele>642.393</ele>
</trkpt>
<trkpt lat="24.474101" lon="39.689568">
<ele>634.658</ele>
</trkpt>
<trkpt lat="24.474305" lon="39.692019">
<ele>638.04</ele>
</trkpt>
<trkpt lat="24.474506" lon="39.694433">
<ele>647.861</ele>
</trkpt>
<trkpt lat="24.474549" lon="39.694895">
<ele>646.467</ele>
</trkpt>
<trkpt lat="24.474582" lon="39.695249">
<ele>650.175</ele>
</trkpt>
<trkpt lat="24.474593" lon="39.695422">
<ele>648.769</ele>
</trkpt>
<trkpt lat="24.474506" lon="39.695886">
<ele>643.042</ele>
</trkpt>
<trkpt lat="24.474602" lon="39.697138">
<ele>652.342</ele>
</trkpt>
<trkpt lat="24.474696" lon="39.698365">
<ele>649.989</ele>
</trkpt>
<trkpt lat="24.47473" lon="39.698868">
<ele>651.85</ele>
</trkpt>
<trkpt lat="24.474888" lon="39.700677">
<ele>651.16</ele>
</trkpt>
<trkpt lat="24.474923" lon="39.701051">
<ele>650.94</ele>
</trkpt>
<trkpt lat="24.474844" lon="39.701143">
<ele>651.179</ele>
</trkpt>
<trkpt lat="24.47482" lon="39.701165">
<ele>651.32</ele>
</trkpt>
<trkpt lat="24.474792" lon="39.70119">
<ele>651.497</ele>
</trkpt>
<trkpt lat="24.474761" lon="39.701203">
<ele>651.615</ele>
</trkpt>
<trkpt lat="24.474728" lon="39.701216">
<ele>651.747</ele>
</trkpt>
<trkpt lat="24.474631" lon="39.701224">
<ele>651.351</ele>
</trkpt>
<trkpt lat="24.474498" lon="39.701214">
<ele>650.635</ele>
</trkpt>
<trkpt lat="24.473938" lon="39.701167">
<ele>647.212</ele>
</trkpt>
<trkpt lat="24.473659" lon="39.701143">
<ele>647.0</ele>
</trkpt>
<trkpt lat="24.472154" lon="39.701014">
<ele>648.264</ele>
</trkpt>
<trkpt lat="24.472113" lon="39.701056">
<ele>648.12</ele>
</trkpt>
<trkpt lat="24.472096" lon="39.701094">
<ele>648.034</ele>
</trkpt>
<trkpt lat="24.472091" lon="39.701126">
<ele>648.028</ele>
</trkpt>
<trkpt lat="24.472099" lon="39.701159">
<ele>648.096</ele>
</trkpt>
<trkpt lat="24.472114" lon="39.701181">
<ele>648.154</ele>
</trkpt>
<trkpt lat="24.472147" lon="39.701211">
<ele>648.262</ele>
</trkpt>
<trkpt lat="24.473614" lon="39.701335">
<ele>647.0</ele>
</trkpt>
</trkseg>
</trk>
</gpx>
