<?xml version="1.0" encoding="UTF-8"?>
<gpx xmlns="http://www.topografix.com/GPX/1/1" version="1.1" creator="AlpineQuest 2.4.0c" xmlns:xsi="http://www.w3.org/2001/XMLSchema-instance" xsi:schemaLocation="http://www.topografix.com/GPX/1/1 http://www.topografix.com/GPX/1/1/gpx.xsd">
<metadata>
<desc>AlpineQuest Track 04.12.25 09:24:34</desc>
<link href="https://www.alpinequest.net" />
<time>2025-12-28T16:07:04Z</time>
</metadata>
<trk>
<name>Mtb_Kotalm</name>
<type>bicycle</type>
<extensions>
	<line xmlns="http://www.topografix.com/GPX/gpx_style/0/2">
		<color>7199D7</color>
	</line>
</extensions>
<trkseg>
<trkpt lat="47.7093822" lon="13.6478609">
<ele>572.774</ele>
<time>2025-12-04T08:24:34Z</time>
<hdop>9.18</hdop>
</trkpt>
<trkpt lat="47.7092618" lon="13.6485233">
<ele>580.774</ele>
<time>2025-12-04T08:25:29Z</time>
<hdop>12.76</hdop>
</trkpt>
<trkpt lat="47.70917" lon="13.6494614">
<ele>589.775</ele>
<time>2025-12-04T08:26:24Z</time>
<hdop>13.27</hdop>
</trkpt>
<trkpt lat="47.7090643" lon="13.650386">
<ele>599.776</ele>
<time>2025-12-04T08:27:18Z</time>
<hdop>13.27</hdop>
</trkpt>
<trkpt lat="47.7087317" lon="13.6511967">
<ele>611.776</ele>
<time>2025-12-04T08:28:13Z</time>
<hdop>9.69</hdop>
</trkpt>
<trkpt lat="47.7082588" lon="13.6518204">
<ele>618.777</ele>
<time>2025-12-04T08:29:07Z</time>
<hdop>10.71</hdop>
</trkpt>
<trkpt lat="47.7077944" lon="13.6524554">
<ele>631.778</ele>
<time>2025-12-04T08:30:02Z</time>
<hdop>11.73</hdop>
</trkpt>
<trkpt lat="47.7072621" lon="13.6529238">
<ele>641.778</ele>
<time>2025-12-04T08:30:57Z</time>
<hdop>11.73</hdop>
</trkpt>
<trkpt lat="47.7067045" lon="13.6532014">
<ele>652.778</ele>
<time>2025-12-04T08:31:51Z</time>
<hdop>8.67</hdop>
</trkpt>
<trkpt lat="47.7062825" lon="13.653836">
<ele>661.779</ele>
<time>2025-12-04T08:32:46Z</time>
<hdop>8.67</hdop>
</trkpt>
<trkpt lat="47.7059807" lon="13.6546005">
<ele>672.78</ele>
<time>2025-12-04T08:33:41Z</time>
<hdop>10.2</hdop>
</trkpt>
<trkpt lat="47.7056261" lon="13.6552632">
<ele>682.78</ele>
<time>2025-12-04T08:34:35Z</time>
<hdop>12.76</hdop>
</trkpt>
<trkpt lat="47.7052771" lon="13.6558483">
<ele>691.781</ele>
<time>2025-12-04T08:35:29Z</time>
<hdop>11.22</hdop>
</trkpt>
<trkpt lat="47.7058735" lon="13.6558184">
<ele>697.781</ele>
<time>2025-12-04T08:36:24Z</time>
<hdop>14.8</hdop>
</trkpt>
<trkpt lat="47.7063962" lon="13.6554284">
<ele>707.78</ele>
<time>2025-12-04T08:37:18Z</time>
<hdop>13.27</hdop>
</trkpt>
<trkpt lat="47.7069177" lon="13.6550373">
<ele>715.78</ele>
<time>2025-12-04T08:38:13Z</time>
<hdop>10.71</hdop>
</trkpt>
<trkpt lat="47.7075007" lon="13.6547918">
<ele>725.779</ele>
<time>2025-12-04T08:39:08Z</time>
<hdop>13.78</hdop>
</trkpt>
<trkpt lat="47.7080423" lon="13.6549925">
<ele>734.779</ele>
<time>2025-12-04T08:40:02Z</time>
<hdop>8.67</hdop>
</trkpt>
<trkpt lat="47.7086458" lon="13.6550118">
<ele>744.779</ele>
<time>2025-12-04T08:40:57Z</time>
<hdop>10.2</hdop>
</trkpt>
<trkpt lat="47.7092236" lon="13.6549704">
<ele>755.779</ele>
<time>2025-12-04T08:41:52Z</time>
<hdop>10.2</hdop>
</trkpt>
<trkpt lat="47.7093767" lon="13.6548526">
<ele>761.779</ele>
<time>2025-12-04T08:42:46Z</time>
<hdop>3.06</hdop>
</trkpt>
<trkpt lat="47.709367" lon="13.6548337">
<ele>762.779</ele>
<time>2025-12-04T08:43:41Z</time>
<hdop>9.69</hdop>
</trkpt>
<trkpt lat="47.709474" lon="13.6546867">
<ele>765.779</ele>
<time>2025-12-04T08:44:35Z</time>
<hdop>8.16</hdop>
</trkpt>
<trkpt lat="47.7100008" lon="13.6542349">
<ele>776.778</ele>
<time>2025-12-04T08:45:30Z</time>
<hdop>6.12</hdop>
</trkpt>
<trkpt lat="47.7105495" lon="13.6537789">
<ele>788.778</ele>
<time>2025-12-04T08:46:25Z</time>
<hdop>9.69</hdop>
</trkpt>
<trkpt lat="47.7110742" lon="13.6532575">
<ele>796.777</ele>
<time>2025-12-04T08:47:20Z</time>
<hdop>9.69</hdop>
</trkpt>
<trkpt lat="47.7115674" lon="13.6527628">
<ele>804.777</ele>
<time>2025-12-04T08:48:14Z</time>
<hdop>9.69</hdop>
</trkpt>
<trkpt lat="47.7118005" lon="13.6526719">
<ele>804.777</ele>
<time>2025-12-04T08:49:09Z</time>
<hdop>14.29</hdop>
</trkpt>
<trkpt lat="47.7123527" lon="13.6533403">
<ele>808.777</ele>
<time>2025-12-04T08:50:04Z</time>
<hdop>10.71</hdop>
</trkpt>
<trkpt lat="47.712842" lon="13.6553392">
<ele>831.778</ele>
<time>2025-12-04T08:51:53Z</time>
<hdop>10.71</hdop>
</trkpt>
<trkpt lat="47.713266" lon="13.6561433">
<ele>838.779</ele>
<time>2025-12-04T08:52:48Z</time>
<hdop>5.61</hdop>
</trkpt>
<trkpt lat="47.7128405" lon="13.6566159">
<ele>851.779</ele>
<time>2025-12-04T08:53:42Z</time>
<hdop>8.67</hdop>
</trkpt>
<trkpt lat="47.7124277" lon="13.6573346">
<ele>858.78</ele>
<time>2025-12-04T08:54:37Z</time>
<hdop>4.59</hdop>
</trkpt>
<trkpt lat="47.7118438" lon="13.6576229">
<ele>866.78</ele>
<time>2025-12-04T08:55:31Z</time>
<hdop>6.12</hdop>
</trkpt>
<trkpt lat="47.7114087" lon="13.6582871">
<ele>877.781</ele>
<time>2025-12-04T08:56:26Z</time>
<hdop>6.12</hdop>
</trkpt>
<trkpt lat="47.7108279" lon="13.6586529">
<ele>883.781</ele>
<time>2025-12-04T08:57:21Z</time>
<hdop>6.63</hdop>
</trkpt>
<trkpt lat="47.7106949" lon="13.6589391">
<ele>881.782</ele>
<time>2025-12-04T08:58:16Z</time>
<hdop>10.71</hdop>
</trkpt>
<trkpt lat="47.7102363" lon="13.6588335">
<ele>888.782</ele>
<time>2025-12-04T08:59:10Z</time>
<hdop>9.18</hdop>
</trkpt>
<trkpt lat="47.7099078" lon="13.6591929">
<ele>894.782</ele>
<time>2025-12-04T09:00:05Z</time>
<hdop>8.67</hdop>
</trkpt>
<trkpt lat="47.7098749" lon="13.6598863">
<ele>902.783</ele>
<time>2025-12-04T09:01:00Z</time>
<hdop>12.76</hdop>
</trkpt>
<trkpt lat="47.7099459" lon="13.6607416">
<ele>906.783</ele>
<time>2025-12-04T09:01:54Z</time>
<hdop>11.73</hdop>
</trkpt>
<trkpt lat="47.709867" lon="13.6614654">
<ele>916.784</ele>
<time>2025-12-04T09:02:49Z</time>
<hdop>10.2</hdop>
</trkpt>
<trkpt lat="47.709867" lon="13.6614654">
<ele>915.784</ele>
<time>2025-12-04T09:03:44Z</time>
<hdop>6.63</hdop>
</trkpt>
<trkpt lat="47.709867" lon="13.6614654">
<ele>916.784</ele>
<time>2025-12-04T09:04:38Z</time>
<hdop>8.67</hdop>
</trkpt>
<trkpt lat="47.709867" lon="13.6614654">
<ele>915.784</ele>
<time>2025-12-04T09:05:33Z</time>
<hdop>5.1</hdop>
</trkpt>
<trkpt lat="47.7099025" lon="13.6614633">
<ele>915.784</ele>
<time>2025-12-04T09:06:28Z</time>
<hdop>6.63</hdop>
</trkpt>
<trkpt lat="47.7100186" lon="13.6620927">
<ele>922.784</ele>
<time>2025-12-04T09:07:22Z</time>
<hdop>6.63</hdop>
</trkpt>
<trkpt lat="47.7099496" lon="13.6630106">
<ele>929.785</ele>
<time>2025-12-04T09:08:17Z</time>
<hdop>7.14</hdop>
</trkpt>
<trkpt lat="47.7099149" lon="13.6638788">
<ele>938.786</ele>
<time>2025-12-04T09:09:12Z</time>
<hdop>5.1</hdop>
</trkpt>
<trkpt lat="47.7099249" lon="13.6647414">
<ele>945.786</ele>
<time>2025-12-04T09:10:06Z</time>
<hdop>8.16</hdop>
</trkpt>
<trkpt lat="47.7099755" lon="13.6656746">
<ele>959.787</ele>
<time>2025-12-04T09:11:01Z</time>
<hdop>8.67</hdop>
</trkpt>
<trkpt lat="47.7101911" lon="13.6664166">
<ele>964.788</ele>
<time>2025-12-04T09:11:56Z</time>
<hdop>15.82</hdop>
</trkpt>
<trkpt lat="47.7103375" lon="13.6671559">
<ele>968.788</ele>
<time>2025-12-04T09:12:50Z</time>
<hdop>16.33</hdop>
</trkpt>
<trkpt lat="47.710436" lon="13.667887">
<ele>974.789</ele>
<time>2025-12-04T09:13:45Z</time>
<hdop>16.84</hdop>
</trkpt>
<trkpt lat="47.7105564" lon="13.6685272">
<ele>983.789</ele>
<time>2025-12-04T09:14:40Z</time>
<hdop>16.33</hdop>
</trkpt>
<trkpt lat="47.7104633" lon="13.6692291">
<ele>992.79</ele>
<time>2025-12-04T09:15:34Z</time>
<hdop>19.39</hdop>
</trkpt>
<trkpt lat="47.7098644" lon="13.6690754">
<ele>1004.79</ele>
<time>2025-12-04T09:16:29Z</time>
<hdop>14.29</hdop>
</trkpt>
<trkpt lat="47.7093451" lon="13.6688924">
<ele>1014.79</ele>
<time>2025-12-04T09:17:23Z</time>
<hdop>15.82</hdop>
</trkpt>
<trkpt lat="47.7088557" lon="13.6685514">
<ele>1027.789</ele>
<time>2025-12-04T09:18:17Z</time>
<hdop>10.71</hdop>
</trkpt>
<trkpt lat="47.7083533" lon="13.6684679">
<ele>1033.79</ele>
<time>2025-12-04T09:19:12Z</time>
<hdop>11.22</hdop>
</trkpt>
<trkpt lat="47.7079693" lon="13.6689176">
<ele>1040.79</ele>
<time>2025-12-04T09:20:06Z</time>
<hdop>13.78</hdop>
</trkpt>
<trkpt lat="47.7080435" lon="13.6695863">
<ele>1050.79</ele>
<time>2025-12-04T09:21:01Z</time>
<hdop>11.22</hdop>
</trkpt>
<trkpt lat="47.7082558" lon="13.6700867">
<ele>1059.791</ele>
<time>2025-12-04T09:21:56Z</time>
<hdop>5.61</hdop>
</trkpt>
<trkpt lat="47.7083187" lon="13.6702435">
<ele>1067.791</ele>
<time>2025-12-04T09:22:50Z</time>
<hdop>11.73</hdop>
</trkpt>
<trkpt lat="47.7086934" lon="13.6709659">
<ele>1071.791</ele>
<time>2025-12-04T09:23:45Z</time>
<hdop>11.22</hdop>
</trkpt>
<trkpt lat="47.70896" lon="13.6717224">
<ele>1078.792</ele>
<time>2025-12-04T09:24:40Z</time>
<hdop>8.67</hdop>
</trkpt>
<trkpt lat="47.7093557" lon="13.6722691">
<ele>1086.792</ele>
<time>2025-12-04T09:25:34Z</time>
<hdop>10.71</hdop>
</trkpt>
<trkpt lat="47.7098346" lon="13.6727439">
<ele>1097.792</ele>
<time>2025-12-04T09:26:29Z</time>
<hdop>8.67</hdop>
</trkpt>
<trkpt lat="47.7102643" lon="13.6732444">
<ele>1104.793</ele>
<time>2025-12-04T09:27:24Z</time>
<hdop>12.24</hdop>
</trkpt>
<trkpt lat="47.7104263" lon="13.6740378">
<ele>1110.793</ele>
<time>2025-12-04T09:28:18Z</time>
<hdop>11.22</hdop>
</trkpt>
<trkpt lat="47.7108634" lon="13.6745988">
<ele>1117.794</ele>
<time>2025-12-04T09:29:13Z</time>
<hdop>17.86</hdop>
</trkpt>
<trkpt lat="47.7115939" lon="13.6743062">
<ele>1136.793</ele>
<time>2025-12-04T09:30:07Z</time>
<hdop>13.27</hdop>
</trkpt>
<trkpt lat="47.7122594" lon="13.6741311">
<ele>1141.793</ele>
<time>2025-12-04T09:31:01Z</time>
<hdop>11.22</hdop>
</trkpt>
<trkpt lat="47.7126083" lon="13.6731593">
<ele>1152.792</ele>
<time>2025-12-04T09:31:56Z</time>
<hdop>9.18</hdop>
</trkpt>
<trkpt lat="47.7126626" lon="13.672926">
<ele>1151.792</ele>
<time>2025-12-04T09:32:50Z</time>
<hdop>12.76</hdop>
</trkpt>
<trkpt lat="47.7126432" lon="13.6728897">
<ele>1154.792</ele>
<time>2025-12-04T09:33:45Z</time>
<hdop>7.65</hdop>
</trkpt>
<trkpt lat="47.7126378" lon="13.6728304">
<ele>1153.792</ele>
<time>2025-12-04T09:34:40Z</time>
<hdop>9.69</hdop>
</trkpt>
<trkpt lat="47.7126378" lon="13.6728304">
<ele>1145.792</ele>
<time>2025-12-04T09:35:34Z</time>
<hdop>12.76</hdop>
</trkpt>
<trkpt lat="47.7126378" lon="13.6728304">
<ele>1141.792</ele>
<time>2025-12-04T09:36:29Z</time>
<hdop>16.33</hdop>
</trkpt>
<trkpt lat="47.7126933" lon="13.6728998">
<ele>1142.792</ele>
<time>2025-12-04T09:36:34Z</time>
<hdop>0.51</hdop>
</trkpt>
<trkpt lat="47.7128177" lon="13.6723786">
<ele>1138.791</ele>
<time>2025-12-04T09:37:29Z</time>
<hdop>14.29</hdop>
</trkpt>
<trkpt lat="47.7129688" lon="13.671066">
<ele>1148.79</ele>
<time>2025-12-04T09:38:24Z</time>
<hdop>15.31</hdop>
</trkpt>
<trkpt lat="47.7129439" lon="13.6698896">
<ele>1164.789</ele>
<time>2025-12-04T09:39:18Z</time>
<hdop>11.73</hdop>
</trkpt>
<trkpt lat="47.7137683" lon="13.6697461">
<ele>1170.789</ele>
<time>2025-12-04T09:40:13Z</time>
<hdop>18.37</hdop>
</trkpt>
<trkpt lat="47.7143318" lon="13.6696808">
<ele>1176.789</ele>
<time>2025-12-04T09:40:54Z</time>
<hdop>8.16</hdop>
</trkpt>
<trkpt lat="47.7143377" lon="13.6695902">
<ele>1180.789</ele>
<time>2025-12-04T09:41:49Z</time>
<hdop>5.61</hdop>
</trkpt>
<trkpt lat="47.7143687" lon="13.6696455">
<ele>1179.789</ele>
<time>2025-12-04T09:42:43Z</time>
<hdop>10.2</hdop>
</trkpt>
<trkpt lat="47.714442" lon="13.6698978">
<ele>1178.789</ele>
<time>2025-12-04T09:43:38Z</time>
<hdop>6.12</hdop>
</trkpt>
<trkpt lat="47.7149616" lon="13.670453">
<ele>1185.789</ele>
<time>2025-12-04T09:44:33Z</time>
<hdop>8.67</hdop>
</trkpt>
<trkpt lat="47.7157324" lon="13.6719958">
<ele>1190.79</ele>
<time>2025-12-04T09:45:28Z</time>
<hdop>12.24</hdop>
</trkpt>
<trkpt lat="47.7164767" lon="13.6726886">
<ele>1196.791</ele>
<time>2025-12-04T09:46:22Z</time>
<hdop>9.18</hdop>
</trkpt>
<trkpt lat="47.7170782" lon="13.6732945">
<ele>1204.791</ele>
<time>2025-12-04T09:47:17Z</time>
<hdop>9.18</hdop>
</trkpt>
<trkpt lat="47.7176213" lon="13.6738625">
<ele>1214.791</ele>
<time>2025-12-04T09:48:11Z</time>
<hdop>9.18</hdop>
</trkpt>
<trkpt lat="47.7181906" lon="13.6744936">
<ele>1222.792</ele>
<time>2025-12-04T09:49:06Z</time>
<hdop>8.67</hdop>
</trkpt>
<trkpt lat="47.718714" lon="13.6750495">
<ele>1232.792</ele>
<time>2025-12-04T09:50:01Z</time>
<hdop>7.14</hdop>
</trkpt>
<trkpt lat="47.7190316" lon="13.6759117">
<ele>1238.792</ele>
<time>2025-12-04T09:50:56Z</time>
<hdop>7.14</hdop>
</trkpt>
<trkpt lat="47.719523" lon="13.6765504">
<ele>1247.793</ele>
<time>2025-12-04T09:51:50Z</time>
<hdop>12.76</hdop>
</trkpt>
<trkpt lat="47.7201908" lon="13.6767434">
<ele>1256.793</ele>
<time>2025-12-04T09:52:45Z</time>
<hdop>7.65</hdop>
</trkpt>
<trkpt lat="47.7207994" lon="13.677034">
<ele>1265.793</ele>
<time>2025-12-04T09:53:39Z</time>
<hdop>9.69</hdop>
</trkpt>
<trkpt lat="47.7214333" lon="13.6772579">
<ele>1273.793</ele>
<time>2025-12-04T09:54:33Z</time>
<hdop>6.63</hdop>
</trkpt>
<trkpt lat="47.7218972" lon="13.6778887">
<ele>1275.793</ele>
<time>2025-12-04T09:55:27Z</time>
<hdop>10.2</hdop>
</trkpt>
<trkpt lat="47.7224234" lon="13.6785779">
<ele>1280.794</ele>
<time>2025-12-04T09:56:22Z</time>
<hdop>10.2</hdop>
</trkpt>
<trkpt lat="47.7231182" lon="13.6787861">
<ele>1290.794</ele>
<time>2025-12-04T09:57:17Z</time>
<hdop>9.18</hdop>
</trkpt>
<trkpt lat="47.7237709" lon="13.6790544">
<ele>1295.794</ele>
<time>2025-12-04T09:58:12Z</time>
<hdop>13.78</hdop>
</trkpt>
<trkpt lat="47.7244536" lon="13.6794446">
<ele>1299.794</ele>
<time>2025-12-04T09:59:06Z</time>
<hdop>12.24</hdop>
</trkpt>
<trkpt lat="47.7252257" lon="13.6796255">
<ele>1307.794</ele>
<time>2025-12-04T10:00:01Z</time>
<hdop>15.31</hdop>
</trkpt>
<trkpt lat="47.7259754" lon="13.6793958">
<ele>1317.793</ele>
<time>2025-12-04T10:00:55Z</time>
<hdop>12.24</hdop>
</trkpt>
<trkpt lat="47.7266847" lon="13.6789916">
<ele>1325.793</ele>
<time>2025-12-04T10:01:49Z</time>
<hdop>7.65</hdop>
</trkpt>
<trkpt lat="47.7273529" lon="13.6785414">
<ele>1332.792</ele>
<time>2025-12-04T10:02:43Z</time>
<hdop>8.67</hdop>
</trkpt>
<trkpt lat="47.72784" lon="13.6785591">
<ele>1336.792</ele>
<time>2025-12-04T10:03:38Z</time>
<hdop>6.63</hdop>
</trkpt>
<trkpt lat="47.7284406" lon="13.6786372">
<ele>1340.792</ele>
<time>2025-12-04T10:04:33Z</time>
<hdop>8.16</hdop>
</trkpt>
<trkpt lat="47.7290779" lon="13.6788308">
<ele>1346.792</ele>
<time>2025-12-04T10:05:28Z</time>
<hdop>9.18</hdop>
</trkpt>
<trkpt lat="47.7294251" lon="13.6787684">
<ele>1347.792</ele>
<time>2025-12-04T10:06:22Z</time>
<hdop>7.65</hdop>
</trkpt>
<trkpt lat="47.7294251" lon="13.6787684">
<ele>1349.792</ele>
<time>2025-12-04T10:07:17Z</time>
<hdop>6.12</hdop>
</trkpt>
<trkpt lat="47.7294251" lon="13.6787684">
<ele>1347.792</ele>
<time>2025-12-04T10:08:11Z</time>
<hdop>7.14</hdop>
</trkpt>
<trkpt lat="47.7294251" lon="13.6787684">
<ele>1349.792</ele>
<time>2025-12-04T10:09:06Z</time>
<hdop>8.16</hdop>
</trkpt>
<trkpt lat="47.7294251" lon="13.6787684">
<ele>1348.792</ele>
<time>2025-12-04T10:10:01Z</time>
<hdop>4.59</hdop>
</trkpt>
<trkpt lat="47.7294251" lon="13.6787684">
<ele>1347.792</ele>
<time>2025-12-04T10:10:55Z</time>
<hdop>7.14</hdop>
</trkpt>
<trkpt lat="47.7294251" lon="13.6787684">
<ele>1349.792</ele>
<time>2025-12-04T10:11:50Z</time>
<hdop>3.57</hdop>
</trkpt>
<trkpt lat="47.7294251" lon="13.6787684">
<ele>1349.792</ele>
<time>2025-12-04T10:12:45Z</time>
<hdop>3.57</hdop>
</trkpt>
<trkpt lat="47.7294251" lon="13.6787684">
<ele>1346.792</ele>
<time>2025-12-04T10:13:39Z</time>
<hdop>6.63</hdop>
</trkpt>
<trkpt lat="47.7294046" lon="13.6787596">
<ele>1345.792</ele>
<time>2025-12-04T10:14:33Z</time>
<hdop>9.69</hdop>
</trkpt>
<trkpt lat="47.7293821" lon="13.6787129">
<ele>1347.792</ele>
<time>2025-12-04T10:15:28Z</time>
<hdop>6.12</hdop>
</trkpt>
<trkpt lat="47.7292796" lon="13.6790254">
<ele>1348.792</ele>
<time>2025-12-04T10:16:22Z</time>
<hdop>7.14</hdop>
</trkpt>
<trkpt lat="47.7293821" lon="13.6789263">
<ele>1349.792</ele>
<time>2025-12-04T10:17:17Z</time>
<hdop>5.61</hdop>
</trkpt>
<trkpt lat="47.7294224" lon="13.6787922">
<ele>1348.792</ele>
<time>2025-12-04T10:18:11Z</time>
<hdop>6.63</hdop>
</trkpt>
<trkpt lat="47.7292679" lon="13.6787904">
<ele>1349.792</ele>
<time>2025-12-04T10:19:06Z</time>
<hdop>8.67</hdop>
</trkpt>
<trkpt lat="47.7274739" lon="13.6785203">
<ele>1343.792</ele>
<time>2025-12-04T10:20:01Z</time>
<hdop>7.65</hdop>
</trkpt>
<trkpt lat="47.7245937" lon="13.6794032">
<ele>1321.794</ele>
<time>2025-12-04T10:20:56Z</time>
<hdop>6.12</hdop>
</trkpt>
<trkpt lat="47.722412" lon="13.6784699">
<ele>1298.794</ele>
<time>2025-12-04T10:21:50Z</time>
<hdop>6.63</hdop>
</trkpt>
<trkpt lat="47.7205863" lon="13.676893">
<ele>1275.793</ele>
<time>2025-12-04T10:22:45Z</time>
<hdop>6.12</hdop>
</trkpt>
<trkpt lat="47.7188016" lon="13.6751207">
<ele>1252.792</ele>
<time>2025-12-04T10:23:40Z</time>
<hdop>7.65</hdop>
</trkpt>
<trkpt lat="47.7169963" lon="13.6731262">
<ele>1223.791</ele>
<time>2025-12-04T10:24:34Z</time>
<hdop>5.1</hdop>
</trkpt>
<trkpt lat="47.7142621" lon="13.6694868">
<ele>1198.789</ele>
<time>2025-12-04T10:25:29Z</time>
<hdop>6.12</hdop>
</trkpt>
<trkpt lat="47.7130653" lon="13.6696253">
<ele>1171.789</ele>
<time>2025-12-04T10:26:24Z</time>
<hdop>7.65</hdop>
</trkpt>
<trkpt lat="47.7122493" lon="13.674571">
<ele>1147.793</ele>
<time>2025-12-04T10:27:18Z</time>
<hdop>13.78</hdop>
</trkpt>
<trkpt lat="47.7107063" lon="13.6746111">
<ele>1134.794</ele>
<time>2025-12-04T10:28:13Z</time>
<hdop>11.73</hdop>
</trkpt>
<trkpt lat="47.7079155" lon="13.6692469">
<ele>1107.79</ele>
<time>2025-12-04T10:29:08Z</time>
<hdop>8.67</hdop>
</trkpt>
<trkpt lat="47.708735" lon="13.6684682">
<ele>1043.789</ele>
<time>2025-12-04T10:30:57Z</time>
<hdop>7.14</hdop>
</trkpt>
<trkpt lat="47.7104453" lon="13.6691425">
<ele>1028.79</ele>
<time>2025-12-04T10:31:52Z</time>
<hdop>17.35</hdop>
</trkpt>
<trkpt lat="47.7099487" lon="13.6658206">
<ele>998.787</ele>
<time>2025-12-04T10:32:46Z</time>
<hdop>13.78</hdop>
</trkpt>
<trkpt lat="47.7099237" lon="13.6624891">
<ele>943.785</ele>
<time>2025-12-04T10:33:41Z</time>
<hdop>3.57</hdop>
</trkpt>
<trkpt lat="47.7099599" lon="13.6590339">
<ele>917.782</ele>
<time>2025-12-04T10:34:35Z</time>
<hdop>9.69</hdop>
</trkpt>
<trkpt lat="47.7106792" lon="13.658975">
<ele>893.782</ele>
<time>2025-12-04T10:35:30Z</time>
<hdop>14.29</hdop>
</trkpt>
<trkpt lat="47.7118343" lon="13.6576537">
<ele>872.78</ele>
<time>2025-12-04T10:36:25Z</time>
<hdop>10.2</hdop>
</trkpt>
<trkpt lat="47.7132446" lon="13.656468">
<ele>855.779</ele>
<time>2025-12-04T10:37:19Z</time>
<hdop>11.73</hdop>
</trkpt>
<trkpt lat="47.7122646" lon="13.6528643">
<ele>832.777</ele>
<time>2025-12-04T10:38:13Z</time>
<hdop>10.2</hdop>
</trkpt>
<trkpt lat="47.7106828" lon="13.6535997">
<ele>797.778</ele>
<time>2025-12-04T10:39:07Z</time>
<hdop>9.69</hdop>
</trkpt>
<trkpt lat="47.7087385" lon="13.6549056">
<ele>759.779</ele>
<time>2025-12-04T10:40:02Z</time>
<hdop>6.63</hdop>
</trkpt>
<trkpt lat="47.7066139" lon="13.6551399">
<ele>727.78</ele>
<time>2025-12-04T10:40:57Z</time>
<hdop>8.16</hdop>
</trkpt>
<trkpt lat="47.7049609" lon="13.6560341">
<ele>697.781</ele>
<time>2025-12-04T10:41:51Z</time>
<hdop>11.73</hdop>
</trkpt>
<trkpt lat="47.7077491" lon="13.6524233">
<ele>653.778</ele>
<time>2025-12-04T10:42:46Z</time>
<hdop>13.78</hdop>
</trkpt>
<trkpt lat="47.709025" lon="13.6503195">
<ele>609.776</ele>
<time>2025-12-04T10:43:41Z</time>
<hdop>9.18</hdop>
</trkpt>
<trkpt lat="47.7094726" lon="13.6470883">
<ele>573.773</ele>
<time>2025-12-04T10:44:35Z</time>
<hdop>14.29</hdop>
</trkpt>
<trkpt lat="47.7080983" lon="13.6492274">
<ele>525.775</ele>
<time>2025-12-04T10:45:30Z</time>
<hdop>8.16</hdop>
</trkpt>
</trkseg>
<trkseg>
<trkpt lat="47.7080983" lon="13.6492274">
<ele>525.775</ele>
<time>2025-12-04T10:45:30Z</time>
<hdop>8.16</hdop>
</trkpt>
<trkpt lat="47.7080193" lon="13.6492011">
<ele>525.775</ele>
<time>2025-12-04T10:45:30Z</time>
<hdop>8.16</hdop>
</trkpt>
<trkpt lat="47.7067019" lon="13.6488481">
<ele>507.775</ele>
<time>2025-12-04T10:46:25Z</time>
<hdop>9.18</hdop>
</trkpt>
<trkpt lat="47.7061292" lon="13.6475394">
<ele>503.774</ele>
<time>2025-12-04T10:47:19Z</time>
<hdop>12.76</hdop>
</trkpt>
<trkpt lat="47.7062867" lon="13.6465165">
<ele>505.773</ele>
<time>2025-12-04T10:48:13Z</time>
<hdop>5.1</hdop>
</trkpt>
<trkpt lat="47.7079971" lon="13.6412444">
<ele>485.769</ele>
<time>2025-12-04T10:49:07Z</time>
<hdop>5.61</hdop>
</trkpt>
<trkpt lat="47.7082354" lon="13.6395575">
<ele>482.768</ele>
<time>2025-12-04T10:50:01Z</time>
<hdop>11.22</hdop>
</trkpt>
<trkpt lat="47.709474" lon="13.6377274">
<ele>482.766</ele>
<time>2025-12-04T10:50:55Z</time>
<hdop>10.2</hdop>
</trkpt>
<trkpt lat="47.7112396" lon="13.6366452">
<ele>469.765</ele>
<time>2025-12-04T10:51:50Z</time>
<hdop>8.16</hdop>
</trkpt>
<trkpt lat="47.7136554" lon="13.6352542">
<ele>466.763</ele>
<time>2025-12-04T10:52:45Z</time>
<hdop>6.63</hdop>
</trkpt>
<trkpt lat="47.7154708" lon="13.6337327">
<ele>466.761</ele>
<time>2025-12-04T10:53:40Z</time>
<hdop>11.73</hdop>
</trkpt>
<trkpt lat="47.7162997" lon="13.6328875">
<ele>464.76</ele>
<time>2025-12-04T10:54:34Z</time>
<hdop>9.18</hdop>
</trkpt>
<trkpt lat="47.7161487" lon="13.6310156">
<ele>474.759</ele>
<time>2025-12-04T10:55:29Z</time>
<hdop>9.18</hdop>
</trkpt>
<trkpt lat="47.7140874" lon="13.6274743">
<ele>464.757</ele>
<time>2025-12-04T10:56:24Z</time>
<hdop>4.59</hdop>
</trkpt>
<trkpt lat="47.7122263" lon="13.6259766">
<ele>461.756</ele>
<time>2025-12-04T10:57:18Z</time>
<hdop>5.61</hdop>
</trkpt>
<trkpt lat="47.7120617" lon="13.6248915">
<ele>463.755</ele>
<time>2025-12-04T10:58:13Z</time>
<hdop>5.1</hdop>
</trkpt>
<trkpt lat="47.7118431" lon="13.6249661">
<ele>463.756</ele>
<time>2025-12-04T10:59:07Z</time>
<hdop>10.71</hdop>
</trkpt>
<trkpt lat="47.7121072" lon="13.6251862">
<ele>461.756</ele>
<time>2025-12-04T11:00:02Z</time>
<hdop>33.67</hdop>
</trkpt>
<trkpt lat="47.7123066" lon="13.6254875">
<ele>458.756</ele>
<time>2025-12-04T11:01:33Z</time>
<hdop>177.04</hdop>
</trkpt>
<trkpt lat="47.7125337" lon="13.6255306">
<ele>464.756</ele>
<time>2025-12-04T11:01:59Z</time>
<hdop>82.65</hdop>
</trkpt>
<trkpt lat="47.7123656" lon="13.6253165">
<ele>471.756</ele>
<time>2025-12-04T11:02:53Z</time>
<hdop>68.37</hdop>
</trkpt>
<trkpt lat="47.7123114" lon="13.625296">
<ele>471.756</ele>
<time>2025-12-04T11:03:48Z</time>
<hdop>47.96</hdop>
</trkpt>
<trkpt lat="47.7123087" lon="13.6253003">
<ele>471.756</ele>
<time>2025-12-04T11:04:42Z</time>
<hdop>49.49</hdop>
</trkpt>
<trkpt lat="47.7123108" lon="13.6253132">
<ele>469.756</ele>
<time>2025-12-04T11:05:36Z</time>
<hdop>41.84</hdop>
</trkpt>
<trkpt lat="47.7120453" lon="13.625388">
<ele>467.756</ele>
<time>2025-12-04T11:06:31Z</time>
<hdop>37.76</hdop>
</trkpt>
<trkpt lat="47.7123956" lon="13.6250144">
<ele>471.755</ele>
<time>2025-12-04T11:07:25Z</time>
<hdop>108.16</hdop>
</trkpt>
<trkpt lat="47.7126865" lon="13.6249959">
<ele>463.755</ele>
<time>2025-12-04T11:08:16Z</time>
<hdop>48.98</hdop>
</trkpt>
<trkpt lat="47.7129576" lon="13.6247367">
<ele>450.755</ele>
<time>2025-12-04T11:09:34Z</time>
<hdop>298.47</hdop>
</trkpt>
<trkpt lat="47.712902" lon="13.6248695">
<ele>561.755</ele>
<time>2025-12-04T11:09:49Z</time>
<hdop>125.51</hdop>
</trkpt>
<trkpt lat="47.7129282" lon="13.6247777">
<ele>503.755</ele>
<time>2025-12-04T11:10:43Z</time>
<hdop>95.41</hdop>
</trkpt>
<trkpt lat="47.7129282" lon="13.6247777">
<ele>489.755</ele>
<time>2025-12-04T11:11:20Z</time>
<hdop>45.92</hdop>
</trkpt>
<trkpt lat="47.7129282" lon="13.6247777">
<ele>485.755</ele>
<time>2025-12-04T11:12:14Z</time>
<hdop>46.43</hdop>
</trkpt>
<trkpt lat="47.7129282" lon="13.6247777">
<ele>485.755</ele>
<time>2025-12-04T11:13:08Z</time>
<hdop>56.63</hdop>
</trkpt>
<trkpt lat="47.7129282" lon="13.6247777">
<ele>484.755</ele>
<time>2025-12-04T11:14:02Z</time>
<hdop>72.96</hdop>
</trkpt>
<trkpt lat="47.7129282" lon="13.6247777">
<ele>484.755</ele>
<time>2025-12-04T11:14:57Z</time>
<hdop>82.14</hdop>
</trkpt>
<trkpt lat="47.7129282" lon="13.6247777">
<ele>483.755</ele>
<time>2025-12-04T11:15:52Z</time>
<hdop>73.47</hdop>
</trkpt>
<trkpt lat="47.7129282" lon="13.6247777">
<ele>480.755</ele>
<time>2025-12-04T11:16:46Z</time>
<hdop>84.18</hdop>
</trkpt>
<trkpt lat="47.7129282" lon="13.6247777">
<ele>479.755</ele>
<time>2025-12-04T11:17:41Z</time>
<hdop>82.65</hdop>
</trkpt>
<trkpt lat="47.7129282" lon="13.6247777">
<ele>479.755</ele>
<time>2025-12-04T11:18:35Z</time>
<hdop>78.57</hdop>
</trkpt>
<trkpt lat="47.7129282" lon="13.6247777">
<ele>479.755</ele>
<time>2025-12-04T11:19:30Z</time>
<hdop>90.82</hdop>
</trkpt>
<trkpt lat="47.7129282" lon="13.6247777">
<ele>478.755</ele>
<time>2025-12-04T11:20:25Z</time>
<hdop>79.08</hdop>
</trkpt>
<trkpt lat="47.7129282" lon="13.6247777">
<ele>478.755</ele>
<time>2025-12-04T11:21:19Z</time>
<hdop>94.39</hdop>
</trkpt>
<trkpt lat="47.7129282" lon="13.6247777">
<ele>478.755</ele>
<time>2025-12-04T11:22:14Z</time>
<hdop>81.12</hdop>
</trkpt>
<trkpt lat="47.7129282" lon="13.6247777">
<ele>477.755</ele>
<time>2025-12-04T11:23:09Z</time>
<hdop>81.12</hdop>
</trkpt>
<trkpt lat="47.7129282" lon="13.6247777">
<ele>477.755</ele>
<time>2025-12-04T11:24:03Z</time>
<hdop>79.59</hdop>
</trkpt>
<trkpt lat="47.7129282" lon="13.6247777">
<ele>476.755</ele>
<time>2025-12-04T11:24:58Z</time>
<hdop>69.9</hdop>
</trkpt>
<trkpt lat="47.7129282" lon="13.6247777">
<ele>476.755</ele>
<time>2025-12-04T11:25:53Z</time>
<hdop>73.98</hdop>
</trkpt>
<trkpt lat="47.7128697" lon="13.6248699">
<ele>476.755</ele>
<time>2025-12-04T11:26:47Z</time>
<hdop>89.8</hdop>
</trkpt>
<trkpt lat="47.7128812" lon="13.6249299">
<ele>472.755</ele>
<time>2025-12-04T11:27:42Z</time>
<hdop>81.63</hdop>
</trkpt>
<trkpt lat="47.7128812" lon="13.6249299">
<ele>472.755</ele>
<time>2025-12-04T11:28:37Z</time>
<hdop>82.65</hdop>
</trkpt>
<trkpt lat="47.7128812" lon="13.6249299">
<ele>472.755</ele>
<time>2025-12-04T11:29:31Z</time>
<hdop>121.94</hdop>
</trkpt>
<trkpt lat="47.7128812" lon="13.6249299">
<ele>472.755</ele>
<time>2025-12-04T11:30:26Z</time>
<hdop>90.31</hdop>
</trkpt>
<trkpt lat="47.7128812" lon="13.6249299">
<ele>472.755</ele>
<time>2025-12-04T11:31:21Z</time>
<hdop>94.9</hdop>
</trkpt>
<trkpt lat="47.7128812" lon="13.6249299">
<ele>472.755</ele>
<time>2025-12-04T11:32:15Z</time>
<hdop>69.39</hdop>
</trkpt>
<trkpt lat="47.7128812" lon="13.6249299">
<ele>471.755</ele>
<time>2025-12-04T11:33:10Z</time>
<hdop>66.84</hdop>
</trkpt>
<trkpt lat="47.7128812" lon="13.6249299">
<ele>472.755</ele>
<time>2025-12-04T11:34:04Z</time>
<hdop>92.86</hdop>
</trkpt>
<trkpt lat="47.7128812" lon="13.6249299">
<ele>471.755</ele>
<time>2025-12-04T11:34:59Z</time>
<hdop>127.04</hdop>
</trkpt>
<trkpt lat="47.7128812" lon="13.6249299">
<ele>471.755</ele>
<time>2025-12-04T11:35:54Z</time>
<hdop>83.16</hdop>
</trkpt>
<trkpt lat="47.7128812" lon="13.6249299">
<ele>471.755</ele>
<time>2025-12-04T11:36:49Z</time>
<hdop>65.82</hdop>
</trkpt>
<trkpt lat="47.7128812" lon="13.6249299">
<ele>471.755</ele>
<time>2025-12-04T11:37:43Z</time>
<hdop>81.12</hdop>
</trkpt>
<trkpt lat="47.7128812" lon="13.6249299">
<ele>471.755</ele>
<time>2025-12-04T11:38:38Z</time>
<hdop>60.71</hdop>
</trkpt>
<trkpt lat="47.7128812" lon="13.6249299">
<ele>471.755</ele>
<time>2025-12-04T11:39:33Z</time>
<hdop>66.33</hdop>
</trkpt>
<trkpt lat="47.7128812" lon="13.6249299">
<ele>471.755</ele>
<time>2025-12-04T11:40:27Z</time>
<hdop>56.63</hdop>
</trkpt>
<trkpt lat="47.7128812" lon="13.6249299">
<ele>471.755</ele>
<time>2025-12-04T11:41:22Z</time>
<hdop>51.53</hdop>
</trkpt>
<trkpt lat="47.7128812" lon="13.6249299">
<ele>471.755</ele>
<time>2025-12-04T11:42:16Z</time>
<hdop>66.84</hdop>
</trkpt>
<trkpt lat="47.7128812" lon="13.6249299">
<ele>471.755</ele>
<time>2025-12-04T11:43:11Z</time>
<hdop>67.86</hdop>
</trkpt>
<trkpt lat="47.7128812" lon="13.6249299">
<ele>471.755</ele>
<time>2025-12-04T11:44:06Z</time>
<hdop>64.29</hdop>
</trkpt>
<trkpt lat="47.7128812" lon="13.6249299">
<ele>470.755</ele>
<time>2025-12-04T11:45:00Z</time>
<hdop>78.57</hdop>
</trkpt>
<trkpt lat="47.7128812" lon="13.6249299">
<ele>470.755</ele>
<time>2025-12-04T11:45:54Z</time>
<hdop>83.16</hdop>
</trkpt>
<trkpt lat="47.7128812" lon="13.6249299">
<ele>470.755</ele>
<time>2025-12-04T11:46:49Z</time>
<hdop>93.37</hdop>
</trkpt>
<trkpt lat="47.7128812" lon="13.6249299">
<ele>470.755</ele>
<time>2025-12-04T11:47:44Z</time>
<hdop>83.16</hdop>
</trkpt>
<trkpt lat="47.7128812" lon="13.6249299">
<ele>470.755</ele>
<time>2025-12-04T11:48:38Z</time>
<hdop>89.29</hdop>
</trkpt>
<trkpt lat="47.7128812" lon="13.6249299">
<ele>471.755</ele>
<time>2025-12-04T11:49:32Z</time>
<hdop>66.33</hdop>
</trkpt>
<trkpt lat="47.7128812" lon="13.6249299">
<ele>471.755</ele>
<time>2025-12-04T11:50:26Z</time>
<hdop>80.1</hdop>
</trkpt>
<trkpt lat="47.7128812" lon="13.6249299">
<ele>471.755</ele>
<time>2025-12-04T11:51:21Z</time>
<hdop>88.27</hdop>
</trkpt>
<trkpt lat="47.7128812" lon="13.6249299">
<ele>471.755</ele>
<time>2025-12-04T11:52:16Z</time>
<hdop>65.31</hdop>
</trkpt>
<trkpt lat="47.7128812" lon="13.6249299">
<ele>471.755</ele>
<time>2025-12-04T11:53:10Z</time>
<hdop>65.82</hdop>
</trkpt>
<trkpt lat="47.7128812" lon="13.6249299">
<ele>471.755</ele>
<time>2025-12-04T11:54:05Z</time>
<hdop>81.63</hdop>
</trkpt>
<trkpt lat="47.7128812" lon="13.6249299">
<ele>471.755</ele>
<time>2025-12-04T11:55:00Z</time>
<hdop>69.9</hdop>
</trkpt>
<trkpt lat="47.7128812" lon="13.6249299">
<ele>471.755</ele>
<time>2025-12-04T11:55:54Z</time>
<hdop>112.76</hdop>
</trkpt>
<trkpt lat="47.7128812" lon="13.6249299">
<ele>471.755</ele>
<time>2025-12-04T11:56:49Z</time>
<hdop>66.84</hdop>
</trkpt>
<trkpt lat="47.7128812" lon="13.6249299">
<ele>471.755</ele>
<time>2025-12-04T11:57:43Z</time>
<hdop>86.22</hdop>
</trkpt>
<trkpt lat="47.7128812" lon="13.6249299">
<ele>471.755</ele>
<time>2025-12-04T11:58:38Z</time>
<hdop>91.33</hdop>
</trkpt>
<trkpt lat="47.7128403" lon="13.6248734">
<ele>471.755</ele>
<time>2025-12-04T11:59:33Z</time>
<hdop>159.69</hdop>
</trkpt>
<trkpt lat="47.712593" lon="13.6255939">
<ele>441.756</ele>
<time>2025-12-04T12:01:21Z</time>
<hdop>382.14</hdop>
</trkpt>
<trkpt lat="47.7128526" lon="13.6252009">
<ele>503.756</ele>
<time>2025-12-04T12:01:37Z</time>
<hdop>173.98</hdop>
</trkpt>
<trkpt lat="47.7129129" lon="13.6251297">
<ele>482.755</ele>
<time>2025-12-04T12:02:03Z</time>
<hdop>84.18</hdop>
</trkpt>
<trkpt lat="47.7129975" lon="13.6248271">
<ele>483.755</ele>
<time>2025-12-04T12:02:57Z</time>
<hdop>70.92</hdop>
</trkpt>
<trkpt lat="47.7129975" lon="13.6248271">
<ele>472.755</ele>
<time>2025-12-04T12:03:52Z</time>
<hdop>85.2</hdop>
</trkpt>
<trkpt lat="47.7129975" lon="13.6248271">
<ele>471.755</ele>
<time>2025-12-04T12:04:46Z</time>
<hdop>81.12</hdop>
</trkpt>
<trkpt lat="47.7129975" lon="13.6248271">
<ele>470.755</ele>
<time>2025-12-04T12:05:40Z</time>
<hdop>58.16</hdop>
</trkpt>
<trkpt lat="47.7129975" lon="13.6248271">
<ele>470.755</ele>
<time>2025-12-04T12:06:35Z</time>
<hdop>70.41</hdop>
</trkpt>
<trkpt lat="47.7129975" lon="13.6248271">
<ele>470.755</ele>
<time>2025-12-04T12:07:29Z</time>
<hdop>92.35</hdop>
</trkpt>
<trkpt lat="47.7129975" lon="13.6248271">
<ele>470.755</ele>
<time>2025-12-04T12:08:24Z</time>
<hdop>76.02</hdop>
</trkpt>
<trkpt lat="47.7129802" lon="13.6248419">
<ele>469.755</ele>
<time>2025-12-04T12:09:18Z</time>
<hdop>99.49</hdop>
</trkpt>
<trkpt lat="47.7127521" lon="13.6247468">
<ele>361.755</ele>
<time>2025-12-04T12:10:12Z</time>
<hdop>226.02</hdop>
</trkpt>
<trkpt lat="47.7126178" lon="13.6247815">
<ele>390.755</ele>
<time>2025-12-04T12:11:07Z</time>
<hdop>161.22</hdop>
</trkpt>
<trkpt lat="47.713272" lon="13.6254956">
<ele>429.756</ele>
<time>2025-12-04T12:12:02Z</time>
<hdop>174.49</hdop>
</trkpt>
<trkpt lat="47.7132545" lon="13.6251947">
<ele>421.755</ele>
<time>2025-12-04T12:12:56Z</time>
<hdop>99.49</hdop>
</trkpt>
<trkpt lat="47.7131452" lon="13.6251124">
<ele>452.755</ele>
<time>2025-12-04T12:13:51Z</time>
<hdop>81.63</hdop>
</trkpt>
<trkpt lat="47.7131115" lon="13.624966">
<ele>453.755</ele>
<time>2025-12-04T12:14:45Z</time>
<hdop>98.47</hdop>
</trkpt>
<trkpt lat="47.7131048" lon="13.6249611">
<ele>453.755</ele>
<time>2025-12-04T12:15:40Z</time>
<hdop>110.71</hdop>
</trkpt>
<trkpt lat="47.7130951" lon="13.6249585">
<ele>453.755</ele>
<time>2025-12-04T12:16:35Z</time>
<hdop>73.98</hdop>
</trkpt>
<trkpt lat="47.7130843" lon="13.624949">
<ele>453.755</ele>
<time>2025-12-04T12:17:29Z</time>
<hdop>79.08</hdop>
</trkpt>
<trkpt lat="47.7130804" lon="13.6249442">
<ele>453.755</ele>
<time>2025-12-04T12:18:23Z</time>
<hdop>74.49</hdop>
</trkpt>
<trkpt lat="47.7130751" lon="13.6249363">
<ele>452.755</ele>
<time>2025-12-04T12:19:17Z</time>
<hdop>94.39</hdop>
</trkpt>
<trkpt lat="47.7130735" lon="13.6249328">
<ele>453.755</ele>
<time>2025-12-04T12:20:12Z</time>
<hdop>102.04</hdop>
</trkpt>
<trkpt lat="47.7129371" lon="13.6249579">
<ele>449.755</ele>
<time>2025-12-04T12:21:07Z</time>
<hdop>87.24</hdop>
</trkpt>
<trkpt lat="47.712931" lon="13.6249452">
<ele>450.755</ele>
<time>2025-12-04T12:22:01Z</time>
<hdop>103.06</hdop>
</trkpt>
<trkpt lat="47.712931" lon="13.6249452">
<ele>450.755</ele>
<time>2025-12-04T12:22:56Z</time>
<hdop>108.16</hdop>
</trkpt>
<trkpt lat="47.7129275" lon="13.6249442">
<ele>450.755</ele>
<time>2025-12-04T12:23:50Z</time>
<hdop>83.16</hdop>
</trkpt>
<trkpt lat="47.7129239" lon="13.6249118">
<ele>450.755</ele>
<time>2025-12-04T12:24:45Z</time>
<hdop>98.47</hdop>
</trkpt>
<trkpt lat="47.7130037" lon="13.6248274">
<ele>450.755</ele>
<time>2025-12-04T12:25:40Z</time>
<hdop>111.22</hdop>
</trkpt>
<trkpt lat="47.7123524" lon="13.6253258">
<ele>600.756</ele>
<time>2025-12-04T12:27:01Z</time>
<hdop>345.41</hdop>
</trkpt>
<trkpt lat="47.7123866" lon="13.6253926">
<ele>639.756</ele>
<time>2025-12-04T12:27:24Z</time>
<hdop>167.35</hdop>
</trkpt>
<trkpt lat="47.7125136" lon="13.624639">
<ele>476.755</ele>
<time>2025-12-04T12:33:06Z</time>
<hdop>250.51</hdop>
</trkpt>
<trkpt lat="47.7121359" lon="13.6250058">
<ele>477.756</ele>
<time>2025-12-04T12:33:13Z</time>
<hdop>120.41</hdop>
</trkpt>
<trkpt lat="47.7122703" lon="13.6248882">
<ele>477.755</ele>
<time>2025-12-04T12:33:22Z</time>
<hdop>60.2</hdop>
</trkpt>
<trkpt lat="47.7125082" lon="13.6248844">
<ele>452.755</ele>
<time>2025-12-04T12:34:28Z</time>
<hdop>213.27</hdop>
</trkpt>
</trkseg>
</trk>
</gpx>
